<?xml version="1.0" encoding="UTF-8"?>
<gpx version="1.1" creator="FitFilter" xmlns="http://www.topografix.com/GPX/1/1" xmlns:xsi="http://www.w3.org/2001/XMLSchema-instance" xsi:schemaLocation="http://www.topografix.com/GPX/1/1 http://www.topografix.com/GPX/1/1/gpx.xsd">
  <metadata>
    <time>2026-06-25T11:26:34Z</time>
  </metadata>
  <trk>
    <name>Walking - 2026-06-25 11:26</name>
    <type>walking</type>
    <trkseg>
      <trkpt lat="9.004885" lon="-79.570923">
        <time>2026-06-25T11:26:34Z</time>
      </trkpt>
      <trkpt lat="9.004893" lon="-79.570919">
        <time>2026-06-25T11:26:35Z</time>
      </trkpt>
      <trkpt lat="9.004890" lon="-79.570874">
        <time>2026-06-25T11:26:38Z</time>
      </trkpt>
      <trkpt lat="9.004889" lon="-79.570845">
        <time>2026-06-25T11:26:40Z</time>
      </trkpt>
      <trkpt lat="9.004917" lon="-79.570751">
        <time>2026-06-25T11:26:47Z</time>
      </trkpt>
      <trkpt lat="9.004920" lon="-79.570739">
        <time>2026-06-25T11:26:48Z</time>
      </trkpt>
      <trkpt lat="9.004937" lon="-79.570669">
        <time>2026-06-25T11:26:53Z</time>
      </trkpt>
      <trkpt lat="9.004947" lon="-79.570626">
        <time>2026-06-25T11:26:56Z</time>
      </trkpt>
      <trkpt lat="9.004948" lon="-79.570605">
        <time>2026-06-25T11:26:58Z</time>
      </trkpt>
      <trkpt lat="9.004960" lon="-79.570595">
        <time>2026-06-25T11:26:59Z</time>
      </trkpt>
      <trkpt lat="9.004968" lon="-79.570568">
        <time>2026-06-25T11:27:01Z</time>
      </trkpt>
      <trkpt lat="9.004992" lon="-79.570501">
        <time>2026-06-25T11:27:07Z</time>
      </trkpt>
      <trkpt lat="9.004996" lon="-79.570486">
        <time>2026-06-25T11:27:08Z</time>
      </trkpt>
      <trkpt lat="9.005028" lon="-79.570394">
        <time>2026-06-25T11:27:15Z</time>
      </trkpt>
      <trkpt lat="9.005033" lon="-79.570387">
        <time>2026-06-25T11:27:16Z</time>
      </trkpt>
      <trkpt lat="9.005057" lon="-79.570316">
        <time>2026-06-25T11:27:21Z</time>
      </trkpt>
      <trkpt lat="9.005070" lon="-79.570211">
        <time>2026-06-25T11:27:29Z</time>
      </trkpt>
      <trkpt lat="9.005087" lon="-79.570176">
        <time>2026-06-25T11:27:32Z</time>
      </trkpt>
      <trkpt lat="9.005103" lon="-79.570112">
        <time>2026-06-25T11:27:37Z</time>
      </trkpt>
      <trkpt lat="9.005136" lon="-79.570018">
        <time>2026-06-25T11:27:44Z</time>
      </trkpt>
      <trkpt lat="9.005159" lon="-79.569953">
        <time>2026-06-25T11:27:50Z</time>
      </trkpt>
      <trkpt lat="9.005166" lon="-79.569936">
        <time>2026-06-25T11:27:51Z</time>
      </trkpt>
      <trkpt lat="9.005187" lon="-79.569891">
        <time>2026-06-25T11:27:55Z</time>
      </trkpt>
      <trkpt lat="9.005234" lon="-79.569809">
        <time>2026-06-25T11:28:02Z</time>
      </trkpt>
      <trkpt lat="9.005247" lon="-79.569785">
        <time>2026-06-25T11:28:04Z</time>
      </trkpt>
      <trkpt lat="9.005270" lon="-79.569727">
        <time>2026-06-25T11:28:09Z</time>
      </trkpt>
      <trkpt lat="9.005292" lon="-79.569663">
        <time>2026-06-25T11:28:13Z</time>
      </trkpt>
      <trkpt lat="9.005303" lon="-79.569630">
        <time>2026-06-25T11:28:16Z</time>
      </trkpt>
      <trkpt lat="9.005330" lon="-79.569546">
        <time>2026-06-25T11:28:22Z</time>
      </trkpt>
      <trkpt lat="9.005356" lon="-79.569461">
        <time>2026-06-25T11:28:29Z</time>
      </trkpt>
      <trkpt lat="9.005372" lon="-79.569345">
        <time>2026-06-25T11:28:36Z</time>
      </trkpt>
      <trkpt lat="9.005404" lon="-79.569266">
        <time>2026-06-25T11:28:43Z</time>
      </trkpt>
      <trkpt lat="9.005414" lon="-79.569191">
        <time>2026-06-25T11:28:48Z</time>
      </trkpt>
      <trkpt lat="9.005416" lon="-79.569172">
        <time>2026-06-25T11:28:49Z</time>
      </trkpt>
      <trkpt lat="9.005421" lon="-79.569141">
        <time>2026-06-25T11:28:51Z</time>
      </trkpt>
      <trkpt lat="9.005436" lon="-79.569096">
        <time>2026-06-25T11:28:55Z</time>
      </trkpt>
      <trkpt lat="9.005448" lon="-79.569043">
        <time>2026-06-25T11:28:59Z</time>
      </trkpt>
      <trkpt lat="9.005451" lon="-79.569030">
        <time>2026-06-25T11:29:00Z</time>
      </trkpt>
      <trkpt lat="9.005465" lon="-79.569004">
        <time>2026-06-25T11:29:02Z</time>
      </trkpt>
      <trkpt lat="9.005472" lon="-79.568989">
        <time>2026-06-25T11:29:03Z</time>
      </trkpt>
      <trkpt lat="9.005479" lon="-79.568976">
        <time>2026-06-25T11:29:04Z</time>
      </trkpt>
      <trkpt lat="9.005499" lon="-79.568938">
        <time>2026-06-25T11:29:07Z</time>
      </trkpt>
      <trkpt lat="9.005510" lon="-79.568911">
        <time>2026-06-25T11:29:09Z</time>
      </trkpt>
      <trkpt lat="9.005530" lon="-79.568828">
        <time>2026-06-25T11:29:15Z</time>
      </trkpt>
      <trkpt lat="9.005534" lon="-79.568812">
        <time>2026-06-25T11:29:16Z</time>
      </trkpt>
      <trkpt lat="9.005544" lon="-79.568781">
        <time>2026-06-25T11:29:18Z</time>
      </trkpt>
      <trkpt lat="9.005553" lon="-79.568753">
        <time>2026-06-25T11:29:20Z</time>
      </trkpt>
      <trkpt lat="9.005574" lon="-79.568683">
        <time>2026-06-25T11:29:26Z</time>
      </trkpt>
      <trkpt lat="9.005593" lon="-79.568580">
        <time>2026-06-25T11:29:33Z</time>
      </trkpt>
      <trkpt lat="9.005595" lon="-79.568482">
        <time>2026-06-25T11:29:40Z</time>
      </trkpt>
      <trkpt lat="9.005607" lon="-79.568439">
        <time>2026-06-25T11:29:43Z</time>
      </trkpt>
      <trkpt lat="9.005628" lon="-79.568392">
        <time>2026-06-25T11:29:47Z</time>
      </trkpt>
      <trkpt lat="9.005694" lon="-79.568275">
        <time>2026-06-25T11:29:57Z</time>
      </trkpt>
      <trkpt lat="9.005722" lon="-79.568237">
        <time>2026-06-25T11:30:01Z</time>
      </trkpt>
      <trkpt lat="9.005748" lon="-79.568192">
        <time>2026-06-25T11:30:05Z</time>
      </trkpt>
      <trkpt lat="9.005788" lon="-79.568096">
        <time>2026-06-25T11:30:12Z</time>
      </trkpt>
      <trkpt lat="9.005803" lon="-79.568064">
        <time>2026-06-25T11:30:15Z</time>
      </trkpt>
      <trkpt lat="9.005801" lon="-79.568018">
        <time>2026-06-25T11:30:18Z</time>
      </trkpt>
      <trkpt lat="9.005798" lon="-79.568002">
        <time>2026-06-25T11:30:19Z</time>
      </trkpt>
      <trkpt lat="9.005771" lon="-79.567942">
        <time>2026-06-25T11:30:23Z</time>
      </trkpt>
      <trkpt lat="9.005740" lon="-79.567893">
        <time>2026-06-25T11:30:27Z</time>
      </trkpt>
      <trkpt lat="9.005713" lon="-79.567842">
        <time>2026-06-25T11:30:31Z</time>
      </trkpt>
      <trkpt lat="9.005673" lon="-79.567797">
        <time>2026-06-25T11:30:35Z</time>
      </trkpt>
      <trkpt lat="9.005617" lon="-79.567732">
        <time>2026-06-25T11:30:41Z</time>
      </trkpt>
      <trkpt lat="9.005606" lon="-79.567710">
        <time>2026-06-25T11:30:43Z</time>
      </trkpt>
      <trkpt lat="9.005599" lon="-79.567698">
        <time>2026-06-25T11:30:44Z</time>
      </trkpt>
      <trkpt lat="9.005561" lon="-79.567648">
        <time>2026-06-25T11:30:48Z</time>
      </trkpt>
      <trkpt lat="9.005541" lon="-79.567625">
        <time>2026-06-25T11:30:50Z</time>
      </trkpt>
      <trkpt lat="9.005532" lon="-79.567614">
        <time>2026-06-25T11:30:51Z</time>
      </trkpt>
      <trkpt lat="9.005498" lon="-79.567563">
        <time>2026-06-25T11:30:55Z</time>
      </trkpt>
      <trkpt lat="9.005464" lon="-79.567500">
        <time>2026-06-25T11:31:00Z</time>
      </trkpt>
      <trkpt lat="9.005411" lon="-79.567423">
        <time>2026-06-25T11:31:06Z</time>
      </trkpt>
      <trkpt lat="9.005386" lon="-79.567382">
        <time>2026-06-25T11:31:09Z</time>
      </trkpt>
      <trkpt lat="9.005373" lon="-79.567354">
        <time>2026-06-25T11:31:11Z</time>
      </trkpt>
      <trkpt lat="9.005338" lon="-79.567280">
        <time>2026-06-25T11:31:17Z</time>
      </trkpt>
      <trkpt lat="9.005329" lon="-79.567258">
        <time>2026-06-25T11:31:19Z</time>
      </trkpt>
      <trkpt lat="9.005282" lon="-79.567175">
        <time>2026-06-25T11:31:25Z</time>
      </trkpt>
      <trkpt lat="9.005268" lon="-79.567150">
        <time>2026-06-25T11:31:27Z</time>
      </trkpt>
      <trkpt lat="9.005212" lon="-79.567024">
        <time>2026-06-25T11:31:36Z</time>
      </trkpt>
      <trkpt lat="9.005158" lon="-79.566912">
        <time>2026-06-25T11:31:45Z</time>
      </trkpt>
      <trkpt lat="9.005153" lon="-79.566871">
        <time>2026-06-25T11:31:48Z</time>
      </trkpt>
      <trkpt lat="9.005126" lon="-79.566802">
        <time>2026-06-25T11:31:53Z</time>
      </trkpt>
      <trkpt lat="9.005091" lon="-79.566729">
        <time>2026-06-25T11:31:59Z</time>
      </trkpt>
      <trkpt lat="9.005081" lon="-79.566700">
        <time>2026-06-25T11:32:01Z</time>
      </trkpt>
      <trkpt lat="9.005066" lon="-79.566622">
        <time>2026-06-25T11:32:06Z</time>
      </trkpt>
      <trkpt lat="9.005053" lon="-79.566580">
        <time>2026-06-25T11:32:09Z</time>
      </trkpt>
      <trkpt lat="9.005024" lon="-79.566480">
        <time>2026-06-25T11:32:16Z</time>
      </trkpt>
      <trkpt lat="9.005000" lon="-79.566426">
        <time>2026-06-25T11:32:20Z</time>
      </trkpt>
      <trkpt lat="9.004978" lon="-79.566384">
        <time>2026-06-25T11:32:23Z</time>
      </trkpt>
      <trkpt lat="9.004935" lon="-79.566296">
        <time>2026-06-25T11:32:30Z</time>
      </trkpt>
      <trkpt lat="9.004888" lon="-79.566206">
        <time>2026-06-25T11:32:37Z</time>
      </trkpt>
      <trkpt lat="9.004871" lon="-79.566185">
        <time>2026-06-25T11:32:39Z</time>
      </trkpt>
      <trkpt lat="9.004846" lon="-79.566129">
        <time>2026-06-25T11:32:44Z</time>
      </trkpt>
      <trkpt lat="9.004805" lon="-79.566056">
        <time>2026-06-25T11:32:50Z</time>
      </trkpt>
      <trkpt lat="9.004792" lon="-79.566024">
        <time>2026-06-25T11:32:52Z</time>
      </trkpt>
      <trkpt lat="9.004765" lon="-79.565986">
        <time>2026-06-25T11:32:55Z</time>
      </trkpt>
      <trkpt lat="9.004737" lon="-79.565966">
        <time>2026-06-25T11:32:57Z</time>
      </trkpt>
      <trkpt lat="9.004642" lon="-79.565960">
        <time>2026-06-25T11:33:03Z</time>
      </trkpt>
      <trkpt lat="9.004518" lon="-79.565967">
        <time>2026-06-25T11:33:12Z</time>
      </trkpt>
      <trkpt lat="9.004435" lon="-79.565964">
        <time>2026-06-25T11:33:18Z</time>
      </trkpt>
      <trkpt lat="9.004408" lon="-79.565976">
        <time>2026-06-25T11:33:20Z</time>
      </trkpt>
      <trkpt lat="9.004320" lon="-79.565988">
        <time>2026-06-25T11:33:26Z</time>
      </trkpt>
      <trkpt lat="9.004293" lon="-79.565988">
        <time>2026-06-25T11:33:28Z</time>
      </trkpt>
      <trkpt lat="9.004200" lon="-79.566001">
        <time>2026-06-25T11:33:35Z</time>
      </trkpt>
      <trkpt lat="9.004120" lon="-79.566006">
        <time>2026-06-25T11:33:41Z</time>
      </trkpt>
      <trkpt lat="9.004085" lon="-79.566005">
        <time>2026-06-25T11:33:44Z</time>
      </trkpt>
      <trkpt lat="9.004026" lon="-79.566009">
        <time>2026-06-25T11:33:48Z</time>
      </trkpt>
      <trkpt lat="9.003908" lon="-79.566015">
        <time>2026-06-25T11:33:57Z</time>
      </trkpt>
      <trkpt lat="9.003861" lon="-79.566015">
        <time>2026-06-25T11:34:00Z</time>
      </trkpt>
      <trkpt lat="9.003808" lon="-79.566012">
        <time>2026-06-25T11:34:04Z</time>
      </trkpt>
      <trkpt lat="9.003706" lon="-79.565994">
        <time>2026-06-25T11:34:11Z</time>
      </trkpt>
      <trkpt lat="9.003617" lon="-79.565989">
        <time>2026-06-25T11:34:18Z</time>
      </trkpt>
      <trkpt lat="9.003549" lon="-79.565976">
        <time>2026-06-25T11:34:23Z</time>
      </trkpt>
      <trkpt lat="9.003532" lon="-79.565967">
        <time>2026-06-25T11:34:25Z</time>
      </trkpt>
      <trkpt lat="9.003457" lon="-79.565948">
        <time>2026-06-25T11:34:31Z</time>
      </trkpt>
      <trkpt lat="9.003387" lon="-79.565933">
        <time>2026-06-25T11:34:36Z</time>
      </trkpt>
      <trkpt lat="9.003312" lon="-79.565920">
        <time>2026-06-25T11:34:42Z</time>
      </trkpt>
      <trkpt lat="9.003252" lon="-79.565907">
        <time>2026-06-25T11:34:47Z</time>
      </trkpt>
      <trkpt lat="9.003172" lon="-79.565896">
        <time>2026-06-25T11:34:53Z</time>
      </trkpt>
      <trkpt lat="9.003085" lon="-79.565875">
        <time>2026-06-25T11:35:00Z</time>
      </trkpt>
      <trkpt lat="9.003027" lon="-79.565836">
        <time>2026-06-25T11:35:06Z</time>
      </trkpt>
      <trkpt lat="9.002967" lon="-79.565819">
        <time>2026-06-25T11:35:12Z</time>
      </trkpt>
      <trkpt lat="9.002927" lon="-79.565798">
        <time>2026-06-25T11:35:16Z</time>
      </trkpt>
      <trkpt lat="9.002915" lon="-79.565793">
        <time>2026-06-25T11:35:19Z</time>
      </trkpt>
      <trkpt lat="9.002915" lon="-79.565793">
        <time>2026-06-25T11:35:30Z</time>
      </trkpt>
      <trkpt lat="9.002915" lon="-79.565793">
        <time>2026-06-25T11:35:36Z</time>
      </trkpt>
      <trkpt lat="9.002915" lon="-79.565793">
        <time>2026-06-25T11:35:37Z</time>
      </trkpt>
      <trkpt lat="9.002915" lon="-79.565793">
        <time>2026-06-25T11:35:52Z</time>
      </trkpt>
      <trkpt lat="9.002915" lon="-79.565793">
        <time>2026-06-25T11:35:53Z</time>
      </trkpt>
      <trkpt lat="9.002915" lon="-79.565793">
        <time>2026-06-25T11:35:54Z</time>
      </trkpt>
      <trkpt lat="9.002915" lon="-79.565793">
        <time>2026-06-25T11:35:58Z</time>
      </trkpt>
      <trkpt lat="9.002915" lon="-79.565793">
        <time>2026-06-25T11:36:01Z</time>
      </trkpt>
      <trkpt lat="9.002915" lon="-79.565793">
        <time>2026-06-25T11:36:05Z</time>
      </trkpt>
      <trkpt lat="9.002915" lon="-79.565793">
        <time>2026-06-25T11:36:06Z</time>
      </trkpt>
      <trkpt lat="9.002915" lon="-79.565793">
        <time>2026-06-25T11:36:08Z</time>
      </trkpt>
      <trkpt lat="9.002915" lon="-79.565793">
        <time>2026-06-25T11:36:11Z</time>
      </trkpt>
      <trkpt lat="9.002915" lon="-79.565793">
        <time>2026-06-25T11:36:13Z</time>
      </trkpt>
      <trkpt lat="9.002915" lon="-79.565793">
        <time>2026-06-25T11:36:18Z</time>
      </trkpt>
      <trkpt lat="9.002915" lon="-79.565793">
        <time>2026-06-25T11:36:20Z</time>
      </trkpt>
      <trkpt lat="9.002915" lon="-79.565793">
        <time>2026-06-25T11:36:23Z</time>
      </trkpt>
      <trkpt lat="9.002915" lon="-79.565793">
        <time>2026-06-25T11:36:24Z</time>
      </trkpt>
      <trkpt lat="9.002915" lon="-79.565793">
        <time>2026-06-25T11:36:33Z</time>
      </trkpt>
      <trkpt lat="9.002915" lon="-79.565793">
        <time>2026-06-25T11:36:38Z</time>
      </trkpt>
      <trkpt lat="9.002915" lon="-79.565793">
        <time>2026-06-25T11:36:41Z</time>
      </trkpt>
      <trkpt lat="9.002915" lon="-79.565793">
        <time>2026-06-25T11:36:43Z</time>
      </trkpt>
      <trkpt lat="9.002915" lon="-79.565793">
        <time>2026-06-25T11:36:46Z</time>
      </trkpt>
      <trkpt lat="9.002915" lon="-79.565793">
        <time>2026-06-25T11:36:50Z</time>
      </trkpt>
      <trkpt lat="9.002915" lon="-79.565793">
        <time>2026-06-25T11:36:51Z</time>
      </trkpt>
      <trkpt lat="9.002920" lon="-79.565786">
        <time>2026-06-25T11:36:58Z</time>
      </trkpt>
      <trkpt lat="9.002923" lon="-79.565784">
        <time>2026-06-25T11:37:00Z</time>
      </trkpt>
      <trkpt lat="9.002892" lon="-79.565776">
        <time>2026-06-25T11:37:04Z</time>
      </trkpt>
      <trkpt lat="9.002861" lon="-79.565783">
        <time>2026-06-25T11:37:07Z</time>
      </trkpt>
      <trkpt lat="9.002852" lon="-79.565783">
        <time>2026-06-25T11:37:08Z</time>
      </trkpt>
      <trkpt lat="9.002833" lon="-79.565778">
        <time>2026-06-25T11:37:10Z</time>
      </trkpt>
      <trkpt lat="9.002818" lon="-79.565777">
        <time>2026-06-25T11:37:12Z</time>
      </trkpt>
      <trkpt lat="9.002795" lon="-79.565770">
        <time>2026-06-25T11:37:14Z</time>
      </trkpt>
      <trkpt lat="9.002746" lon="-79.565755">
        <time>2026-06-25T11:37:20Z</time>
      </trkpt>
      <trkpt lat="9.002704" lon="-79.565739">
        <time>2026-06-25T11:37:25Z</time>
      </trkpt>
      <trkpt lat="9.002693" lon="-79.565732">
        <time>2026-06-25T11:37:26Z</time>
      </trkpt>
      <trkpt lat="9.002637" lon="-79.565718">
        <time>2026-06-25T11:37:31Z</time>
      </trkpt>
      <trkpt lat="9.002626" lon="-79.565714">
        <time>2026-06-25T11:37:32Z</time>
      </trkpt>
      <trkpt lat="9.002597" lon="-79.565709">
        <time>2026-06-25T11:37:35Z</time>
      </trkpt>
      <trkpt lat="9.002589" lon="-79.565708">
        <time>2026-06-25T11:37:36Z</time>
      </trkpt>
      <trkpt lat="9.002581" lon="-79.565705">
        <time>2026-06-25T11:37:37Z</time>
      </trkpt>
      <trkpt lat="9.002565" lon="-79.565705">
        <time>2026-06-25T11:37:39Z</time>
      </trkpt>
      <trkpt lat="9.002537" lon="-79.565697">
        <time>2026-06-25T11:37:42Z</time>
      </trkpt>
      <trkpt lat="9.002482" lon="-79.565703">
        <time>2026-06-25T11:37:48Z</time>
      </trkpt>
      <trkpt lat="9.002405" lon="-79.565716">
        <time>2026-06-25T11:37:55Z</time>
      </trkpt>
      <trkpt lat="9.002351" lon="-79.565711">
        <time>2026-06-25T11:38:00Z</time>
      </trkpt>
      <trkpt lat="9.002331" lon="-79.565712">
        <time>2026-06-25T11:38:02Z</time>
      </trkpt>
      <trkpt lat="9.002308" lon="-79.565710">
        <time>2026-06-25T11:38:04Z</time>
      </trkpt>
      <trkpt lat="9.002279" lon="-79.565708">
        <time>2026-06-25T11:38:07Z</time>
      </trkpt>
      <trkpt lat="9.002271" lon="-79.565710">
        <time>2026-06-25T11:38:08Z</time>
      </trkpt>
      <trkpt lat="9.002259" lon="-79.565710">
        <time>2026-06-25T11:38:09Z</time>
      </trkpt>
      <trkpt lat="9.002225" lon="-79.565702">
        <time>2026-06-25T11:38:13Z</time>
      </trkpt>
      <trkpt lat="9.002214" lon="-79.565700">
        <time>2026-06-25T11:38:14Z</time>
      </trkpt>
      <trkpt lat="9.002151" lon="-79.565698">
        <time>2026-06-25T11:38:20Z</time>
      </trkpt>
      <trkpt lat="9.002085" lon="-79.565696">
        <time>2026-06-25T11:38:27Z</time>
      </trkpt>
      <trkpt lat="9.002018" lon="-79.565697">
        <time>2026-06-25T11:38:33Z</time>
      </trkpt>
      <trkpt lat="9.001947" lon="-79.565699">
        <time>2026-06-25T11:38:39Z</time>
      </trkpt>
      <trkpt lat="9.001867" lon="-79.565701">
        <time>2026-06-25T11:38:46Z</time>
      </trkpt>
      <trkpt lat="9.001805" lon="-79.565709">
        <time>2026-06-25T11:38:53Z</time>
      </trkpt>
      <trkpt lat="9.001731" lon="-79.565713">
        <time>2026-06-25T11:39:00Z</time>
      </trkpt>
      <trkpt lat="9.001708" lon="-79.565720">
        <time>2026-06-25T11:39:02Z</time>
      </trkpt>
      <trkpt lat="9.001656" lon="-79.565722">
        <time>2026-06-25T11:39:07Z</time>
      </trkpt>
      <trkpt lat="9.001579" lon="-79.565740">
        <time>2026-06-25T11:39:15Z</time>
      </trkpt>
      <trkpt lat="9.001516" lon="-79.565748">
        <time>2026-06-25T11:39:20Z</time>
      </trkpt>
      <trkpt lat="9.001487" lon="-79.565759">
        <time>2026-06-25T11:39:23Z</time>
      </trkpt>
      <trkpt lat="9.001469" lon="-79.565763">
        <time>2026-06-25T11:39:25Z</time>
      </trkpt>
      <trkpt lat="9.001423" lon="-79.565766">
        <time>2026-06-25T11:39:29Z</time>
      </trkpt>
      <trkpt lat="9.001357" lon="-79.565780">
        <time>2026-06-25T11:39:35Z</time>
      </trkpt>
      <trkpt lat="9.001342" lon="-79.565786">
        <time>2026-06-25T11:39:37Z</time>
      </trkpt>
      <trkpt lat="9.001309" lon="-79.565803">
        <time>2026-06-25T11:39:40Z</time>
      </trkpt>
      <trkpt lat="9.001279" lon="-79.565817">
        <time>2026-06-25T11:39:43Z</time>
      </trkpt>
      <trkpt lat="9.001232" lon="-79.565840">
        <time>2026-06-25T11:39:49Z</time>
      </trkpt>
      <trkpt lat="9.001222" lon="-79.565848">
        <time>2026-06-25T11:39:50Z</time>
      </trkpt>
      <trkpt lat="9.001174" lon="-79.565868">
        <time>2026-06-25T11:39:55Z</time>
      </trkpt>
      <trkpt lat="9.001166" lon="-79.565879">
        <time>2026-06-25T11:39:58Z</time>
      </trkpt>
      <trkpt lat="9.001160" lon="-79.565922">
        <time>2026-06-25T11:40:02Z</time>
      </trkpt>
      <trkpt lat="9.001162" lon="-79.565926">
        <time>2026-06-25T11:40:03Z</time>
      </trkpt>
    </trkseg>
  </trk>
</gpx>
