<?xml version="1.0" encoding="UTF-8"?>
<gpx version="1.1" creator="FitFilter" xmlns="http://www.topografix.com/GPX/1/1" xmlns:xsi="http://www.w3.org/2001/XMLSchema-instance" xsi:schemaLocation="http://www.topografix.com/GPX/1/1 http://www.topografix.com/GPX/1/1/gpx.xsd">
  <metadata>
    <time>2026-06-30T11:22:06Z</time>
  </metadata>
  <trk>
    <name>Walking - 2026-06-30 11:22</name>
    <type>walking</type>
    <trkseg>
      <trkpt lat="9.005253" lon="-79.569771">
        <time>2026-06-30T11:22:06Z</time>
      </trkpt>
      <trkpt lat="9.005257" lon="-79.569761">
        <time>2026-06-30T11:22:07Z</time>
      </trkpt>
      <trkpt lat="9.005280" lon="-79.569715">
        <time>2026-06-30T11:22:12Z</time>
      </trkpt>
      <trkpt lat="9.005285" lon="-79.569703">
        <time>2026-06-30T11:22:13Z</time>
      </trkpt>
      <trkpt lat="9.005296" lon="-79.569676">
        <time>2026-06-30T11:22:15Z</time>
      </trkpt>
      <trkpt lat="9.005306" lon="-79.569641">
        <time>2026-06-30T11:22:18Z</time>
      </trkpt>
      <trkpt lat="9.005306" lon="-79.569619">
        <time>2026-06-30T11:22:20Z</time>
      </trkpt>
      <trkpt lat="9.005322" lon="-79.569549">
        <time>2026-06-30T11:22:26Z</time>
      </trkpt>
      <trkpt lat="9.005338" lon="-79.569506">
        <time>2026-06-30T11:22:30Z</time>
      </trkpt>
      <trkpt lat="9.005341" lon="-79.569494">
        <time>2026-06-30T11:22:31Z</time>
      </trkpt>
      <trkpt lat="9.005343" lon="-79.569482">
        <time>2026-06-30T11:22:32Z</time>
      </trkpt>
      <trkpt lat="9.005345" lon="-79.569469">
        <time>2026-06-30T11:22:33Z</time>
      </trkpt>
      <trkpt lat="9.005354" lon="-79.569452">
        <time>2026-06-30T11:22:35Z</time>
      </trkpt>
      <trkpt lat="9.005363" lon="-79.569436">
        <time>2026-06-30T11:22:37Z</time>
      </trkpt>
      <trkpt lat="9.005370" lon="-79.569418">
        <time>2026-06-30T11:22:39Z</time>
      </trkpt>
      <trkpt lat="9.005373" lon="-79.569410">
        <time>2026-06-30T11:22:40Z</time>
      </trkpt>
      <trkpt lat="9.005378" lon="-79.569400">
        <time>2026-06-30T11:22:41Z</time>
      </trkpt>
      <trkpt lat="9.005382" lon="-79.569377">
        <time>2026-06-30T11:22:43Z</time>
      </trkpt>
      <trkpt lat="9.005384" lon="-79.569352">
        <time>2026-06-30T11:22:45Z</time>
      </trkpt>
      <trkpt lat="9.005382" lon="-79.569339">
        <time>2026-06-30T11:22:46Z</time>
      </trkpt>
      <trkpt lat="9.005386" lon="-79.569320">
        <time>2026-06-30T11:22:48Z</time>
      </trkpt>
      <trkpt lat="9.005398" lon="-79.569250">
        <time>2026-06-30T11:22:55Z</time>
      </trkpt>
      <trkpt lat="9.005405" lon="-79.569231">
        <time>2026-06-30T11:22:57Z</time>
      </trkpt>
      <trkpt lat="9.005419" lon="-79.569153">
        <time>2026-06-30T11:23:04Z</time>
      </trkpt>
      <trkpt lat="9.005422" lon="-79.569144">
        <time>2026-06-30T11:23:05Z</time>
      </trkpt>
      <trkpt lat="9.005428" lon="-79.569122">
        <time>2026-06-30T11:23:07Z</time>
      </trkpt>
      <trkpt lat="9.005444" lon="-79.569057">
        <time>2026-06-30T11:23:13Z</time>
      </trkpt>
      <trkpt lat="9.005480" lon="-79.568972">
        <time>2026-06-30T11:23:20Z</time>
      </trkpt>
      <trkpt lat="9.005501" lon="-79.568895">
        <time>2026-06-30T11:23:27Z</time>
      </trkpt>
      <trkpt lat="9.005533" lon="-79.568786">
        <time>2026-06-30T11:23:36Z</time>
      </trkpt>
      <trkpt lat="9.005544" lon="-79.568720">
        <time>2026-06-30T11:23:42Z</time>
      </trkpt>
      <trkpt lat="9.005546" lon="-79.568708">
        <time>2026-06-30T11:23:43Z</time>
      </trkpt>
      <trkpt lat="9.005569" lon="-79.568608">
        <time>2026-06-30T11:23:52Z</time>
      </trkpt>
      <trkpt lat="9.005585" lon="-79.568514">
        <time>2026-06-30T11:24:00Z</time>
      </trkpt>
      <trkpt lat="9.005592" lon="-79.568444">
        <time>2026-06-30T11:24:06Z</time>
      </trkpt>
      <trkpt lat="9.005646" lon="-79.568335">
        <time>2026-06-30T11:24:16Z</time>
      </trkpt>
      <trkpt lat="9.005695" lon="-79.568258">
        <time>2026-06-30T11:24:24Z</time>
      </trkpt>
      <trkpt lat="9.005734" lon="-79.568178">
        <time>2026-06-30T11:24:32Z</time>
      </trkpt>
      <trkpt lat="9.005768" lon="-79.568124">
        <time>2026-06-30T11:24:37Z</time>
      </trkpt>
      <trkpt lat="9.005781" lon="-79.568104">
        <time>2026-06-30T11:24:39Z</time>
      </trkpt>
      <trkpt lat="9.005801" lon="-79.568024">
        <time>2026-06-30T11:24:46Z</time>
      </trkpt>
      <trkpt lat="9.005801" lon="-79.567999">
        <time>2026-06-30T11:24:48Z</time>
      </trkpt>
      <trkpt lat="9.005774" lon="-79.567932">
        <time>2026-06-30T11:24:54Z</time>
      </trkpt>
      <trkpt lat="9.005755" lon="-79.567904">
        <time>2026-06-30T11:24:57Z</time>
      </trkpt>
      <trkpt lat="9.005746" lon="-79.567893">
        <time>2026-06-30T11:24:58Z</time>
      </trkpt>
      <trkpt lat="9.005722" lon="-79.567859">
        <time>2026-06-30T11:25:01Z</time>
      </trkpt>
      <trkpt lat="9.005716" lon="-79.567849">
        <time>2026-06-30T11:25:02Z</time>
      </trkpt>
      <trkpt lat="9.005691" lon="-79.567823">
        <time>2026-06-30T11:25:05Z</time>
      </trkpt>
      <trkpt lat="9.005662" lon="-79.567789">
        <time>2026-06-30T11:25:09Z</time>
      </trkpt>
      <trkpt lat="9.005618" lon="-79.567739">
        <time>2026-06-30T11:25:15Z</time>
      </trkpt>
      <trkpt lat="9.005556" lon="-79.567659">
        <time>2026-06-30T11:25:24Z</time>
      </trkpt>
      <trkpt lat="9.005540" lon="-79.567638">
        <time>2026-06-30T11:25:26Z</time>
      </trkpt>
      <trkpt lat="9.005507" lon="-79.567595">
        <time>2026-06-30T11:25:31Z</time>
      </trkpt>
      <trkpt lat="9.005500" lon="-79.567585">
        <time>2026-06-30T11:25:32Z</time>
      </trkpt>
      <trkpt lat="9.005491" lon="-79.567575">
        <time>2026-06-30T11:25:33Z</time>
      </trkpt>
      <trkpt lat="9.005481" lon="-79.567565">
        <time>2026-06-30T11:25:34Z</time>
      </trkpt>
      <trkpt lat="9.005459" lon="-79.567535">
        <time>2026-06-30T11:25:37Z</time>
      </trkpt>
      <trkpt lat="9.005453" lon="-79.567529">
        <time>2026-06-30T11:25:38Z</time>
      </trkpt>
      <trkpt lat="9.005411" lon="-79.567463">
        <time>2026-06-30T11:25:44Z</time>
      </trkpt>
      <trkpt lat="9.005399" lon="-79.567442">
        <time>2026-06-30T11:25:46Z</time>
      </trkpt>
      <trkpt lat="9.005356" lon="-79.567367">
        <time>2026-06-30T11:25:53Z</time>
      </trkpt>
      <trkpt lat="9.005319" lon="-79.567291">
        <time>2026-06-30T11:26:00Z</time>
      </trkpt>
      <trkpt lat="9.005283" lon="-79.567199">
        <time>2026-06-30T11:26:08Z</time>
      </trkpt>
      <trkpt lat="9.005239" lon="-79.567103">
        <time>2026-06-30T11:26:16Z</time>
      </trkpt>
      <trkpt lat="9.005202" lon="-79.567033">
        <time>2026-06-30T11:26:24Z</time>
      </trkpt>
      <trkpt lat="9.005184" lon="-79.567000">
        <time>2026-06-30T11:26:32Z</time>
      </trkpt>
      <trkpt lat="9.005148" lon="-79.566925">
        <time>2026-06-30T11:26:39Z</time>
      </trkpt>
      <trkpt lat="9.005147" lon="-79.566888">
        <time>2026-06-30T11:26:42Z</time>
      </trkpt>
      <trkpt lat="9.005136" lon="-79.566844">
        <time>2026-06-30T11:26:46Z</time>
      </trkpt>
      <trkpt lat="9.005122" lon="-79.566810">
        <time>2026-06-30T11:26:49Z</time>
      </trkpt>
      <trkpt lat="9.005103" lon="-79.566756">
        <time>2026-06-30T11:26:54Z</time>
      </trkpt>
      <trkpt lat="9.005074" lon="-79.566655">
        <time>2026-06-30T11:27:03Z</time>
      </trkpt>
      <trkpt lat="9.005057" lon="-79.566587">
        <time>2026-06-30T11:27:09Z</time>
      </trkpt>
      <trkpt lat="9.005054" lon="-79.566575">
        <time>2026-06-30T11:27:10Z</time>
      </trkpt>
      <trkpt lat="9.005050" lon="-79.566563">
        <time>2026-06-30T11:27:11Z</time>
      </trkpt>
      <trkpt lat="9.005028" lon="-79.566512">
        <time>2026-06-30T11:27:16Z</time>
      </trkpt>
      <trkpt lat="9.005023" lon="-79.566489">
        <time>2026-06-30T11:27:18Z</time>
      </trkpt>
      <trkpt lat="9.005001" lon="-79.566417">
        <time>2026-06-30T11:27:24Z</time>
      </trkpt>
      <trkpt lat="9.004992" lon="-79.566399">
        <time>2026-06-30T11:27:26Z</time>
      </trkpt>
      <trkpt lat="9.004971" lon="-79.566361">
        <time>2026-06-30T11:27:30Z</time>
      </trkpt>
      <trkpt lat="9.004929" lon="-79.566293">
        <time>2026-06-30T11:27:37Z</time>
      </trkpt>
      <trkpt lat="9.004919" lon="-79.566277">
        <time>2026-06-30T11:27:40Z</time>
      </trkpt>
      <trkpt lat="9.004914" lon="-79.566263">
        <time>2026-06-30T11:27:42Z</time>
      </trkpt>
      <trkpt lat="9.004894" lon="-79.566222">
        <time>2026-06-30T11:27:46Z</time>
      </trkpt>
      <trkpt lat="9.004884" lon="-79.566204">
        <time>2026-06-30T11:27:48Z</time>
      </trkpt>
      <trkpt lat="9.004878" lon="-79.566196">
        <time>2026-06-30T11:27:49Z</time>
      </trkpt>
      <trkpt lat="9.004871" lon="-79.566188">
        <time>2026-06-30T11:27:50Z</time>
      </trkpt>
      <trkpt lat="9.004863" lon="-79.566179">
        <time>2026-06-30T11:27:51Z</time>
      </trkpt>
      <trkpt lat="9.004858" lon="-79.566172">
        <time>2026-06-30T11:27:52Z</time>
      </trkpt>
      <trkpt lat="9.004843" lon="-79.566146">
        <time>2026-06-30T11:27:55Z</time>
      </trkpt>
      <trkpt lat="9.004836" lon="-79.566136">
        <time>2026-06-30T11:27:56Z</time>
      </trkpt>
      <trkpt lat="9.004829" lon="-79.566124">
        <time>2026-06-30T11:27:57Z</time>
      </trkpt>
      <trkpt lat="9.004815" lon="-79.566104">
        <time>2026-06-30T11:27:59Z</time>
      </trkpt>
      <trkpt lat="9.004777" lon="-79.566038">
        <time>2026-06-30T11:28:06Z</time>
      </trkpt>
      <trkpt lat="9.004716" lon="-79.565978">
        <time>2026-06-30T11:28:13Z</time>
      </trkpt>
      <trkpt lat="9.004667" lon="-79.565971">
        <time>2026-06-30T11:28:17Z</time>
      </trkpt>
      <trkpt lat="9.004641" lon="-79.565972">
        <time>2026-06-30T11:28:19Z</time>
      </trkpt>
      <trkpt lat="9.004568" lon="-79.565983">
        <time>2026-06-30T11:28:25Z</time>
      </trkpt>
      <trkpt lat="9.004557" lon="-79.565985">
        <time>2026-06-30T11:28:26Z</time>
      </trkpt>
      <trkpt lat="9.004512" lon="-79.565989">
        <time>2026-06-30T11:28:30Z</time>
      </trkpt>
      <trkpt lat="9.004486" lon="-79.565989">
        <time>2026-06-30T11:28:32Z</time>
      </trkpt>
      <trkpt lat="9.004431" lon="-79.566001">
        <time>2026-06-30T11:28:36Z</time>
      </trkpt>
      <trkpt lat="9.004402" lon="-79.566006">
        <time>2026-06-30T11:28:39Z</time>
      </trkpt>
      <trkpt lat="9.004342" lon="-79.565998">
        <time>2026-06-30T11:28:45Z</time>
      </trkpt>
      <trkpt lat="9.004339" lon="-79.565997">
        <time>2026-06-30T11:28:47Z</time>
      </trkpt>
      <trkpt lat="9.004339" lon="-79.565997">
        <time>2026-06-30T11:28:48Z</time>
      </trkpt>
      <trkpt lat="9.004317" lon="-79.566001">
        <time>2026-06-30T11:28:51Z</time>
      </trkpt>
      <trkpt lat="9.004309" lon="-79.566003">
        <time>2026-06-30T11:28:52Z</time>
      </trkpt>
      <trkpt lat="9.004268" lon="-79.566006">
        <time>2026-06-30T11:28:55Z</time>
      </trkpt>
      <trkpt lat="9.004236" lon="-79.566013">
        <time>2026-06-30T11:28:58Z</time>
      </trkpt>
      <trkpt lat="9.004200" lon="-79.566020">
        <time>2026-06-30T11:29:01Z</time>
      </trkpt>
      <trkpt lat="9.004161" lon="-79.566020">
        <time>2026-06-30T11:29:05Z</time>
      </trkpt>
      <trkpt lat="9.004127" lon="-79.566027">
        <time>2026-06-30T11:29:08Z</time>
      </trkpt>
      <trkpt lat="9.004069" lon="-79.566027">
        <time>2026-06-30T11:29:13Z</time>
      </trkpt>
      <trkpt lat="9.004005" lon="-79.566029">
        <time>2026-06-30T11:29:19Z</time>
      </trkpt>
      <trkpt lat="9.003973" lon="-79.566017">
        <time>2026-06-30T11:29:22Z</time>
      </trkpt>
      <trkpt lat="9.003954" lon="-79.566014">
        <time>2026-06-30T11:29:24Z</time>
      </trkpt>
      <trkpt lat="9.003930" lon="-79.566017">
        <time>2026-06-30T11:29:26Z</time>
      </trkpt>
      <trkpt lat="9.003886" lon="-79.566018">
        <time>2026-06-30T11:29:30Z</time>
      </trkpt>
      <trkpt lat="9.003863" lon="-79.566019">
        <time>2026-06-30T11:29:32Z</time>
      </trkpt>
      <trkpt lat="9.003843" lon="-79.566024">
        <time>2026-06-30T11:29:34Z</time>
      </trkpt>
      <trkpt lat="9.003818" lon="-79.566029">
        <time>2026-06-30T11:29:38Z</time>
      </trkpt>
      <trkpt lat="9.003805" lon="-79.566029">
        <time>2026-06-30T11:29:39Z</time>
      </trkpt>
      <trkpt lat="9.003770" lon="-79.566022">
        <time>2026-06-30T11:29:43Z</time>
      </trkpt>
      <trkpt lat="9.003743" lon="-79.566018">
        <time>2026-06-30T11:29:45Z</time>
      </trkpt>
      <trkpt lat="9.003704" lon="-79.566009">
        <time>2026-06-30T11:29:49Z</time>
      </trkpt>
      <trkpt lat="9.003689" lon="-79.566007">
        <time>2026-06-30T11:29:50Z</time>
      </trkpt>
      <trkpt lat="9.003611" lon="-79.566002">
        <time>2026-06-30T11:29:57Z</time>
      </trkpt>
      <trkpt lat="9.003535" lon="-79.565990">
        <time>2026-06-30T11:30:04Z</time>
      </trkpt>
      <trkpt lat="9.003493" lon="-79.565980">
        <time>2026-06-30T11:30:08Z</time>
      </trkpt>
      <trkpt lat="9.003475" lon="-79.565976">
        <time>2026-06-30T11:30:10Z</time>
      </trkpt>
      <trkpt lat="9.003439" lon="-79.565967">
        <time>2026-06-30T11:30:13Z</time>
      </trkpt>
      <trkpt lat="9.003412" lon="-79.565958">
        <time>2026-06-30T11:30:16Z</time>
      </trkpt>
      <trkpt lat="9.003352" lon="-79.565948">
        <time>2026-06-30T11:30:22Z</time>
      </trkpt>
      <trkpt lat="9.003316" lon="-79.565938">
        <time>2026-06-30T11:30:25Z</time>
      </trkpt>
      <trkpt lat="9.003290" lon="-79.565936">
        <time>2026-06-30T11:30:28Z</time>
      </trkpt>
      <trkpt lat="9.003266" lon="-79.565933">
        <time>2026-06-30T11:30:30Z</time>
      </trkpt>
      <trkpt lat="9.003240" lon="-79.565933">
        <time>2026-06-30T11:30:33Z</time>
      </trkpt>
      <trkpt lat="9.003230" lon="-79.565927">
        <time>2026-06-30T11:30:34Z</time>
      </trkpt>
      <trkpt lat="9.003162" lon="-79.565904">
        <time>2026-06-30T11:30:40Z</time>
      </trkpt>
      <trkpt lat="9.003114" lon="-79.565885">
        <time>2026-06-30T11:30:45Z</time>
      </trkpt>
      <trkpt lat="9.003052" lon="-79.565873">
        <time>2026-06-30T11:30:50Z</time>
      </trkpt>
      <trkpt lat="9.003032" lon="-79.565867">
        <time>2026-06-30T11:30:52Z</time>
      </trkpt>
      <trkpt lat="9.003006" lon="-79.565856">
        <time>2026-06-30T11:30:55Z</time>
      </trkpt>
      <trkpt lat="9.002963" lon="-79.565841">
        <time>2026-06-30T11:30:59Z</time>
      </trkpt>
      <trkpt lat="9.002918" lon="-79.565815">
        <time>2026-06-30T11:31:05Z</time>
      </trkpt>
      <trkpt lat="9.002909" lon="-79.565807">
        <time>2026-06-30T11:31:08Z</time>
      </trkpt>
      <trkpt lat="9.002910" lon="-79.565812">
        <time>2026-06-30T11:31:11Z</time>
      </trkpt>
      <trkpt lat="9.002910" lon="-79.565812">
        <time>2026-06-30T11:31:12Z</time>
      </trkpt>
      <trkpt lat="9.002909" lon="-79.565812">
        <time>2026-06-30T11:31:15Z</time>
      </trkpt>
      <trkpt lat="9.002909" lon="-79.565812">
        <time>2026-06-30T11:31:18Z</time>
      </trkpt>
      <trkpt lat="9.002909" lon="-79.565812">
        <time>2026-06-30T11:31:19Z</time>
      </trkpt>
      <trkpt lat="9.002909" lon="-79.565812">
        <time>2026-06-30T11:31:24Z</time>
      </trkpt>
      <trkpt lat="9.002909" lon="-79.565812">
        <time>2026-06-30T11:31:25Z</time>
      </trkpt>
      <trkpt lat="9.002909" lon="-79.565812">
        <time>2026-06-30T11:31:28Z</time>
      </trkpt>
      <trkpt lat="9.002908" lon="-79.565807">
        <time>2026-06-30T11:31:36Z</time>
      </trkpt>
      <trkpt lat="9.002902" lon="-79.565797">
        <time>2026-06-30T11:31:38Z</time>
      </trkpt>
      <trkpt lat="9.002908" lon="-79.565757">
        <time>2026-06-30T11:31:43Z</time>
      </trkpt>
      <trkpt lat="9.002896" lon="-79.565767">
        <time>2026-06-30T11:31:47Z</time>
      </trkpt>
      <trkpt lat="9.002893" lon="-79.565768">
        <time>2026-06-30T11:31:49Z</time>
      </trkpt>
      <trkpt lat="9.002892" lon="-79.565768">
        <time>2026-06-30T11:31:52Z</time>
      </trkpt>
      <trkpt lat="9.002891" lon="-79.565763">
        <time>2026-06-30T11:31:58Z</time>
      </trkpt>
      <trkpt lat="9.002840" lon="-79.565763">
        <time>2026-06-30T11:32:04Z</time>
      </trkpt>
      <trkpt lat="9.002819" lon="-79.565764">
        <time>2026-06-30T11:32:06Z</time>
      </trkpt>
      <trkpt lat="9.002799" lon="-79.565770">
        <time>2026-06-30T11:32:08Z</time>
      </trkpt>
      <trkpt lat="9.002768" lon="-79.565782">
        <time>2026-06-30T11:32:11Z</time>
      </trkpt>
      <trkpt lat="9.002744" lon="-79.565781">
        <time>2026-06-30T11:32:15Z</time>
      </trkpt>
      <trkpt lat="9.002720" lon="-79.565766">
        <time>2026-06-30T11:32:22Z</time>
      </trkpt>
      <trkpt lat="9.002706" lon="-79.565756">
        <time>2026-06-30T11:32:24Z</time>
      </trkpt>
      <trkpt lat="9.002668" lon="-79.565742">
        <time>2026-06-30T11:32:29Z</time>
      </trkpt>
      <trkpt lat="9.002641" lon="-79.565740">
        <time>2026-06-30T11:32:33Z</time>
      </trkpt>
      <trkpt lat="9.002535" lon="-79.565729">
        <time>2026-06-30T11:32:46Z</time>
      </trkpt>
      <trkpt lat="9.002499" lon="-79.565726">
        <time>2026-06-30T11:32:50Z</time>
      </trkpt>
      <trkpt lat="9.002420" lon="-79.565725">
        <time>2026-06-30T11:32:59Z</time>
      </trkpt>
      <trkpt lat="9.002353" lon="-79.565715">
        <time>2026-06-30T11:33:07Z</time>
      </trkpt>
      <trkpt lat="9.002294" lon="-79.565703">
        <time>2026-06-30T11:33:13Z</time>
      </trkpt>
      <trkpt lat="9.002262" lon="-79.565700">
        <time>2026-06-30T11:33:16Z</time>
      </trkpt>
      <trkpt lat="9.002233" lon="-79.565697">
        <time>2026-06-30T11:33:19Z</time>
      </trkpt>
      <trkpt lat="9.002165" lon="-79.565694">
        <time>2026-06-30T11:33:27Z</time>
      </trkpt>
      <trkpt lat="9.002129" lon="-79.565695">
        <time>2026-06-30T11:33:32Z</time>
      </trkpt>
      <trkpt lat="9.002122" lon="-79.565693">
        <time>2026-06-30T11:33:33Z</time>
      </trkpt>
      <trkpt lat="9.002083" lon="-79.565689">
        <time>2026-06-30T11:33:38Z</time>
      </trkpt>
      <trkpt lat="9.002067" lon="-79.565691">
        <time>2026-06-30T11:33:40Z</time>
      </trkpt>
      <trkpt lat="9.002023" lon="-79.565690">
        <time>2026-06-30T11:33:46Z</time>
      </trkpt>
      <trkpt lat="9.001985" lon="-79.565685">
        <time>2026-06-30T11:33:50Z</time>
      </trkpt>
      <trkpt lat="9.001928" lon="-79.565682">
        <time>2026-06-30T11:33:58Z</time>
      </trkpt>
      <trkpt lat="9.001884" lon="-79.565693">
        <time>2026-06-30T11:34:04Z</time>
      </trkpt>
      <trkpt lat="9.001820" lon="-79.565707">
        <time>2026-06-30T11:34:14Z</time>
      </trkpt>
      <trkpt lat="9.001820" lon="-79.565703">
        <time>2026-06-30T11:34:18Z</time>
      </trkpt>
      <trkpt lat="9.001820" lon="-79.565703">
        <time>2026-06-30T11:34:22Z</time>
      </trkpt>
      <trkpt lat="9.001782" lon="-79.565703">
        <time>2026-06-30T11:34:26Z</time>
      </trkpt>
      <trkpt lat="9.001763" lon="-79.565703">
        <time>2026-06-30T11:34:28Z</time>
      </trkpt>
      <trkpt lat="9.001753" lon="-79.565705">
        <time>2026-06-30T11:34:29Z</time>
      </trkpt>
      <trkpt lat="9.001636" lon="-79.565709">
        <time>2026-06-30T11:34:41Z</time>
      </trkpt>
      <trkpt lat="9.001558" lon="-79.565719">
        <time>2026-06-30T11:34:50Z</time>
      </trkpt>
      <trkpt lat="9.001493" lon="-79.565728">
        <time>2026-06-30T11:34:57Z</time>
      </trkpt>
      <trkpt lat="9.001460" lon="-79.565743">
        <time>2026-06-30T11:35:01Z</time>
      </trkpt>
      <trkpt lat="9.001374" lon="-79.565764">
        <time>2026-06-30T11:35:11Z</time>
      </trkpt>
      <trkpt lat="9.001254" lon="-79.565772">
        <time>2026-06-30T11:35:21Z</time>
      </trkpt>
      <trkpt lat="9.001170" lon="-79.565816">
        <time>2026-06-30T11:35:29Z</time>
      </trkpt>
      <trkpt lat="9.001149" lon="-79.565849">
        <time>2026-06-30T11:35:32Z</time>
      </trkpt>
      <trkpt lat="9.001154" lon="-79.565913">
        <time>2026-06-30T11:35:42Z</time>
      </trkpt>
      <trkpt lat="9.001149" lon="-79.565933">
        <time>2026-06-30T11:35:50Z</time>
      </trkpt>
      <trkpt lat="9.001147" lon="-79.565936">
        <time>2026-06-30T11:35:51Z</time>
      </trkpt>
      <trkpt lat="9.001145" lon="-79.565943">
        <time>2026-06-30T11:35:56Z</time>
      </trkpt>
      <trkpt lat="9.001144" lon="-79.565942">
        <time>2026-06-30T11:35:59Z</time>
      </trkpt>
      <trkpt lat="9.001147" lon="-79.565937">
        <time>2026-06-30T11:36:01Z</time>
      </trkpt>
      <trkpt lat="9.001161" lon="-79.565927">
        <time>2026-06-30T11:36:05Z</time>
      </trkpt>
      <trkpt lat="9.001168" lon="-79.565915">
        <time>2026-06-30T11:36:07Z</time>
      </trkpt>
      <trkpt lat="9.001170" lon="-79.565909">
        <time>2026-06-30T11:36:10Z</time>
      </trkpt>
      <trkpt lat="9.001170" lon="-79.565909">
        <time>2026-06-30T11:36:13Z</time>
      </trkpt>
      <trkpt lat="9.001172" lon="-79.565899">
        <time>2026-06-30T11:36:16Z</time>
      </trkpt>
      <trkpt lat="9.001150" lon="-79.565880">
        <time>2026-06-30T11:36:21Z</time>
      </trkpt>
      <trkpt lat="9.001141" lon="-79.565878">
        <time>2026-06-30T11:36:24Z</time>
      </trkpt>
      <trkpt lat="9.001149" lon="-79.565870">
        <time>2026-06-30T11:36:30Z</time>
      </trkpt>
      <trkpt lat="9.001144" lon="-79.565866">
        <time>2026-06-30T11:36:31Z</time>
      </trkpt>
      <trkpt lat="9.001136" lon="-79.565860">
        <time>2026-06-30T11:36:34Z</time>
      </trkpt>
      <trkpt lat="9.001129" lon="-79.565854">
        <time>2026-06-30T11:36:36Z</time>
      </trkpt>
      <trkpt lat="9.001124" lon="-79.565850">
        <time>2026-06-30T11:36:37Z</time>
      </trkpt>
      <trkpt lat="9.001116" lon="-79.565848">
        <time>2026-06-30T11:36:38Z</time>
      </trkpt>
      <trkpt lat="9.001102" lon="-79.565840">
        <time>2026-06-30T11:36:40Z</time>
      </trkpt>
      <trkpt lat="9.001094" lon="-79.565829">
        <time>2026-06-30T11:36:42Z</time>
      </trkpt>
      <trkpt lat="9.001091" lon="-79.565826">
        <time>2026-06-30T11:36:44Z</time>
      </trkpt>
      <trkpt lat="9.001093" lon="-79.565827">
        <time>2026-06-30T11:36:45Z</time>
      </trkpt>
      <trkpt lat="9.001093" lon="-79.565827">
        <time>2026-06-30T11:36:47Z</time>
      </trkpt>
      <trkpt lat="9.001083" lon="-79.565820">
        <time>2026-06-30T11:36:51Z</time>
      </trkpt>
      <trkpt lat="9.001082" lon="-79.565818">
        <time>2026-06-30T11:36:56Z</time>
      </trkpt>
      <trkpt lat="9.001082" lon="-79.565818">
        <time>2026-06-30T11:37:04Z</time>
      </trkpt>
      <trkpt lat="9.001082" lon="-79.565818">
        <time>2026-06-30T11:37:06Z</time>
      </trkpt>
      <trkpt lat="9.001087" lon="-79.565846">
        <time>2026-06-30T11:37:17Z</time>
      </trkpt>
      <trkpt lat="9.001092" lon="-79.565854">
        <time>2026-06-30T11:37:19Z</time>
      </trkpt>
      <trkpt lat="9.001131" lon="-79.565879">
        <time>2026-06-30T11:37:26Z</time>
      </trkpt>
      <trkpt lat="9.001131" lon="-79.565878">
        <time>2026-06-30T11:37:28Z</time>
      </trkpt>
      <trkpt lat="9.001138" lon="-79.565890">
        <time>2026-06-30T11:37:36Z</time>
      </trkpt>
      <trkpt lat="9.001138" lon="-79.565891">
        <time>2026-06-30T11:37:37Z</time>
      </trkpt>
      <trkpt lat="9.001138" lon="-79.565891">
        <time>2026-06-30T11:37:42Z</time>
      </trkpt>
      <trkpt lat="9.001138" lon="-79.565891">
        <time>2026-06-30T11:37:44Z</time>
      </trkpt>
      <trkpt lat="9.001139" lon="-79.565894">
        <time>2026-06-30T11:37:48Z</time>
      </trkpt>
      <trkpt lat="9.001138" lon="-79.565891">
        <time>2026-06-30T11:37:49Z</time>
      </trkpt>
      <trkpt lat="9.001138" lon="-79.565891">
        <time>2026-06-30T11:37:50Z</time>
      </trkpt>
      <trkpt lat="9.001138" lon="-79.565891">
        <time>2026-06-30T11:38:01Z</time>
      </trkpt>
      <trkpt lat="9.001138" lon="-79.565891">
        <time>2026-06-30T11:38:03Z</time>
      </trkpt>
      <trkpt lat="9.001138" lon="-79.565891">
        <time>2026-06-30T11:38:05Z</time>
      </trkpt>
      <trkpt lat="9.001138" lon="-79.565891">
        <time>2026-06-30T11:38:09Z</time>
      </trkpt>
      <trkpt lat="9.001138" lon="-79.565891">
        <time>2026-06-30T11:38:11Z</time>
      </trkpt>
      <trkpt lat="9.001138" lon="-79.565891">
        <time>2026-06-30T11:38:13Z</time>
      </trkpt>
      <trkpt lat="9.001138" lon="-79.565891">
        <time>2026-06-30T11:38:18Z</time>
      </trkpt>
      <trkpt lat="9.001138" lon="-79.565891">
        <time>2026-06-30T11:38:23Z</time>
      </trkpt>
      <trkpt lat="9.001138" lon="-79.565891">
        <time>2026-06-30T11:38:27Z</time>
      </trkpt>
      <trkpt lat="9.001138" lon="-79.565891">
        <time>2026-06-30T11:38:30Z</time>
      </trkpt>
      <trkpt lat="9.001130" lon="-79.565898">
        <time>2026-06-30T11:38:37Z</time>
      </trkpt>
    </trkseg>
  </trk>
</gpx>
