<?xml version="1.0" encoding="UTF-8"?>
<gpx version="1.1" creator="FitFilter" xmlns="http://www.topografix.com/GPX/1/1" xmlns:xsi="http://www.w3.org/2001/XMLSchema-instance" xsi:schemaLocation="http://www.topografix.com/GPX/1/1 http://www.topografix.com/GPX/1/1/gpx.xsd">
  <metadata>
    <time>2026-07-20T22:05:17Z</time>
  </metadata>
  <trk>
    <name>Running - 2026-07-20 22:05</name>
    <type>running</type>
    <trkseg>
      <trkpt lat="8.990245" lon="-79.530455">
        <time>2026-07-20T22:05:17Z</time>
      </trkpt>
      <trkpt lat="8.990246" lon="-79.530441">
        <time>2026-07-20T22:05:18Z</time>
      </trkpt>
      <trkpt lat="8.990257" lon="-79.530403">
        <time>2026-07-20T22:05:19Z</time>
      </trkpt>
      <trkpt lat="8.990257" lon="-79.530403">
        <time>2026-07-20T22:05:20Z</time>
      </trkpt>
      <trkpt lat="8.990257" lon="-79.530370">
        <time>2026-07-20T22:05:21Z</time>
      </trkpt>
      <trkpt lat="8.990260" lon="-79.530354">
        <time>2026-07-20T22:05:22Z</time>
      </trkpt>
      <trkpt lat="8.990257" lon="-79.530338">
        <time>2026-07-20T22:05:23Z</time>
      </trkpt>
      <trkpt lat="8.990265" lon="-79.530336">
        <time>2026-07-20T22:05:24Z</time>
      </trkpt>
      <trkpt lat="8.990272" lon="-79.530319">
        <time>2026-07-20T22:05:25Z</time>
      </trkpt>
      <trkpt lat="8.990275" lon="-79.530295">
        <time>2026-07-20T22:05:26Z</time>
      </trkpt>
      <trkpt lat="8.990274" lon="-79.530277">
        <time>2026-07-20T22:05:27Z</time>
      </trkpt>
      <trkpt lat="8.990281" lon="-79.530259">
        <time>2026-07-20T22:05:28Z</time>
      </trkpt>
      <trkpt lat="8.990281" lon="-79.530259">
        <time>2026-07-20T22:05:29Z</time>
      </trkpt>
      <trkpt lat="8.990285" lon="-79.530242">
        <time>2026-07-20T22:05:30Z</time>
      </trkpt>
      <trkpt lat="8.990302" lon="-79.530198">
        <time>2026-07-20T22:05:31Z</time>
      </trkpt>
      <trkpt lat="8.990312" lon="-79.530181">
        <time>2026-07-20T22:05:32Z</time>
      </trkpt>
      <trkpt lat="8.990326" lon="-79.530173">
        <time>2026-07-20T22:05:33Z</time>
      </trkpt>
      <trkpt lat="8.990345" lon="-79.530171">
        <time>2026-07-20T22:05:34Z</time>
      </trkpt>
      <trkpt lat="8.990361" lon="-79.530170">
        <time>2026-07-20T22:05:35Z</time>
      </trkpt>
      <trkpt lat="8.990374" lon="-79.530166">
        <time>2026-07-20T22:05:36Z</time>
      </trkpt>
      <trkpt lat="8.990387" lon="-79.530159">
        <time>2026-07-20T22:05:37Z</time>
      </trkpt>
      <trkpt lat="8.990387" lon="-79.530159">
        <time>2026-07-20T22:05:38Z</time>
      </trkpt>
      <trkpt lat="8.990402" lon="-79.530159">
        <time>2026-07-20T22:05:39Z</time>
      </trkpt>
      <trkpt lat="8.990435" lon="-79.530158">
        <time>2026-07-20T22:05:40Z</time>
      </trkpt>
      <trkpt lat="8.990450" lon="-79.530156">
        <time>2026-07-20T22:05:41Z</time>
      </trkpt>
      <trkpt lat="8.990464" lon="-79.530155">
        <time>2026-07-20T22:05:42Z</time>
      </trkpt>
      <trkpt lat="8.990464" lon="-79.530155">
        <time>2026-07-20T22:05:43Z</time>
      </trkpt>
      <trkpt lat="8.990481" lon="-79.530155">
        <time>2026-07-20T22:05:44Z</time>
      </trkpt>
      <trkpt lat="8.990501" lon="-79.530153">
        <time>2026-07-20T22:05:45Z</time>
      </trkpt>
      <trkpt lat="8.990520" lon="-79.530148">
        <time>2026-07-20T22:05:46Z</time>
      </trkpt>
      <trkpt lat="8.990537" lon="-79.530138">
        <time>2026-07-20T22:05:47Z</time>
      </trkpt>
      <trkpt lat="8.990548" lon="-79.530103">
        <time>2026-07-20T22:05:48Z</time>
      </trkpt>
      <trkpt lat="8.990548" lon="-79.530085">
        <time>2026-07-20T22:05:49Z</time>
      </trkpt>
      <trkpt lat="8.990547" lon="-79.530066">
        <time>2026-07-20T22:05:50Z</time>
      </trkpt>
      <trkpt lat="8.990547" lon="-79.530066">
        <time>2026-07-20T22:05:51Z</time>
      </trkpt>
      <trkpt lat="8.990548" lon="-79.530049">
        <time>2026-07-20T22:05:52Z</time>
      </trkpt>
      <trkpt lat="8.990548" lon="-79.530030">
        <time>2026-07-20T22:05:53Z</time>
      </trkpt>
      <trkpt lat="8.990544" lon="-79.530002">
        <time>2026-07-20T22:05:54Z</time>
      </trkpt>
      <trkpt lat="8.990545" lon="-79.529976">
        <time>2026-07-20T22:05:55Z</time>
      </trkpt>
      <trkpt lat="8.990540" lon="-79.529920">
        <time>2026-07-20T22:05:56Z</time>
      </trkpt>
      <trkpt lat="8.990532" lon="-79.529904">
        <time>2026-07-20T22:05:57Z</time>
      </trkpt>
      <trkpt lat="8.990524" lon="-79.529890">
        <time>2026-07-20T22:05:58Z</time>
      </trkpt>
      <trkpt lat="8.990524" lon="-79.529890">
        <time>2026-07-20T22:05:59Z</time>
      </trkpt>
      <trkpt lat="8.990520" lon="-79.529872">
        <time>2026-07-20T22:06:00Z</time>
      </trkpt>
      <trkpt lat="8.990515" lon="-79.529851">
        <time>2026-07-20T22:06:01Z</time>
      </trkpt>
      <trkpt lat="8.990509" lon="-79.529831">
        <time>2026-07-20T22:06:02Z</time>
      </trkpt>
      <trkpt lat="8.990504" lon="-79.529816">
        <time>2026-07-20T22:06:03Z</time>
      </trkpt>
      <trkpt lat="8.990498" lon="-79.529799">
        <time>2026-07-20T22:06:04Z</time>
      </trkpt>
      <trkpt lat="8.990486" lon="-79.529784">
        <time>2026-07-20T22:06:05Z</time>
      </trkpt>
      <trkpt lat="8.990470" lon="-79.529773">
        <time>2026-07-20T22:06:06Z</time>
      </trkpt>
      <trkpt lat="8.990449" lon="-79.529749">
        <time>2026-07-20T22:06:07Z</time>
      </trkpt>
      <trkpt lat="8.990449" lon="-79.529749">
        <time>2026-07-20T22:06:08Z</time>
      </trkpt>
      <trkpt lat="8.990449" lon="-79.529718">
        <time>2026-07-20T22:06:09Z</time>
      </trkpt>
      <trkpt lat="8.990450" lon="-79.529698">
        <time>2026-07-20T22:06:10Z</time>
      </trkpt>
      <trkpt lat="8.990450" lon="-79.529698">
        <time>2026-07-20T22:06:11Z</time>
      </trkpt>
      <trkpt lat="8.990474" lon="-79.529668">
        <time>2026-07-20T22:06:12Z</time>
      </trkpt>
      <trkpt lat="8.990477" lon="-79.529642">
        <time>2026-07-20T22:06:13Z</time>
      </trkpt>
      <trkpt lat="8.990470" lon="-79.529613">
        <time>2026-07-20T22:06:14Z</time>
      </trkpt>
      <trkpt lat="8.990460" lon="-79.529592">
        <time>2026-07-20T22:06:15Z</time>
      </trkpt>
      <trkpt lat="8.990460" lon="-79.529592">
        <time>2026-07-20T22:06:16Z</time>
      </trkpt>
      <trkpt lat="8.990451" lon="-79.529569">
        <time>2026-07-20T22:06:17Z</time>
      </trkpt>
      <trkpt lat="8.990445" lon="-79.529544">
        <time>2026-07-20T22:06:18Z</time>
      </trkpt>
      <trkpt lat="8.990438" lon="-79.529517">
        <time>2026-07-20T22:06:19Z</time>
      </trkpt>
      <trkpt lat="8.990426" lon="-79.529493">
        <time>2026-07-20T22:06:20Z</time>
      </trkpt>
      <trkpt lat="8.990415" lon="-79.529469">
        <time>2026-07-20T22:06:21Z</time>
      </trkpt>
      <trkpt lat="8.990408" lon="-79.529448">
        <time>2026-07-20T22:06:22Z</time>
      </trkpt>
      <trkpt lat="8.990396" lon="-79.529427">
        <time>2026-07-20T22:06:23Z</time>
      </trkpt>
      <trkpt lat="8.990369" lon="-79.529391">
        <time>2026-07-20T22:06:24Z</time>
      </trkpt>
      <trkpt lat="8.990357" lon="-79.529375">
        <time>2026-07-20T22:06:25Z</time>
      </trkpt>
      <trkpt lat="8.990357" lon="-79.529375">
        <time>2026-07-20T22:06:26Z</time>
      </trkpt>
      <trkpt lat="8.990353" lon="-79.529367">
        <time>2026-07-20T22:06:27Z</time>
      </trkpt>
      <trkpt lat="8.990345" lon="-79.529358">
        <time>2026-07-20T22:06:28Z</time>
      </trkpt>
      <trkpt lat="8.990335" lon="-79.529349">
        <time>2026-07-20T22:06:29Z</time>
      </trkpt>
      <trkpt lat="8.990327" lon="-79.529337">
        <time>2026-07-20T22:06:30Z</time>
      </trkpt>
      <trkpt lat="8.990318" lon="-79.529326">
        <time>2026-07-20T22:06:31Z</time>
      </trkpt>
      <trkpt lat="8.990310" lon="-79.529315">
        <time>2026-07-20T22:06:32Z</time>
      </trkpt>
      <trkpt lat="8.990305" lon="-79.529304">
        <time>2026-07-20T22:06:33Z</time>
      </trkpt>
      <trkpt lat="8.990298" lon="-79.529290">
        <time>2026-07-20T22:06:34Z</time>
      </trkpt>
      <trkpt lat="8.990290" lon="-79.529279">
        <time>2026-07-20T22:06:35Z</time>
      </trkpt>
      <trkpt lat="8.990281" lon="-79.529269">
        <time>2026-07-20T22:06:36Z</time>
      </trkpt>
      <trkpt lat="8.990271" lon="-79.529257">
        <time>2026-07-20T22:06:37Z</time>
      </trkpt>
      <trkpt lat="8.990258" lon="-79.529239">
        <time>2026-07-20T22:06:38Z</time>
      </trkpt>
      <trkpt lat="8.990248" lon="-79.529227">
        <time>2026-07-20T22:06:39Z</time>
      </trkpt>
      <trkpt lat="8.990234" lon="-79.529211">
        <time>2026-07-20T22:06:40Z</time>
      </trkpt>
      <trkpt lat="8.990219" lon="-79.529195">
        <time>2026-07-20T22:06:41Z</time>
      </trkpt>
      <trkpt lat="8.990202" lon="-79.529175">
        <time>2026-07-20T22:06:42Z</time>
      </trkpt>
      <trkpt lat="8.990184" lon="-79.529159">
        <time>2026-07-20T22:06:43Z</time>
      </trkpt>
      <trkpt lat="8.990161" lon="-79.529141">
        <time>2026-07-20T22:06:44Z</time>
      </trkpt>
      <trkpt lat="8.990140" lon="-79.529126">
        <time>2026-07-20T22:06:45Z</time>
      </trkpt>
      <trkpt lat="8.990122" lon="-79.529110">
        <time>2026-07-20T22:06:46Z</time>
      </trkpt>
      <trkpt lat="8.990103" lon="-79.529091">
        <time>2026-07-20T22:06:47Z</time>
      </trkpt>
      <trkpt lat="8.990082" lon="-79.529078">
        <time>2026-07-20T22:06:48Z</time>
      </trkpt>
      <trkpt lat="8.990063" lon="-79.529063">
        <time>2026-07-20T22:06:49Z</time>
      </trkpt>
      <trkpt lat="8.990046" lon="-79.529045">
        <time>2026-07-20T22:06:50Z</time>
      </trkpt>
      <trkpt lat="8.990017" lon="-79.529015">
        <time>2026-07-20T22:06:51Z</time>
      </trkpt>
      <trkpt lat="8.990017" lon="-79.529015">
        <time>2026-07-20T22:06:52Z</time>
      </trkpt>
      <trkpt lat="8.989983" lon="-79.528984">
        <time>2026-07-20T22:06:53Z</time>
      </trkpt>
      <trkpt lat="8.989983" lon="-79.528984">
        <time>2026-07-20T22:06:54Z</time>
      </trkpt>
      <trkpt lat="8.989968" lon="-79.528970">
        <time>2026-07-20T22:06:55Z</time>
      </trkpt>
      <trkpt lat="8.989952" lon="-79.528952">
        <time>2026-07-20T22:06:56Z</time>
      </trkpt>
      <trkpt lat="8.989935" lon="-79.528932">
        <time>2026-07-20T22:06:57Z</time>
      </trkpt>
      <trkpt lat="8.989920" lon="-79.528916">
        <time>2026-07-20T22:06:58Z</time>
      </trkpt>
      <trkpt lat="8.989905" lon="-79.528901">
        <time>2026-07-20T22:06:59Z</time>
      </trkpt>
      <trkpt lat="8.989888" lon="-79.528883">
        <time>2026-07-20T22:07:00Z</time>
      </trkpt>
      <trkpt lat="8.989874" lon="-79.528866">
        <time>2026-07-20T22:07:01Z</time>
      </trkpt>
      <trkpt lat="8.989857" lon="-79.528848">
        <time>2026-07-20T22:07:02Z</time>
      </trkpt>
      <trkpt lat="8.989840" lon="-79.528828">
        <time>2026-07-20T22:07:03Z</time>
      </trkpt>
      <trkpt lat="8.989811" lon="-79.528797">
        <time>2026-07-20T22:07:04Z</time>
      </trkpt>
      <trkpt lat="8.989798" lon="-79.528776">
        <time>2026-07-20T22:07:05Z</time>
      </trkpt>
      <trkpt lat="8.989798" lon="-79.528776">
        <time>2026-07-20T22:07:06Z</time>
      </trkpt>
      <trkpt lat="8.989760" lon="-79.528747">
        <time>2026-07-20T22:07:07Z</time>
      </trkpt>
      <trkpt lat="8.989745" lon="-79.528730">
        <time>2026-07-20T22:07:08Z</time>
      </trkpt>
      <trkpt lat="8.989728" lon="-79.528712">
        <time>2026-07-20T22:07:09Z</time>
      </trkpt>
      <trkpt lat="8.989710" lon="-79.528698">
        <time>2026-07-20T22:07:10Z</time>
      </trkpt>
      <trkpt lat="8.989710" lon="-79.528698">
        <time>2026-07-20T22:07:11Z</time>
      </trkpt>
      <trkpt lat="8.989692" lon="-79.528682">
        <time>2026-07-20T22:07:12Z</time>
      </trkpt>
      <trkpt lat="8.989674" lon="-79.528664">
        <time>2026-07-20T22:07:13Z</time>
      </trkpt>
      <trkpt lat="8.989656" lon="-79.528621">
        <time>2026-07-20T22:07:14Z</time>
      </trkpt>
      <trkpt lat="8.989646" lon="-79.528599">
        <time>2026-07-20T22:07:15Z</time>
      </trkpt>
      <trkpt lat="8.989639" lon="-79.528578">
        <time>2026-07-20T22:07:16Z</time>
      </trkpt>
      <trkpt lat="8.989629" lon="-79.528559">
        <time>2026-07-20T22:07:17Z</time>
      </trkpt>
      <trkpt lat="8.989620" lon="-79.528538">
        <time>2026-07-20T22:07:18Z</time>
      </trkpt>
      <trkpt lat="8.989609" lon="-79.528518">
        <time>2026-07-20T22:07:19Z</time>
      </trkpt>
      <trkpt lat="8.989609" lon="-79.528518">
        <time>2026-07-20T22:07:20Z</time>
      </trkpt>
      <trkpt lat="8.989599" lon="-79.528499">
        <time>2026-07-20T22:07:21Z</time>
      </trkpt>
      <trkpt lat="8.989584" lon="-79.528480">
        <time>2026-07-20T22:07:22Z</time>
      </trkpt>
      <trkpt lat="8.989572" lon="-79.528462">
        <time>2026-07-20T22:07:23Z</time>
      </trkpt>
      <trkpt lat="8.989545" lon="-79.528424">
        <time>2026-07-20T22:07:24Z</time>
      </trkpt>
      <trkpt lat="8.989527" lon="-79.528404">
        <time>2026-07-20T22:07:25Z</time>
      </trkpt>
      <trkpt lat="8.989514" lon="-79.528387">
        <time>2026-07-20T22:07:26Z</time>
      </trkpt>
      <trkpt lat="8.989497" lon="-79.528367">
        <time>2026-07-20T22:07:27Z</time>
      </trkpt>
      <trkpt lat="8.989477" lon="-79.528347">
        <time>2026-07-20T22:07:28Z</time>
      </trkpt>
      <trkpt lat="8.989462" lon="-79.528327">
        <time>2026-07-20T22:07:29Z</time>
      </trkpt>
      <trkpt lat="8.989449" lon="-79.528310">
        <time>2026-07-20T22:07:30Z</time>
      </trkpt>
      <trkpt lat="8.989437" lon="-79.528290">
        <time>2026-07-20T22:07:31Z</time>
      </trkpt>
      <trkpt lat="8.989422" lon="-79.528272">
        <time>2026-07-20T22:07:32Z</time>
      </trkpt>
      <trkpt lat="8.989408" lon="-79.528254">
        <time>2026-07-20T22:07:33Z</time>
      </trkpt>
      <trkpt lat="8.989390" lon="-79.528234">
        <time>2026-07-20T22:07:34Z</time>
      </trkpt>
      <trkpt lat="8.989390" lon="-79.528234">
        <time>2026-07-20T22:07:35Z</time>
      </trkpt>
      <trkpt lat="8.989364" lon="-79.528195">
        <time>2026-07-20T22:07:36Z</time>
      </trkpt>
      <trkpt lat="8.989348" lon="-79.528176">
        <time>2026-07-20T22:07:37Z</time>
      </trkpt>
      <trkpt lat="8.989348" lon="-79.528176">
        <time>2026-07-20T22:07:38Z</time>
      </trkpt>
      <trkpt lat="8.989331" lon="-79.528157">
        <time>2026-07-20T22:07:39Z</time>
      </trkpt>
      <trkpt lat="8.989296" lon="-79.528124">
        <time>2026-07-20T22:07:40Z</time>
      </trkpt>
      <trkpt lat="8.989276" lon="-79.528105">
        <time>2026-07-20T22:07:41Z</time>
      </trkpt>
      <trkpt lat="8.989254" lon="-79.528092">
        <time>2026-07-20T22:07:42Z</time>
      </trkpt>
      <trkpt lat="8.989230" lon="-79.528075">
        <time>2026-07-20T22:07:43Z</time>
      </trkpt>
      <trkpt lat="8.989204" lon="-79.528060">
        <time>2026-07-20T22:07:44Z</time>
      </trkpt>
      <trkpt lat="8.989175" lon="-79.528047">
        <time>2026-07-20T22:07:45Z</time>
      </trkpt>
      <trkpt lat="8.989156" lon="-79.528039">
        <time>2026-07-20T22:07:46Z</time>
      </trkpt>
      <trkpt lat="8.989133" lon="-79.528027">
        <time>2026-07-20T22:07:47Z</time>
      </trkpt>
      <trkpt lat="8.989113" lon="-79.528018">
        <time>2026-07-20T22:07:48Z</time>
      </trkpt>
      <trkpt lat="8.989094" lon="-79.528015">
        <time>2026-07-20T22:07:49Z</time>
      </trkpt>
      <trkpt lat="8.989071" lon="-79.528008">
        <time>2026-07-20T22:07:50Z</time>
      </trkpt>
      <trkpt lat="8.989071" lon="-79.528008">
        <time>2026-07-20T22:07:51Z</time>
      </trkpt>
      <trkpt lat="8.989051" lon="-79.528000">
        <time>2026-07-20T22:07:52Z</time>
      </trkpt>
      <trkpt lat="8.989006" lon="-79.527979">
        <time>2026-07-20T22:07:53Z</time>
      </trkpt>
      <trkpt lat="8.988979" lon="-79.527968">
        <time>2026-07-20T22:07:54Z</time>
      </trkpt>
      <trkpt lat="8.988979" lon="-79.527968">
        <time>2026-07-20T22:07:55Z</time>
      </trkpt>
      <trkpt lat="8.988957" lon="-79.527957">
        <time>2026-07-20T22:07:56Z</time>
      </trkpt>
      <trkpt lat="8.988929" lon="-79.527943">
        <time>2026-07-20T22:07:57Z</time>
      </trkpt>
      <trkpt lat="8.988904" lon="-79.527930">
        <time>2026-07-20T22:07:58Z</time>
      </trkpt>
      <trkpt lat="8.988883" lon="-79.527918">
        <time>2026-07-20T22:07:59Z</time>
      </trkpt>
      <trkpt lat="8.988834" lon="-79.527906">
        <time>2026-07-20T22:08:00Z</time>
      </trkpt>
      <trkpt lat="8.988817" lon="-79.527903">
        <time>2026-07-20T22:08:01Z</time>
      </trkpt>
      <trkpt lat="8.988798" lon="-79.527906">
        <time>2026-07-20T22:08:02Z</time>
      </trkpt>
      <trkpt lat="8.988798" lon="-79.527906">
        <time>2026-07-20T22:08:03Z</time>
      </trkpt>
      <trkpt lat="8.988785" lon="-79.527905">
        <time>2026-07-20T22:08:04Z</time>
      </trkpt>
      <trkpt lat="8.988772" lon="-79.527903">
        <time>2026-07-20T22:08:05Z</time>
      </trkpt>
      <trkpt lat="8.988757" lon="-79.527900">
        <time>2026-07-20T22:08:06Z</time>
      </trkpt>
      <trkpt lat="8.988742" lon="-79.527899">
        <time>2026-07-20T22:08:07Z</time>
      </trkpt>
      <trkpt lat="8.988727" lon="-79.527902">
        <time>2026-07-20T22:08:08Z</time>
      </trkpt>
      <trkpt lat="8.988713" lon="-79.527900">
        <time>2026-07-20T22:08:09Z</time>
      </trkpt>
      <trkpt lat="8.988703" lon="-79.527896">
        <time>2026-07-20T22:08:10Z</time>
      </trkpt>
      <trkpt lat="8.988691" lon="-79.527892">
        <time>2026-07-20T22:08:11Z</time>
      </trkpt>
      <trkpt lat="8.988671" lon="-79.527892">
        <time>2026-07-20T22:08:12Z</time>
      </trkpt>
      <trkpt lat="8.988652" lon="-79.527891">
        <time>2026-07-20T22:08:13Z</time>
      </trkpt>
      <trkpt lat="8.988629" lon="-79.527891">
        <time>2026-07-20T22:08:14Z</time>
      </trkpt>
      <trkpt lat="8.988609" lon="-79.527887">
        <time>2026-07-20T22:08:15Z</time>
      </trkpt>
      <trkpt lat="8.988587" lon="-79.527880">
        <time>2026-07-20T22:08:16Z</time>
      </trkpt>
      <trkpt lat="8.988563" lon="-79.527872">
        <time>2026-07-20T22:08:17Z</time>
      </trkpt>
      <trkpt lat="8.988540" lon="-79.527864">
        <time>2026-07-20T22:08:18Z</time>
      </trkpt>
      <trkpt lat="8.988498" lon="-79.527848">
        <time>2026-07-20T22:08:19Z</time>
      </trkpt>
      <trkpt lat="8.988498" lon="-79.527848">
        <time>2026-07-20T22:08:20Z</time>
      </trkpt>
      <trkpt lat="8.988474" lon="-79.527839">
        <time>2026-07-20T22:08:21Z</time>
      </trkpt>
      <trkpt lat="8.988451" lon="-79.527829">
        <time>2026-07-20T22:08:22Z</time>
      </trkpt>
      <trkpt lat="8.988429" lon="-79.527820">
        <time>2026-07-20T22:08:23Z</time>
      </trkpt>
      <trkpt lat="8.988406" lon="-79.527814">
        <time>2026-07-20T22:08:24Z</time>
      </trkpt>
      <trkpt lat="8.988388" lon="-79.527810">
        <time>2026-07-20T22:08:25Z</time>
      </trkpt>
      <trkpt lat="8.988346" lon="-79.527802">
        <time>2026-07-20T22:08:26Z</time>
      </trkpt>
      <trkpt lat="8.988325" lon="-79.527800">
        <time>2026-07-20T22:08:27Z</time>
      </trkpt>
      <trkpt lat="8.988305" lon="-79.527798">
        <time>2026-07-20T22:08:28Z</time>
      </trkpt>
      <trkpt lat="8.988305" lon="-79.527798">
        <time>2026-07-20T22:08:29Z</time>
      </trkpt>
      <trkpt lat="8.988262" lon="-79.527788">
        <time>2026-07-20T22:08:30Z</time>
      </trkpt>
      <trkpt lat="8.988241" lon="-79.527784">
        <time>2026-07-20T22:08:31Z</time>
      </trkpt>
      <trkpt lat="8.988220" lon="-79.527779">
        <time>2026-07-20T22:08:32Z</time>
      </trkpt>
      <trkpt lat="8.988198" lon="-79.527774">
        <time>2026-07-20T22:08:33Z</time>
      </trkpt>
      <trkpt lat="8.988180" lon="-79.527767">
        <time>2026-07-20T22:08:34Z</time>
      </trkpt>
      <trkpt lat="8.988180" lon="-79.527767">
        <time>2026-07-20T22:08:35Z</time>
      </trkpt>
      <trkpt lat="8.988143" lon="-79.527761">
        <time>2026-07-20T22:08:36Z</time>
      </trkpt>
      <trkpt lat="8.988122" lon="-79.527760">
        <time>2026-07-20T22:08:37Z</time>
      </trkpt>
      <trkpt lat="8.988122" lon="-79.527760">
        <time>2026-07-20T22:08:38Z</time>
      </trkpt>
      <trkpt lat="8.988100" lon="-79.527753">
        <time>2026-07-20T22:08:39Z</time>
      </trkpt>
      <trkpt lat="8.988075" lon="-79.527749">
        <time>2026-07-20T22:08:40Z</time>
      </trkpt>
      <trkpt lat="8.988035" lon="-79.527740">
        <time>2026-07-20T22:08:41Z</time>
      </trkpt>
      <trkpt lat="8.988016" lon="-79.527733">
        <time>2026-07-20T22:08:42Z</time>
      </trkpt>
      <trkpt lat="8.988016" lon="-79.527733">
        <time>2026-07-20T22:08:43Z</time>
      </trkpt>
      <trkpt lat="8.987980" lon="-79.527718">
        <time>2026-07-20T22:08:44Z</time>
      </trkpt>
      <trkpt lat="8.987977" lon="-79.527716">
        <time>2026-07-20T22:08:45Z</time>
      </trkpt>
      <trkpt lat="8.987971" lon="-79.527713">
        <time>2026-07-20T22:08:46Z</time>
      </trkpt>
      <trkpt lat="8.987958" lon="-79.527706">
        <time>2026-07-20T22:08:47Z</time>
      </trkpt>
      <trkpt lat="8.987943" lon="-79.527705">
        <time>2026-07-20T22:08:48Z</time>
      </trkpt>
      <trkpt lat="8.987929" lon="-79.527705">
        <time>2026-07-20T22:08:49Z</time>
      </trkpt>
      <trkpt lat="8.987913" lon="-79.527700">
        <time>2026-07-20T22:08:50Z</time>
      </trkpt>
      <trkpt lat="8.987895" lon="-79.527696">
        <time>2026-07-20T22:08:51Z</time>
      </trkpt>
      <trkpt lat="8.987895" lon="-79.527696">
        <time>2026-07-20T22:08:52Z</time>
      </trkpt>
      <trkpt lat="8.987861" lon="-79.527698">
        <time>2026-07-20T22:08:53Z</time>
      </trkpt>
      <trkpt lat="8.987861" lon="-79.527698">
        <time>2026-07-20T22:08:54Z</time>
      </trkpt>
      <trkpt lat="8.987855" lon="-79.527692">
        <time>2026-07-20T22:08:55Z</time>
      </trkpt>
      <trkpt lat="8.987842" lon="-79.527677">
        <time>2026-07-20T22:08:56Z</time>
      </trkpt>
      <trkpt lat="8.987817" lon="-79.527664">
        <time>2026-07-20T22:08:57Z</time>
      </trkpt>
      <trkpt lat="8.987817" lon="-79.527664">
        <time>2026-07-20T22:08:58Z</time>
      </trkpt>
      <trkpt lat="8.987802" lon="-79.527660">
        <time>2026-07-20T22:08:59Z</time>
      </trkpt>
      <trkpt lat="8.987789" lon="-79.527657">
        <time>2026-07-20T22:09:00Z</time>
      </trkpt>
      <trkpt lat="8.987780" lon="-79.527655">
        <time>2026-07-20T22:09:01Z</time>
      </trkpt>
      <trkpt lat="8.987767" lon="-79.527653">
        <time>2026-07-20T22:09:02Z</time>
      </trkpt>
      <trkpt lat="8.987756" lon="-79.527649">
        <time>2026-07-20T22:09:03Z</time>
      </trkpt>
      <trkpt lat="8.987749" lon="-79.527639">
        <time>2026-07-20T22:09:04Z</time>
      </trkpt>
      <trkpt lat="8.987740" lon="-79.527630">
        <time>2026-07-20T22:09:05Z</time>
      </trkpt>
      <trkpt lat="8.987728" lon="-79.527626">
        <time>2026-07-20T22:09:06Z</time>
      </trkpt>
      <trkpt lat="8.987714" lon="-79.527623">
        <time>2026-07-20T22:09:07Z</time>
      </trkpt>
      <trkpt lat="8.987699" lon="-79.527617">
        <time>2026-07-20T22:09:08Z</time>
      </trkpt>
      <trkpt lat="8.987677" lon="-79.527610">
        <time>2026-07-20T22:09:09Z</time>
      </trkpt>
      <trkpt lat="8.987659" lon="-79.527607">
        <time>2026-07-20T22:09:10Z</time>
      </trkpt>
      <trkpt lat="8.987618" lon="-79.527595">
        <time>2026-07-20T22:09:11Z</time>
      </trkpt>
      <trkpt lat="8.987618" lon="-79.527595">
        <time>2026-07-20T22:09:12Z</time>
      </trkpt>
      <trkpt lat="8.987592" lon="-79.527586">
        <time>2026-07-20T22:09:13Z</time>
      </trkpt>
      <trkpt lat="8.987568" lon="-79.527579">
        <time>2026-07-20T22:09:14Z</time>
      </trkpt>
      <trkpt lat="8.987543" lon="-79.527575">
        <time>2026-07-20T22:09:15Z</time>
      </trkpt>
      <trkpt lat="8.987513" lon="-79.527570">
        <time>2026-07-20T22:09:16Z</time>
      </trkpt>
      <trkpt lat="8.987486" lon="-79.527566">
        <time>2026-07-20T22:09:17Z</time>
      </trkpt>
      <trkpt lat="8.987460" lon="-79.527565">
        <time>2026-07-20T22:09:18Z</time>
      </trkpt>
      <trkpt lat="8.987432" lon="-79.527568">
        <time>2026-07-20T22:09:19Z</time>
      </trkpt>
      <trkpt lat="8.987403" lon="-79.527574">
        <time>2026-07-20T22:09:20Z</time>
      </trkpt>
      <trkpt lat="8.987378" lon="-79.527577">
        <time>2026-07-20T22:09:21Z</time>
      </trkpt>
      <trkpt lat="8.987351" lon="-79.527579">
        <time>2026-07-20T22:09:22Z</time>
      </trkpt>
      <trkpt lat="8.987327" lon="-79.527580">
        <time>2026-07-20T22:09:23Z</time>
      </trkpt>
      <trkpt lat="8.987304" lon="-79.527580">
        <time>2026-07-20T22:09:24Z</time>
      </trkpt>
      <trkpt lat="8.987277" lon="-79.527581">
        <time>2026-07-20T22:09:25Z</time>
      </trkpt>
      <trkpt lat="8.987252" lon="-79.527587">
        <time>2026-07-20T22:09:26Z</time>
      </trkpt>
      <trkpt lat="8.987226" lon="-79.527595">
        <time>2026-07-20T22:09:27Z</time>
      </trkpt>
      <trkpt lat="8.987200" lon="-79.527609">
        <time>2026-07-20T22:09:28Z</time>
      </trkpt>
      <trkpt lat="8.987152" lon="-79.527636">
        <time>2026-07-20T22:09:29Z</time>
      </trkpt>
      <trkpt lat="8.987152" lon="-79.527636">
        <time>2026-07-20T22:09:30Z</time>
      </trkpt>
      <trkpt lat="8.987124" lon="-79.527657">
        <time>2026-07-20T22:09:31Z</time>
      </trkpt>
      <trkpt lat="8.987075" lon="-79.527699">
        <time>2026-07-20T22:09:32Z</time>
      </trkpt>
      <trkpt lat="8.987045" lon="-79.527722">
        <time>2026-07-20T22:09:33Z</time>
      </trkpt>
      <trkpt lat="8.987024" lon="-79.527740">
        <time>2026-07-20T22:09:34Z</time>
      </trkpt>
      <trkpt lat="8.987024" lon="-79.527740">
        <time>2026-07-20T22:09:35Z</time>
      </trkpt>
      <trkpt lat="8.987006" lon="-79.527761">
        <time>2026-07-20T22:09:36Z</time>
      </trkpt>
      <trkpt lat="8.986974" lon="-79.527801">
        <time>2026-07-20T22:09:37Z</time>
      </trkpt>
      <trkpt lat="8.986974" lon="-79.527801">
        <time>2026-07-20T22:09:38Z</time>
      </trkpt>
      <trkpt lat="8.986941" lon="-79.527846">
        <time>2026-07-20T22:09:39Z</time>
      </trkpt>
      <trkpt lat="8.986926" lon="-79.527870">
        <time>2026-07-20T22:09:40Z</time>
      </trkpt>
      <trkpt lat="8.986914" lon="-79.527891">
        <time>2026-07-20T22:09:41Z</time>
      </trkpt>
      <trkpt lat="8.986899" lon="-79.527917">
        <time>2026-07-20T22:09:42Z</time>
      </trkpt>
      <trkpt lat="8.986899" lon="-79.527917">
        <time>2026-07-20T22:09:43Z</time>
      </trkpt>
      <trkpt lat="8.986885" lon="-79.527941">
        <time>2026-07-20T22:09:44Z</time>
      </trkpt>
      <trkpt lat="8.986872" lon="-79.527963">
        <time>2026-07-20T22:09:45Z</time>
      </trkpt>
      <trkpt lat="8.986855" lon="-79.527983">
        <time>2026-07-20T22:09:46Z</time>
      </trkpt>
      <trkpt lat="8.986839" lon="-79.528001">
        <time>2026-07-20T22:09:47Z</time>
      </trkpt>
      <trkpt lat="8.986798" lon="-79.528041">
        <time>2026-07-20T22:09:48Z</time>
      </trkpt>
      <trkpt lat="8.986798" lon="-79.528041">
        <time>2026-07-20T22:09:49Z</time>
      </trkpt>
      <trkpt lat="8.986781" lon="-79.528063">
        <time>2026-07-20T22:09:50Z</time>
      </trkpt>
      <trkpt lat="8.986763" lon="-79.528086">
        <time>2026-07-20T22:09:51Z</time>
      </trkpt>
      <trkpt lat="8.986746" lon="-79.528105">
        <time>2026-07-20T22:09:52Z</time>
      </trkpt>
      <trkpt lat="8.986731" lon="-79.528127">
        <time>2026-07-20T22:09:53Z</time>
      </trkpt>
      <trkpt lat="8.986715" lon="-79.528147">
        <time>2026-07-20T22:09:54Z</time>
      </trkpt>
      <trkpt lat="8.986701" lon="-79.528165">
        <time>2026-07-20T22:09:55Z</time>
      </trkpt>
      <trkpt lat="8.986688" lon="-79.528184">
        <time>2026-07-20T22:09:56Z</time>
      </trkpt>
      <trkpt lat="8.986678" lon="-79.528198">
        <time>2026-07-20T22:09:57Z</time>
      </trkpt>
      <trkpt lat="8.986664" lon="-79.528216">
        <time>2026-07-20T22:09:58Z</time>
      </trkpt>
      <trkpt lat="8.986649" lon="-79.528235">
        <time>2026-07-20T22:09:59Z</time>
      </trkpt>
      <trkpt lat="8.986634" lon="-79.528256">
        <time>2026-07-20T22:10:00Z</time>
      </trkpt>
      <trkpt lat="8.986621" lon="-79.528277">
        <time>2026-07-20T22:10:01Z</time>
      </trkpt>
      <trkpt lat="8.986604" lon="-79.528296">
        <time>2026-07-20T22:10:02Z</time>
      </trkpt>
      <trkpt lat="8.986588" lon="-79.528316">
        <time>2026-07-20T22:10:03Z</time>
      </trkpt>
      <trkpt lat="8.986571" lon="-79.528334">
        <time>2026-07-20T22:10:04Z</time>
      </trkpt>
      <trkpt lat="8.986553" lon="-79.528353">
        <time>2026-07-20T22:10:05Z</time>
      </trkpt>
      <trkpt lat="8.986534" lon="-79.528373">
        <time>2026-07-20T22:10:06Z</time>
      </trkpt>
      <trkpt lat="8.986519" lon="-79.528386">
        <time>2026-07-20T22:10:07Z</time>
      </trkpt>
      <trkpt lat="8.986492" lon="-79.528420">
        <time>2026-07-20T22:10:08Z</time>
      </trkpt>
      <trkpt lat="8.986479" lon="-79.528438">
        <time>2026-07-20T22:10:09Z</time>
      </trkpt>
      <trkpt lat="8.986479" lon="-79.528438">
        <time>2026-07-20T22:10:10Z</time>
      </trkpt>
      <trkpt lat="8.986466" lon="-79.528457">
        <time>2026-07-20T22:10:11Z</time>
      </trkpt>
      <trkpt lat="8.986453" lon="-79.528478">
        <time>2026-07-20T22:10:12Z</time>
      </trkpt>
      <trkpt lat="8.986439" lon="-79.528496">
        <time>2026-07-20T22:10:13Z</time>
      </trkpt>
      <trkpt lat="8.986419" lon="-79.528508">
        <time>2026-07-20T22:10:14Z</time>
      </trkpt>
      <trkpt lat="8.986402" lon="-79.528520">
        <time>2026-07-20T22:10:15Z</time>
      </trkpt>
      <trkpt lat="8.986387" lon="-79.528533">
        <time>2026-07-20T22:10:16Z</time>
      </trkpt>
      <trkpt lat="8.986370" lon="-79.528547">
        <time>2026-07-20T22:10:17Z</time>
      </trkpt>
      <trkpt lat="8.986352" lon="-79.528563">
        <time>2026-07-20T22:10:18Z</time>
      </trkpt>
      <trkpt lat="8.986335" lon="-79.528577">
        <time>2026-07-20T22:10:19Z</time>
      </trkpt>
      <trkpt lat="8.986316" lon="-79.528590">
        <time>2026-07-20T22:10:20Z</time>
      </trkpt>
      <trkpt lat="8.986298" lon="-79.528601">
        <time>2026-07-20T22:10:21Z</time>
      </trkpt>
      <trkpt lat="8.986278" lon="-79.528617">
        <time>2026-07-20T22:10:22Z</time>
      </trkpt>
      <trkpt lat="8.986261" lon="-79.528630">
        <time>2026-07-20T22:10:23Z</time>
      </trkpt>
      <trkpt lat="8.986244" lon="-79.528642">
        <time>2026-07-20T22:10:24Z</time>
      </trkpt>
      <trkpt lat="8.986224" lon="-79.528655">
        <time>2026-07-20T22:10:25Z</time>
      </trkpt>
      <trkpt lat="8.986203" lon="-79.528663">
        <time>2026-07-20T22:10:26Z</time>
      </trkpt>
      <trkpt lat="8.986184" lon="-79.528676">
        <time>2026-07-20T22:10:27Z</time>
      </trkpt>
      <trkpt lat="8.986145" lon="-79.528698">
        <time>2026-07-20T22:10:28Z</time>
      </trkpt>
      <trkpt lat="8.986127" lon="-79.528712">
        <time>2026-07-20T22:10:29Z</time>
      </trkpt>
      <trkpt lat="8.986127" lon="-79.528712">
        <time>2026-07-20T22:10:30Z</time>
      </trkpt>
      <trkpt lat="8.986108" lon="-79.528726">
        <time>2026-07-20T22:10:31Z</time>
      </trkpt>
      <trkpt lat="8.986090" lon="-79.528740">
        <time>2026-07-20T22:10:32Z</time>
      </trkpt>
      <trkpt lat="8.986073" lon="-79.528755">
        <time>2026-07-20T22:10:33Z</time>
      </trkpt>
      <trkpt lat="8.986038" lon="-79.528776">
        <time>2026-07-20T22:10:34Z</time>
      </trkpt>
      <trkpt lat="8.986038" lon="-79.528776">
        <time>2026-07-20T22:10:35Z</time>
      </trkpt>
      <trkpt lat="8.986020" lon="-79.528787">
        <time>2026-07-20T22:10:36Z</time>
      </trkpt>
      <trkpt lat="8.985999" lon="-79.528796">
        <time>2026-07-20T22:10:37Z</time>
      </trkpt>
      <trkpt lat="8.985982" lon="-79.528810">
        <time>2026-07-20T22:10:38Z</time>
      </trkpt>
      <trkpt lat="8.985956" lon="-79.528839">
        <time>2026-07-20T22:10:39Z</time>
      </trkpt>
      <trkpt lat="8.985956" lon="-79.528839">
        <time>2026-07-20T22:10:40Z</time>
      </trkpt>
      <trkpt lat="8.985939" lon="-79.528849">
        <time>2026-07-20T22:10:41Z</time>
      </trkpt>
      <trkpt lat="8.985917" lon="-79.528858">
        <time>2026-07-20T22:10:42Z</time>
      </trkpt>
      <trkpt lat="8.985902" lon="-79.528868">
        <time>2026-07-20T22:10:43Z</time>
      </trkpt>
      <trkpt lat="8.985869" lon="-79.528881">
        <time>2026-07-20T22:10:44Z</time>
      </trkpt>
      <trkpt lat="8.985851" lon="-79.528892">
        <time>2026-07-20T22:10:45Z</time>
      </trkpt>
      <trkpt lat="8.985839" lon="-79.528912">
        <time>2026-07-20T22:10:46Z</time>
      </trkpt>
      <trkpt lat="8.985818" lon="-79.528916">
        <time>2026-07-20T22:10:47Z</time>
      </trkpt>
      <trkpt lat="8.985801" lon="-79.528926">
        <time>2026-07-20T22:10:48Z</time>
      </trkpt>
      <trkpt lat="8.985784" lon="-79.528936">
        <time>2026-07-20T22:10:49Z</time>
      </trkpt>
      <trkpt lat="8.985766" lon="-79.528947">
        <time>2026-07-20T22:10:50Z</time>
      </trkpt>
      <trkpt lat="8.985766" lon="-79.528947">
        <time>2026-07-20T22:10:51Z</time>
      </trkpt>
      <trkpt lat="8.985748" lon="-79.528958">
        <time>2026-07-20T22:10:52Z</time>
      </trkpt>
      <trkpt lat="8.985730" lon="-79.528967">
        <time>2026-07-20T22:10:53Z</time>
      </trkpt>
      <trkpt lat="8.985700" lon="-79.528983">
        <time>2026-07-20T22:10:54Z</time>
      </trkpt>
      <trkpt lat="8.985688" lon="-79.528991">
        <time>2026-07-20T22:10:55Z</time>
      </trkpt>
      <trkpt lat="8.985679" lon="-79.528994">
        <time>2026-07-20T22:10:56Z</time>
      </trkpt>
      <trkpt lat="8.985679" lon="-79.528994">
        <time>2026-07-20T22:10:57Z</time>
      </trkpt>
      <trkpt lat="8.985666" lon="-79.528998">
        <time>2026-07-20T22:10:58Z</time>
      </trkpt>
      <trkpt lat="8.985652" lon="-79.529002">
        <time>2026-07-20T22:10:59Z</time>
      </trkpt>
      <trkpt lat="8.985630" lon="-79.529004">
        <time>2026-07-20T22:11:00Z</time>
      </trkpt>
      <trkpt lat="8.985620" lon="-79.529012">
        <time>2026-07-20T22:11:01Z</time>
      </trkpt>
      <trkpt lat="8.985620" lon="-79.529012">
        <time>2026-07-20T22:11:02Z</time>
      </trkpt>
      <trkpt lat="8.985613" lon="-79.529020">
        <time>2026-07-20T22:11:03Z</time>
      </trkpt>
      <trkpt lat="8.985602" lon="-79.529022">
        <time>2026-07-20T22:11:04Z</time>
      </trkpt>
      <trkpt lat="8.985591" lon="-79.529023">
        <time>2026-07-20T22:11:05Z</time>
      </trkpt>
      <trkpt lat="8.985558" lon="-79.529029">
        <time>2026-07-20T22:11:06Z</time>
      </trkpt>
      <trkpt lat="8.985558" lon="-79.529029">
        <time>2026-07-20T22:11:07Z</time>
      </trkpt>
      <trkpt lat="8.985539" lon="-79.529031">
        <time>2026-07-20T22:11:08Z</time>
      </trkpt>
      <trkpt lat="8.985525" lon="-79.529031">
        <time>2026-07-20T22:11:09Z</time>
      </trkpt>
      <trkpt lat="8.985491" lon="-79.529032">
        <time>2026-07-20T22:11:10Z</time>
      </trkpt>
      <trkpt lat="8.985491" lon="-79.529032">
        <time>2026-07-20T22:11:11Z</time>
      </trkpt>
      <trkpt lat="8.985466" lon="-79.529027">
        <time>2026-07-20T22:11:12Z</time>
      </trkpt>
      <trkpt lat="8.985466" lon="-79.529027">
        <time>2026-07-20T22:11:13Z</time>
      </trkpt>
      <trkpt lat="8.985451" lon="-79.529015">
        <time>2026-07-20T22:11:14Z</time>
      </trkpt>
      <trkpt lat="8.985435" lon="-79.529003">
        <time>2026-07-20T22:11:15Z</time>
      </trkpt>
      <trkpt lat="8.985417" lon="-79.528994">
        <time>2026-07-20T22:11:16Z</time>
      </trkpt>
      <trkpt lat="8.985398" lon="-79.528985">
        <time>2026-07-20T22:11:17Z</time>
      </trkpt>
      <trkpt lat="8.985378" lon="-79.528977">
        <time>2026-07-20T22:11:18Z</time>
      </trkpt>
      <trkpt lat="8.985363" lon="-79.528962">
        <time>2026-07-20T22:11:19Z</time>
      </trkpt>
      <trkpt lat="8.985347" lon="-79.528943">
        <time>2026-07-20T22:11:20Z</time>
      </trkpt>
      <trkpt lat="8.985329" lon="-79.528922">
        <time>2026-07-20T22:11:21Z</time>
      </trkpt>
      <trkpt lat="8.985309" lon="-79.528906">
        <time>2026-07-20T22:11:22Z</time>
      </trkpt>
      <trkpt lat="8.985290" lon="-79.528891">
        <time>2026-07-20T22:11:23Z</time>
      </trkpt>
      <trkpt lat="8.985272" lon="-79.528878">
        <time>2026-07-20T22:11:24Z</time>
      </trkpt>
      <trkpt lat="8.985256" lon="-79.528866">
        <time>2026-07-20T22:11:25Z</time>
      </trkpt>
      <trkpt lat="8.985243" lon="-79.528856">
        <time>2026-07-20T22:11:26Z</time>
      </trkpt>
      <trkpt lat="8.985218" lon="-79.528836">
        <time>2026-07-20T22:11:27Z</time>
      </trkpt>
      <trkpt lat="8.985211" lon="-79.528832">
        <time>2026-07-20T22:11:28Z</time>
      </trkpt>
      <trkpt lat="8.985211" lon="-79.528832">
        <time>2026-07-20T22:11:29Z</time>
      </trkpt>
      <trkpt lat="8.985206" lon="-79.528829">
        <time>2026-07-20T22:11:30Z</time>
      </trkpt>
      <trkpt lat="8.985180" lon="-79.528826">
        <time>2026-07-20T22:11:31Z</time>
      </trkpt>
      <trkpt lat="8.985180" lon="-79.528826">
        <time>2026-07-20T22:11:32Z</time>
      </trkpt>
      <trkpt lat="8.985174" lon="-79.528832">
        <time>2026-07-20T22:11:33Z</time>
      </trkpt>
      <trkpt lat="8.985168" lon="-79.528844">
        <time>2026-07-20T22:11:34Z</time>
      </trkpt>
      <trkpt lat="8.985157" lon="-79.528853">
        <time>2026-07-20T22:11:35Z</time>
      </trkpt>
      <trkpt lat="8.985150" lon="-79.528864">
        <time>2026-07-20T22:11:36Z</time>
      </trkpt>
      <trkpt lat="8.985147" lon="-79.528876">
        <time>2026-07-20T22:11:37Z</time>
      </trkpt>
      <trkpt lat="8.985140" lon="-79.528891">
        <time>2026-07-20T22:11:38Z</time>
      </trkpt>
      <trkpt lat="8.985132" lon="-79.528906">
        <time>2026-07-20T22:11:39Z</time>
      </trkpt>
      <trkpt lat="8.985116" lon="-79.528929">
        <time>2026-07-20T22:11:40Z</time>
      </trkpt>
      <trkpt lat="8.985116" lon="-79.528929">
        <time>2026-07-20T22:11:41Z</time>
      </trkpt>
      <trkpt lat="8.985108" lon="-79.528943">
        <time>2026-07-20T22:11:42Z</time>
      </trkpt>
      <trkpt lat="8.985102" lon="-79.528954">
        <time>2026-07-20T22:11:43Z</time>
      </trkpt>
      <trkpt lat="8.984861" lon="-79.529134">
        <time>2026-07-20T22:12:29Z</time>
      </trkpt>
      <trkpt lat="8.984861" lon="-79.529141">
        <time>2026-07-20T22:12:30Z</time>
      </trkpt>
    </trkseg>
  </trk>
</gpx>
