<?xml version="1.0" encoding="UTF-8"?>
<gpx version="1.1" creator="FitFilter" xmlns="http://www.topografix.com/GPX/1/1" xmlns:xsi="http://www.w3.org/2001/XMLSchema-instance" xsi:schemaLocation="http://www.topografix.com/GPX/1/1 http://www.topografix.com/GPX/1/1/gpx.xsd">
  <metadata>
    <time>2026-07-21T11:09:48Z</time>
  </metadata>
  <trk>
    <name>Walking - 2026-07-21 11:09</name>
    <type>walking</type>
    <trkseg>
      <trkpt lat="9.004399" lon="-79.572706">
        <time>2026-07-21T11:09:48Z</time>
      </trkpt>
      <trkpt lat="9.004408" lon="-79.572707">
        <time>2026-07-21T11:09:49Z</time>
      </trkpt>
      <trkpt lat="9.004407" lon="-79.572689">
        <time>2026-07-21T11:09:50Z</time>
      </trkpt>
      <trkpt lat="9.004415" lon="-79.572675">
        <time>2026-07-21T11:09:51Z</time>
      </trkpt>
      <trkpt lat="9.004426" lon="-79.572667">
        <time>2026-07-21T11:09:52Z</time>
      </trkpt>
      <trkpt lat="9.004454" lon="-79.572650">
        <time>2026-07-21T11:09:54Z</time>
      </trkpt>
      <trkpt lat="9.004462" lon="-79.572640">
        <time>2026-07-21T11:09:55Z</time>
      </trkpt>
      <trkpt lat="9.004483" lon="-79.572620">
        <time>2026-07-21T11:09:57Z</time>
      </trkpt>
      <trkpt lat="9.004528" lon="-79.572556">
        <time>2026-07-21T11:10:03Z</time>
      </trkpt>
      <trkpt lat="9.004588" lon="-79.572470">
        <time>2026-07-21T11:10:11Z</time>
      </trkpt>
      <trkpt lat="9.004636" lon="-79.572389">
        <time>2026-07-21T11:10:18Z</time>
      </trkpt>
      <trkpt lat="9.004694" lon="-79.572286">
        <time>2026-07-21T11:10:26Z</time>
      </trkpt>
      <trkpt lat="9.004698" lon="-79.572279">
        <time>2026-07-21T11:10:27Z</time>
      </trkpt>
      <trkpt lat="9.004739" lon="-79.572189">
        <time>2026-07-21T11:10:34Z</time>
      </trkpt>
      <trkpt lat="9.004749" lon="-79.572153">
        <time>2026-07-21T11:10:36Z</time>
      </trkpt>
      <trkpt lat="9.004773" lon="-79.572080">
        <time>2026-07-21T11:10:41Z</time>
      </trkpt>
      <trkpt lat="9.004807" lon="-79.571982">
        <time>2026-07-21T11:10:49Z</time>
      </trkpt>
      <trkpt lat="9.004834" lon="-79.571845">
        <time>2026-07-21T11:10:58Z</time>
      </trkpt>
      <trkpt lat="9.004855" lon="-79.571710">
        <time>2026-07-21T11:11:07Z</time>
      </trkpt>
      <trkpt lat="9.004861" lon="-79.571581">
        <time>2026-07-21T11:11:16Z</time>
      </trkpt>
      <trkpt lat="9.004866" lon="-79.571494">
        <time>2026-07-21T11:11:23Z</time>
      </trkpt>
      <trkpt lat="9.004869" lon="-79.571466">
        <time>2026-07-21T11:11:25Z</time>
      </trkpt>
      <trkpt lat="9.004879" lon="-79.571403">
        <time>2026-07-21T11:11:30Z</time>
      </trkpt>
      <trkpt lat="9.004882" lon="-79.571328">
        <time>2026-07-21T11:11:35Z</time>
      </trkpt>
      <trkpt lat="9.004887" lon="-79.571278">
        <time>2026-07-21T11:11:38Z</time>
      </trkpt>
      <trkpt lat="9.004892" lon="-79.571228">
        <time>2026-07-21T11:11:41Z</time>
      </trkpt>
      <trkpt lat="9.004892" lon="-79.571215">
        <time>2026-07-21T11:11:42Z</time>
      </trkpt>
      <trkpt lat="9.004904" lon="-79.571159">
        <time>2026-07-21T11:11:46Z</time>
      </trkpt>
      <trkpt lat="9.004920" lon="-79.571047">
        <time>2026-07-21T11:11:54Z</time>
      </trkpt>
      <trkpt lat="9.004922" lon="-79.571030">
        <time>2026-07-21T11:11:55Z</time>
      </trkpt>
      <trkpt lat="9.004912" lon="-79.570963">
        <time>2026-07-21T11:12:00Z</time>
      </trkpt>
      <trkpt lat="9.004908" lon="-79.570951">
        <time>2026-07-21T11:12:01Z</time>
      </trkpt>
      <trkpt lat="9.004913" lon="-79.570942">
        <time>2026-07-21T11:12:02Z</time>
      </trkpt>
      <trkpt lat="9.004912" lon="-79.570928">
        <time>2026-07-21T11:12:03Z</time>
      </trkpt>
      <trkpt lat="9.004909" lon="-79.570875">
        <time>2026-07-21T11:12:07Z</time>
      </trkpt>
      <trkpt lat="9.004924" lon="-79.570787">
        <time>2026-07-21T11:12:13Z</time>
      </trkpt>
      <trkpt lat="9.004940" lon="-79.570738">
        <time>2026-07-21T11:12:17Z</time>
      </trkpt>
      <trkpt lat="9.004950" lon="-79.570695">
        <time>2026-07-21T11:12:20Z</time>
      </trkpt>
      <trkpt lat="9.004970" lon="-79.570615">
        <time>2026-07-21T11:12:26Z</time>
      </trkpt>
      <trkpt lat="9.004998" lon="-79.570527">
        <time>2026-07-21T11:12:33Z</time>
      </trkpt>
      <trkpt lat="9.005028" lon="-79.570450">
        <time>2026-07-21T11:12:39Z</time>
      </trkpt>
      <trkpt lat="9.005041" lon="-79.570432">
        <time>2026-07-21T11:12:41Z</time>
      </trkpt>
      <trkpt lat="9.005071" lon="-79.570371">
        <time>2026-07-21T11:12:46Z</time>
      </trkpt>
      <trkpt lat="9.005102" lon="-79.570272">
        <time>2026-07-21T11:12:53Z</time>
      </trkpt>
      <trkpt lat="9.005115" lon="-79.570165">
        <time>2026-07-21T11:13:01Z</time>
      </trkpt>
      <trkpt lat="9.005124" lon="-79.570107">
        <time>2026-07-21T11:13:06Z</time>
      </trkpt>
      <trkpt lat="9.005140" lon="-79.570067">
        <time>2026-07-21T11:13:09Z</time>
      </trkpt>
      <trkpt lat="9.005163" lon="-79.569994">
        <time>2026-07-21T11:13:14Z</time>
      </trkpt>
      <trkpt lat="9.005176" lon="-79.569947">
        <time>2026-07-21T11:13:18Z</time>
      </trkpt>
      <trkpt lat="9.005230" lon="-79.569850">
        <time>2026-07-21T11:13:26Z</time>
      </trkpt>
      <trkpt lat="9.005275" lon="-79.569761">
        <time>2026-07-21T11:13:33Z</time>
      </trkpt>
      <trkpt lat="9.005308" lon="-79.569651">
        <time>2026-07-21T11:13:41Z</time>
      </trkpt>
      <trkpt lat="9.005336" lon="-79.569558">
        <time>2026-07-21T11:13:48Z</time>
      </trkpt>
      <trkpt lat="9.005361" lon="-79.569478">
        <time>2026-07-21T11:13:54Z</time>
      </trkpt>
      <trkpt lat="9.005370" lon="-79.569451">
        <time>2026-07-21T11:13:56Z</time>
      </trkpt>
      <trkpt lat="9.005391" lon="-79.569313">
        <time>2026-07-21T11:14:06Z</time>
      </trkpt>
      <trkpt lat="9.005412" lon="-79.569177">
        <time>2026-07-21T11:14:16Z</time>
      </trkpt>
      <trkpt lat="9.005438" lon="-79.569080">
        <time>2026-07-21T11:14:23Z</time>
      </trkpt>
      <trkpt lat="9.005443" lon="-79.569067">
        <time>2026-07-21T11:14:24Z</time>
      </trkpt>
      <trkpt lat="9.005461" lon="-79.569029">
        <time>2026-07-21T11:14:27Z</time>
      </trkpt>
      <trkpt lat="9.005468" lon="-79.569018">
        <time>2026-07-21T11:14:28Z</time>
      </trkpt>
      <trkpt lat="9.005477" lon="-79.569004">
        <time>2026-07-21T11:14:29Z</time>
      </trkpt>
      <trkpt lat="9.005487" lon="-79.568980">
        <time>2026-07-21T11:14:31Z</time>
      </trkpt>
      <trkpt lat="9.005525" lon="-79.568883">
        <time>2026-07-21T11:14:38Z</time>
      </trkpt>
      <trkpt lat="9.005529" lon="-79.568869">
        <time>2026-07-21T11:14:39Z</time>
      </trkpt>
      <trkpt lat="9.005532" lon="-79.568857">
        <time>2026-07-21T11:14:40Z</time>
      </trkpt>
      <trkpt lat="9.005540" lon="-79.568831">
        <time>2026-07-21T11:14:42Z</time>
      </trkpt>
      <trkpt lat="9.005556" lon="-79.568772">
        <time>2026-07-21T11:14:46Z</time>
      </trkpt>
      <trkpt lat="9.005574" lon="-79.568671">
        <time>2026-07-21T11:14:54Z</time>
      </trkpt>
      <trkpt lat="9.005586" lon="-79.568628">
        <time>2026-07-21T11:14:57Z</time>
      </trkpt>
      <trkpt lat="9.005595" lon="-79.568579">
        <time>2026-07-21T11:15:01Z</time>
      </trkpt>
      <trkpt lat="9.005598" lon="-79.568552">
        <time>2026-07-21T11:15:03Z</time>
      </trkpt>
      <trkpt lat="9.005609" lon="-79.568449">
        <time>2026-07-21T11:15:10Z</time>
      </trkpt>
      <trkpt lat="9.005642" lon="-79.568367">
        <time>2026-07-21T11:15:17Z</time>
      </trkpt>
      <trkpt lat="9.005705" lon="-79.568272">
        <time>2026-07-21T11:15:25Z</time>
      </trkpt>
      <trkpt lat="9.005724" lon="-79.568241">
        <time>2026-07-21T11:15:28Z</time>
      </trkpt>
      <trkpt lat="9.005766" lon="-79.568172">
        <time>2026-07-21T11:15:34Z</time>
      </trkpt>
      <trkpt lat="9.005800" lon="-79.568096">
        <time>2026-07-21T11:15:40Z</time>
      </trkpt>
      <trkpt lat="9.005814" lon="-79.568027">
        <time>2026-07-21T11:15:45Z</time>
      </trkpt>
      <trkpt lat="9.005801" lon="-79.567969">
        <time>2026-07-21T11:15:49Z</time>
      </trkpt>
      <trkpt lat="9.005777" lon="-79.567923">
        <time>2026-07-21T11:15:53Z</time>
      </trkpt>
      <trkpt lat="9.005746" lon="-79.567886">
        <time>2026-07-21T11:15:57Z</time>
      </trkpt>
      <trkpt lat="9.005719" lon="-79.567846">
        <time>2026-07-21T11:16:00Z</time>
      </trkpt>
      <trkpt lat="9.005688" lon="-79.567807">
        <time>2026-07-21T11:16:04Z</time>
      </trkpt>
      <trkpt lat="9.005620" lon="-79.567725">
        <time>2026-07-21T11:16:12Z</time>
      </trkpt>
      <trkpt lat="9.005543" lon="-79.567627">
        <time>2026-07-21T11:16:21Z</time>
      </trkpt>
      <trkpt lat="9.005500" lon="-79.567571">
        <time>2026-07-21T11:16:26Z</time>
      </trkpt>
      <trkpt lat="9.005473" lon="-79.567525">
        <time>2026-07-21T11:16:30Z</time>
      </trkpt>
      <trkpt lat="9.005452" lon="-79.567489">
        <time>2026-07-21T11:16:33Z</time>
      </trkpt>
      <trkpt lat="9.005421" lon="-79.567439">
        <time>2026-07-21T11:16:37Z</time>
      </trkpt>
      <trkpt lat="9.005397" lon="-79.567400">
        <time>2026-07-21T11:16:40Z</time>
      </trkpt>
      <trkpt lat="9.005375" lon="-79.567355">
        <time>2026-07-21T11:16:44Z</time>
      </trkpt>
      <trkpt lat="9.005327" lon="-79.567268">
        <time>2026-07-21T11:16:51Z</time>
      </trkpt>
      <trkpt lat="9.005324" lon="-79.567254">
        <time>2026-07-21T11:16:52Z</time>
      </trkpt>
      <trkpt lat="9.005288" lon="-79.567177">
        <time>2026-07-21T11:16:58Z</time>
      </trkpt>
      <trkpt lat="9.005244" lon="-79.567077">
        <time>2026-07-21T11:17:06Z</time>
      </trkpt>
      <trkpt lat="9.005216" lon="-79.567029">
        <time>2026-07-21T11:17:10Z</time>
      </trkpt>
      <trkpt lat="9.005187" lon="-79.566979">
        <time>2026-07-21T11:17:14Z</time>
      </trkpt>
      <trkpt lat="9.005159" lon="-79.566888">
        <time>2026-07-21T11:17:21Z</time>
      </trkpt>
      <trkpt lat="9.005159" lon="-79.566877">
        <time>2026-07-21T11:17:22Z</time>
      </trkpt>
      <trkpt lat="9.005160" lon="-79.566844">
        <time>2026-07-21T11:17:24Z</time>
      </trkpt>
      <trkpt lat="9.005156" lon="-79.566834">
        <time>2026-07-21T11:17:25Z</time>
      </trkpt>
      <trkpt lat="9.005124" lon="-79.566791">
        <time>2026-07-21T11:17:29Z</time>
      </trkpt>
      <trkpt lat="9.005116" lon="-79.566764">
        <time>2026-07-21T11:17:31Z</time>
      </trkpt>
      <trkpt lat="9.005110" lon="-79.566751">
        <time>2026-07-21T11:17:32Z</time>
      </trkpt>
      <trkpt lat="9.005097" lon="-79.566708">
        <time>2026-07-21T11:17:36Z</time>
      </trkpt>
      <trkpt lat="9.005095" lon="-79.566709">
        <time>2026-07-21T11:17:38Z</time>
      </trkpt>
      <trkpt lat="9.005092" lon="-79.566655">
        <time>2026-07-21T11:17:43Z</time>
      </trkpt>
      <trkpt lat="9.005070" lon="-79.566561">
        <time>2026-07-21T11:17:49Z</time>
      </trkpt>
      <trkpt lat="9.005061" lon="-79.566552">
        <time>2026-07-21T11:17:50Z</time>
      </trkpt>
      <trkpt lat="9.005035" lon="-79.566509">
        <time>2026-07-21T11:17:55Z</time>
      </trkpt>
      <trkpt lat="9.005010" lon="-79.566422">
        <time>2026-07-21T11:18:01Z</time>
      </trkpt>
      <trkpt lat="9.004958" lon="-79.566325">
        <time>2026-07-21T11:18:09Z</time>
      </trkpt>
      <trkpt lat="9.004929" lon="-79.566267">
        <time>2026-07-21T11:18:14Z</time>
      </trkpt>
      <trkpt lat="9.004910" lon="-79.566236">
        <time>2026-07-21T11:18:17Z</time>
      </trkpt>
      <trkpt lat="9.004892" lon="-79.566202">
        <time>2026-07-21T11:18:20Z</time>
      </trkpt>
      <trkpt lat="9.004854" lon="-79.566134">
        <time>2026-07-21T11:18:26Z</time>
      </trkpt>
      <trkpt lat="9.004837" lon="-79.566112">
        <time>2026-07-21T11:18:28Z</time>
      </trkpt>
      <trkpt lat="9.004796" lon="-79.566043">
        <time>2026-07-21T11:18:34Z</time>
      </trkpt>
      <trkpt lat="9.004765" lon="-79.565995">
        <time>2026-07-21T11:18:38Z</time>
      </trkpt>
      <trkpt lat="9.004725" lon="-79.565951">
        <time>2026-07-21T11:18:41Z</time>
      </trkpt>
      <trkpt lat="9.004707" lon="-79.565943">
        <time>2026-07-21T11:18:42Z</time>
      </trkpt>
      <trkpt lat="9.004639" lon="-79.565943">
        <time>2026-07-21T11:18:47Z</time>
      </trkpt>
      <trkpt lat="9.004608" lon="-79.565955">
        <time>2026-07-21T11:18:50Z</time>
      </trkpt>
      <trkpt lat="9.004506" lon="-79.565961">
        <time>2026-07-21T11:18:58Z</time>
      </trkpt>
      <trkpt lat="9.004491" lon="-79.565962">
        <time>2026-07-21T11:18:59Z</time>
      </trkpt>
      <trkpt lat="9.004453" lon="-79.565964">
        <time>2026-07-21T11:19:02Z</time>
      </trkpt>
      <trkpt lat="9.004384" lon="-79.565979">
        <time>2026-07-21T11:19:08Z</time>
      </trkpt>
      <trkpt lat="9.004374" lon="-79.565981">
        <time>2026-07-21T11:19:09Z</time>
      </trkpt>
      <trkpt lat="9.004293" lon="-79.565982">
        <time>2026-07-21T11:19:15Z</time>
      </trkpt>
      <trkpt lat="9.004242" lon="-79.565990">
        <time>2026-07-21T11:19:19Z</time>
      </trkpt>
      <trkpt lat="9.004231" lon="-79.565993">
        <time>2026-07-21T11:19:20Z</time>
      </trkpt>
      <trkpt lat="9.004200" lon="-79.565993">
        <time>2026-07-21T11:19:22Z</time>
      </trkpt>
      <trkpt lat="9.004173" lon="-79.565996">
        <time>2026-07-21T11:19:24Z</time>
      </trkpt>
      <trkpt lat="9.004152" lon="-79.566004">
        <time>2026-07-21T11:19:26Z</time>
      </trkpt>
      <trkpt lat="9.004129" lon="-79.566013">
        <time>2026-07-21T11:19:28Z</time>
      </trkpt>
      <trkpt lat="9.004072" lon="-79.566006">
        <time>2026-07-21T11:19:33Z</time>
      </trkpt>
      <trkpt lat="9.004044" lon="-79.566008">
        <time>2026-07-21T11:19:35Z</time>
      </trkpt>
      <trkpt lat="9.003969" lon="-79.566015">
        <time>2026-07-21T11:19:41Z</time>
      </trkpt>
      <trkpt lat="9.003939" lon="-79.566021">
        <time>2026-07-21T11:19:44Z</time>
      </trkpt>
      <trkpt lat="9.003886" lon="-79.566022">
        <time>2026-07-21T11:19:48Z</time>
      </trkpt>
      <trkpt lat="9.003871" lon="-79.566022">
        <time>2026-07-21T11:19:49Z</time>
      </trkpt>
      <trkpt lat="9.003766" lon="-79.566009">
        <time>2026-07-21T11:19:57Z</time>
      </trkpt>
      <trkpt lat="9.003752" lon="-79.566011">
        <time>2026-07-21T11:19:58Z</time>
      </trkpt>
      <trkpt lat="9.003732" lon="-79.566007">
        <time>2026-07-21T11:20:00Z</time>
      </trkpt>
      <trkpt lat="9.003701" lon="-79.566000">
        <time>2026-07-21T11:20:03Z</time>
      </trkpt>
      <trkpt lat="9.003647" lon="-79.565991">
        <time>2026-07-21T11:20:07Z</time>
      </trkpt>
      <trkpt lat="9.003629" lon="-79.565988">
        <time>2026-07-21T11:20:09Z</time>
      </trkpt>
      <trkpt lat="9.003583" lon="-79.565976">
        <time>2026-07-21T11:20:13Z</time>
      </trkpt>
      <trkpt lat="9.003532" lon="-79.565963">
        <time>2026-07-21T11:20:17Z</time>
      </trkpt>
      <trkpt lat="9.003433" lon="-79.565940">
        <time>2026-07-21T11:20:25Z</time>
      </trkpt>
      <trkpt lat="9.003398" lon="-79.565937">
        <time>2026-07-21T11:20:28Z</time>
      </trkpt>
      <trkpt lat="9.003387" lon="-79.565930">
        <time>2026-07-21T11:20:29Z</time>
      </trkpt>
      <trkpt lat="9.003349" lon="-79.565924">
        <time>2026-07-21T11:20:32Z</time>
      </trkpt>
      <trkpt lat="9.003337" lon="-79.565923">
        <time>2026-07-21T11:20:33Z</time>
      </trkpt>
      <trkpt lat="9.003244" lon="-79.565909">
        <time>2026-07-21T11:20:40Z</time>
      </trkpt>
      <trkpt lat="9.003155" lon="-79.565895">
        <time>2026-07-21T11:20:48Z</time>
      </trkpt>
      <trkpt lat="9.003082" lon="-79.565876">
        <time>2026-07-21T11:20:54Z</time>
      </trkpt>
      <trkpt lat="9.003071" lon="-79.565871">
        <time>2026-07-21T11:20:55Z</time>
      </trkpt>
      <trkpt lat="9.003059" lon="-79.565870">
        <time>2026-07-21T11:20:56Z</time>
      </trkpt>
      <trkpt lat="9.003007" lon="-79.565853">
        <time>2026-07-21T11:21:01Z</time>
      </trkpt>
      <trkpt lat="9.002997" lon="-79.565851">
        <time>2026-07-21T11:21:02Z</time>
      </trkpt>
    </trkseg>
  </trk>
</gpx>
