<?xml version="1.0" encoding="UTF-8"?>
<gpx version="1.1" creator="FitFilter" xmlns="http://www.topografix.com/GPX/1/1" xmlns:xsi="http://www.w3.org/2001/XMLSchema-instance" xsi:schemaLocation="http://www.topografix.com/GPX/1/1 http://www.topografix.com/GPX/1/1/gpx.xsd">
  <metadata>
    <time>2026-07-23T11:00:48Z</time>
  </metadata>
  <trk>
    <name>Walking - 2026-07-23 11:00</name>
    <type>walking</type>
    <trkseg>
      <trkpt lat="9.003654" lon="-79.573357">
        <time>2026-07-23T11:00:48Z</time>
      </trkpt>
      <trkpt lat="9.003669" lon="-79.573360">
        <time>2026-07-23T11:00:49Z</time>
      </trkpt>
      <trkpt lat="9.003720" lon="-79.573300">
        <time>2026-07-23T11:00:54Z</time>
      </trkpt>
      <trkpt lat="9.003731" lon="-79.573293">
        <time>2026-07-23T11:00:55Z</time>
      </trkpt>
      <trkpt lat="9.003751" lon="-79.573277">
        <time>2026-07-23T11:00:57Z</time>
      </trkpt>
      <trkpt lat="9.003782" lon="-79.573252">
        <time>2026-07-23T11:01:00Z</time>
      </trkpt>
      <trkpt lat="9.003820" lon="-79.573226">
        <time>2026-07-23T11:01:03Z</time>
      </trkpt>
      <trkpt lat="9.003839" lon="-79.573207">
        <time>2026-07-23T11:01:05Z</time>
      </trkpt>
      <trkpt lat="9.003858" lon="-79.573188">
        <time>2026-07-23T11:01:07Z</time>
      </trkpt>
      <trkpt lat="9.003892" lon="-79.573155">
        <time>2026-07-23T11:01:11Z</time>
      </trkpt>
      <trkpt lat="9.003921" lon="-79.573130">
        <time>2026-07-23T11:01:14Z</time>
      </trkpt>
      <trkpt lat="9.003974" lon="-79.573076">
        <time>2026-07-23T11:01:20Z</time>
      </trkpt>
      <trkpt lat="9.004020" lon="-79.573045">
        <time>2026-07-23T11:01:24Z</time>
      </trkpt>
      <trkpt lat="9.004047" lon="-79.573030">
        <time>2026-07-23T11:01:27Z</time>
      </trkpt>
      <trkpt lat="9.004107" lon="-79.572988">
        <time>2026-07-23T11:01:33Z</time>
      </trkpt>
      <trkpt lat="9.004170" lon="-79.572943">
        <time>2026-07-23T11:01:39Z</time>
      </trkpt>
      <trkpt lat="9.004216" lon="-79.572894">
        <time>2026-07-23T11:01:44Z</time>
      </trkpt>
      <trkpt lat="9.004226" lon="-79.572883">
        <time>2026-07-23T11:01:45Z</time>
      </trkpt>
      <trkpt lat="9.004235" lon="-79.572875">
        <time>2026-07-23T11:01:46Z</time>
      </trkpt>
      <trkpt lat="9.004246" lon="-79.572866">
        <time>2026-07-23T11:01:47Z</time>
      </trkpt>
      <trkpt lat="9.004255" lon="-79.572858">
        <time>2026-07-23T11:01:48Z</time>
      </trkpt>
      <trkpt lat="9.004271" lon="-79.572841">
        <time>2026-07-23T11:01:50Z</time>
      </trkpt>
      <trkpt lat="9.004326" lon="-79.572781">
        <time>2026-07-23T11:01:56Z</time>
      </trkpt>
      <trkpt lat="9.004399" lon="-79.572710">
        <time>2026-07-23T11:02:03Z</time>
      </trkpt>
      <trkpt lat="9.004426" lon="-79.572669">
        <time>2026-07-23T11:02:07Z</time>
      </trkpt>
      <trkpt lat="9.004432" lon="-79.572658">
        <time>2026-07-23T11:02:08Z</time>
      </trkpt>
      <trkpt lat="9.004442" lon="-79.572649">
        <time>2026-07-23T11:02:09Z</time>
      </trkpt>
      <trkpt lat="9.004449" lon="-79.572640">
        <time>2026-07-23T11:02:10Z</time>
      </trkpt>
      <trkpt lat="9.004476" lon="-79.572608">
        <time>2026-07-23T11:02:13Z</time>
      </trkpt>
      <trkpt lat="9.004502" lon="-79.572579">
        <time>2026-07-23T11:02:16Z</time>
      </trkpt>
      <trkpt lat="9.004510" lon="-79.572567">
        <time>2026-07-23T11:02:17Z</time>
      </trkpt>
      <trkpt lat="9.004516" lon="-79.572556">
        <time>2026-07-23T11:02:18Z</time>
      </trkpt>
      <trkpt lat="9.004550" lon="-79.572511">
        <time>2026-07-23T11:02:22Z</time>
      </trkpt>
      <trkpt lat="9.004567" lon="-79.572485">
        <time>2026-07-23T11:02:24Z</time>
      </trkpt>
      <trkpt lat="9.004586" lon="-79.572462">
        <time>2026-07-23T11:02:26Z</time>
      </trkpt>
      <trkpt lat="9.004600" lon="-79.572435">
        <time>2026-07-23T11:02:28Z</time>
      </trkpt>
      <trkpt lat="9.004628" lon="-79.572401">
        <time>2026-07-23T11:02:31Z</time>
      </trkpt>
      <trkpt lat="9.004650" lon="-79.572362">
        <time>2026-07-23T11:02:34Z</time>
      </trkpt>
      <trkpt lat="9.004686" lon="-79.572289">
        <time>2026-07-23T11:02:39Z</time>
      </trkpt>
      <trkpt lat="9.004724" lon="-79.572201">
        <time>2026-07-23T11:02:46Z</time>
      </trkpt>
      <trkpt lat="9.004738" lon="-79.572162">
        <time>2026-07-23T11:02:49Z</time>
      </trkpt>
      <trkpt lat="9.004742" lon="-79.572150">
        <time>2026-07-23T11:02:50Z</time>
      </trkpt>
      <trkpt lat="9.004747" lon="-79.572137">
        <time>2026-07-23T11:02:51Z</time>
      </trkpt>
      <trkpt lat="9.004775" lon="-79.572072">
        <time>2026-07-23T11:02:56Z</time>
      </trkpt>
      <trkpt lat="9.004787" lon="-79.572042">
        <time>2026-07-23T11:02:58Z</time>
      </trkpt>
      <trkpt lat="9.004824" lon="-79.571930">
        <time>2026-07-23T11:03:06Z</time>
      </trkpt>
      <trkpt lat="9.004830" lon="-79.571901">
        <time>2026-07-23T11:03:08Z</time>
      </trkpt>
      <trkpt lat="9.004836" lon="-79.571871">
        <time>2026-07-23T11:03:10Z</time>
      </trkpt>
      <trkpt lat="9.004854" lon="-79.571765">
        <time>2026-07-23T11:03:17Z</time>
      </trkpt>
      <trkpt lat="9.004857" lon="-79.571734">
        <time>2026-07-23T11:03:19Z</time>
      </trkpt>
      <trkpt lat="9.004872" lon="-79.571592">
        <time>2026-07-23T11:03:29Z</time>
      </trkpt>
      <trkpt lat="9.004894" lon="-79.571429">
        <time>2026-07-23T11:03:41Z</time>
      </trkpt>
      <trkpt lat="9.004896" lon="-79.571361">
        <time>2026-07-23T11:03:47Z</time>
      </trkpt>
      <trkpt lat="9.004902" lon="-79.571255">
        <time>2026-07-23T11:03:55Z</time>
      </trkpt>
      <trkpt lat="9.004920" lon="-79.571174">
        <time>2026-07-23T11:04:01Z</time>
      </trkpt>
      <trkpt lat="9.004933" lon="-79.571102">
        <time>2026-07-23T11:04:06Z</time>
      </trkpt>
      <trkpt lat="9.004932" lon="-79.570966">
        <time>2026-07-23T11:04:15Z</time>
      </trkpt>
      <trkpt lat="9.004927" lon="-79.570823">
        <time>2026-07-23T11:04:25Z</time>
      </trkpt>
      <trkpt lat="9.004935" lon="-79.570801">
        <time>2026-07-23T11:04:27Z</time>
      </trkpt>
      <trkpt lat="9.004944" lon="-79.570765">
        <time>2026-07-23T11:04:30Z</time>
      </trkpt>
      <trkpt lat="9.004965" lon="-79.570693">
        <time>2026-07-23T11:04:35Z</time>
      </trkpt>
      <trkpt lat="9.004971" lon="-79.570679">
        <time>2026-07-23T11:04:36Z</time>
      </trkpt>
      <trkpt lat="9.004985" lon="-79.570613">
        <time>2026-07-23T11:04:41Z</time>
      </trkpt>
      <trkpt lat="9.004997" lon="-79.570562">
        <time>2026-07-23T11:04:45Z</time>
      </trkpt>
      <trkpt lat="9.005036" lon="-79.570433">
        <time>2026-07-23T11:04:55Z</time>
      </trkpt>
      <trkpt lat="9.005044" lon="-79.570418">
        <time>2026-07-23T11:04:56Z</time>
      </trkpt>
      <trkpt lat="9.005060" lon="-79.570392">
        <time>2026-07-23T11:04:58Z</time>
      </trkpt>
      <trkpt lat="9.005086" lon="-79.570329">
        <time>2026-07-23T11:05:03Z</time>
      </trkpt>
      <trkpt lat="9.005086" lon="-79.570257">
        <time>2026-07-23T11:05:08Z</time>
      </trkpt>
      <trkpt lat="9.005100" lon="-79.570222">
        <time>2026-07-23T11:05:11Z</time>
      </trkpt>
      <trkpt lat="9.005135" lon="-79.570146">
        <time>2026-07-23T11:05:17Z</time>
      </trkpt>
      <trkpt lat="9.005144" lon="-79.570116">
        <time>2026-07-23T11:05:19Z</time>
      </trkpt>
      <trkpt lat="9.005150" lon="-79.570089">
        <time>2026-07-23T11:05:21Z</time>
      </trkpt>
      <trkpt lat="9.005184" lon="-79.569980">
        <time>2026-07-23T11:05:29Z</time>
      </trkpt>
      <trkpt lat="9.005233" lon="-79.569854">
        <time>2026-07-23T11:05:39Z</time>
      </trkpt>
      <trkpt lat="9.005267" lon="-79.569780">
        <time>2026-07-23T11:05:45Z</time>
      </trkpt>
      <trkpt lat="9.005279" lon="-79.569745">
        <time>2026-07-23T11:05:48Z</time>
      </trkpt>
      <trkpt lat="9.005294" lon="-79.569676">
        <time>2026-07-23T11:05:53Z</time>
      </trkpt>
      <trkpt lat="9.005308" lon="-79.569633">
        <time>2026-07-23T11:05:56Z</time>
      </trkpt>
      <trkpt lat="9.005343" lon="-79.569549">
        <time>2026-07-23T11:06:03Z</time>
      </trkpt>
      <trkpt lat="9.005365" lon="-79.569496">
        <time>2026-07-23T11:06:07Z</time>
      </trkpt>
      <trkpt lat="9.005382" lon="-79.569455">
        <time>2026-07-23T11:06:10Z</time>
      </trkpt>
      <trkpt lat="9.005395" lon="-79.569404">
        <time>2026-07-23T11:06:14Z</time>
      </trkpt>
      <trkpt lat="9.005401" lon="-79.569375">
        <time>2026-07-23T11:06:16Z</time>
      </trkpt>
      <trkpt lat="9.005423" lon="-79.569279">
        <time>2026-07-23T11:06:23Z</time>
      </trkpt>
      <trkpt lat="9.005457" lon="-79.569143">
        <time>2026-07-23T11:06:33Z</time>
      </trkpt>
      <trkpt lat="9.005459" lon="-79.569129">
        <time>2026-07-23T11:06:34Z</time>
      </trkpt>
      <trkpt lat="9.005483" lon="-79.569040">
        <time>2026-07-23T11:06:41Z</time>
      </trkpt>
      <trkpt lat="9.005502" lon="-79.568986">
        <time>2026-07-23T11:06:45Z</time>
      </trkpt>
      <trkpt lat="9.005544" lon="-79.568893">
        <time>2026-07-23T11:06:52Z</time>
      </trkpt>
      <trkpt lat="9.005549" lon="-79.568880">
        <time>2026-07-23T11:06:53Z</time>
      </trkpt>
      <trkpt lat="9.005561" lon="-79.568814">
        <time>2026-07-23T11:06:58Z</time>
      </trkpt>
      <trkpt lat="9.005574" lon="-79.568778">
        <time>2026-07-23T11:07:01Z</time>
      </trkpt>
      <trkpt lat="9.005620" lon="-79.568625">
        <time>2026-07-23T11:07:12Z</time>
      </trkpt>
      <trkpt lat="9.005654" lon="-79.568512">
        <time>2026-07-23T11:07:20Z</time>
      </trkpt>
      <trkpt lat="9.005696" lon="-79.568398">
        <time>2026-07-23T11:07:30Z</time>
      </trkpt>
      <trkpt lat="9.005745" lon="-79.568330">
        <time>2026-07-23T11:07:37Z</time>
      </trkpt>
      <trkpt lat="9.005756" lon="-79.568302">
        <time>2026-07-23T11:07:39Z</time>
      </trkpt>
      <trkpt lat="9.005818" lon="-79.568194">
        <time>2026-07-23T11:07:47Z</time>
      </trkpt>
      <trkpt lat="9.005858" lon="-79.568085">
        <time>2026-07-23T11:07:55Z</time>
      </trkpt>
      <trkpt lat="9.005861" lon="-79.568012">
        <time>2026-07-23T11:08:00Z</time>
      </trkpt>
      <trkpt lat="9.005835" lon="-79.567953">
        <time>2026-07-23T11:08:04Z</time>
      </trkpt>
      <trkpt lat="9.005731" lon="-79.567837">
        <time>2026-07-23T11:08:14Z</time>
      </trkpt>
      <trkpt lat="9.005638" lon="-79.567738">
        <time>2026-07-23T11:08:24Z</time>
      </trkpt>
      <trkpt lat="9.005561" lon="-79.567646">
        <time>2026-07-23T11:08:33Z</time>
      </trkpt>
      <trkpt lat="9.005543" lon="-79.567621">
        <time>2026-07-23T11:08:35Z</time>
      </trkpt>
      <trkpt lat="9.005519" lon="-79.567591">
        <time>2026-07-23T11:08:38Z</time>
      </trkpt>
      <trkpt lat="9.005465" lon="-79.567527">
        <time>2026-07-23T11:08:44Z</time>
      </trkpt>
      <trkpt lat="9.005447" lon="-79.567497">
        <time>2026-07-23T11:08:47Z</time>
      </trkpt>
      <trkpt lat="9.005423" lon="-79.567450">
        <time>2026-07-23T11:08:51Z</time>
      </trkpt>
      <trkpt lat="9.005346" lon="-79.567329">
        <time>2026-07-23T11:09:01Z</time>
      </trkpt>
      <trkpt lat="9.005310" lon="-79.567233">
        <time>2026-07-23T11:09:09Z</time>
      </trkpt>
      <trkpt lat="9.005263" lon="-79.567118">
        <time>2026-07-23T11:09:18Z</time>
      </trkpt>
      <trkpt lat="9.005212" lon="-79.567012">
        <time>2026-07-23T11:09:27Z</time>
      </trkpt>
      <trkpt lat="9.005163" lon="-79.566927">
        <time>2026-07-23T11:09:34Z</time>
      </trkpt>
      <trkpt lat="9.005160" lon="-79.566890">
        <time>2026-07-23T11:09:37Z</time>
      </trkpt>
      <trkpt lat="9.005129" lon="-79.566801">
        <time>2026-07-23T11:09:44Z</time>
      </trkpt>
      <trkpt lat="9.005077" lon="-79.566670">
        <time>2026-07-23T11:09:55Z</time>
      </trkpt>
      <trkpt lat="9.005073" lon="-79.566645">
        <time>2026-07-23T11:09:57Z</time>
      </trkpt>
      <trkpt lat="9.005045" lon="-79.566547">
        <time>2026-07-23T11:10:05Z</time>
      </trkpt>
      <trkpt lat="9.005013" lon="-79.566440">
        <time>2026-07-23T11:10:13Z</time>
      </trkpt>
      <trkpt lat="9.004997" lon="-79.566411">
        <time>2026-07-23T11:10:15Z</time>
      </trkpt>
      <trkpt lat="9.004967" lon="-79.566355">
        <time>2026-07-23T11:10:19Z</time>
      </trkpt>
      <trkpt lat="9.004929" lon="-79.566260">
        <time>2026-07-23T11:10:27Z</time>
      </trkpt>
      <trkpt lat="9.004923" lon="-79.566249">
        <time>2026-07-23T11:10:28Z</time>
      </trkpt>
      <trkpt lat="9.004842" lon="-79.566118">
        <time>2026-07-23T11:10:39Z</time>
      </trkpt>
      <trkpt lat="9.004821" lon="-79.566088">
        <time>2026-07-23T11:10:42Z</time>
      </trkpt>
      <trkpt lat="9.004807" lon="-79.566067">
        <time>2026-07-23T11:10:44Z</time>
      </trkpt>
      <trkpt lat="9.004786" lon="-79.566030">
        <time>2026-07-23T11:10:47Z</time>
      </trkpt>
      <trkpt lat="9.004742" lon="-79.565974">
        <time>2026-07-23T11:10:52Z</time>
      </trkpt>
      <trkpt lat="9.004695" lon="-79.565967">
        <time>2026-07-23T11:10:55Z</time>
      </trkpt>
      <trkpt lat="9.004585" lon="-79.565979">
        <time>2026-07-23T11:11:03Z</time>
      </trkpt>
      <trkpt lat="9.004499" lon="-79.565994">
        <time>2026-07-23T11:11:09Z</time>
      </trkpt>
      <trkpt lat="9.004478" lon="-79.565998">
        <time>2026-07-23T11:11:11Z</time>
      </trkpt>
      <trkpt lat="9.004383" lon="-79.566006">
        <time>2026-07-23T11:11:19Z</time>
      </trkpt>
      <trkpt lat="9.004279" lon="-79.566023">
        <time>2026-07-23T11:11:27Z</time>
      </trkpt>
      <trkpt lat="9.004190" lon="-79.566023">
        <time>2026-07-23T11:11:34Z</time>
      </trkpt>
      <trkpt lat="9.004074" lon="-79.566024">
        <time>2026-07-23T11:11:43Z</time>
      </trkpt>
      <trkpt lat="9.004022" lon="-79.566026">
        <time>2026-07-23T11:11:47Z</time>
      </trkpt>
      <trkpt lat="9.003953" lon="-79.566028">
        <time>2026-07-23T11:11:52Z</time>
      </trkpt>
      <trkpt lat="9.003882" lon="-79.566035">
        <time>2026-07-23T11:11:58Z</time>
      </trkpt>
      <trkpt lat="9.003869" lon="-79.566037">
        <time>2026-07-23T11:11:59Z</time>
      </trkpt>
      <trkpt lat="9.003802" lon="-79.566026">
        <time>2026-07-23T11:12:04Z</time>
      </trkpt>
      <trkpt lat="9.003751" lon="-79.566024">
        <time>2026-07-23T11:12:08Z</time>
      </trkpt>
      <trkpt lat="9.003713" lon="-79.566019">
        <time>2026-07-23T11:12:11Z</time>
      </trkpt>
      <trkpt lat="9.003664" lon="-79.566010">
        <time>2026-07-23T11:12:15Z</time>
      </trkpt>
      <trkpt lat="9.003629" lon="-79.566012">
        <time>2026-07-23T11:12:18Z</time>
      </trkpt>
      <trkpt lat="9.003603" lon="-79.566016">
        <time>2026-07-23T11:12:20Z</time>
      </trkpt>
      <trkpt lat="9.003586" lon="-79.566010">
        <time>2026-07-23T11:12:21Z</time>
      </trkpt>
      <trkpt lat="9.003539" lon="-79.565998">
        <time>2026-07-23T11:12:25Z</time>
      </trkpt>
      <trkpt lat="9.003486" lon="-79.565987">
        <time>2026-07-23T11:12:29Z</time>
      </trkpt>
      <trkpt lat="9.003442" lon="-79.565966">
        <time>2026-07-23T11:12:33Z</time>
      </trkpt>
      <trkpt lat="9.003409" lon="-79.565959">
        <time>2026-07-23T11:12:36Z</time>
      </trkpt>
      <trkpt lat="9.003352" lon="-79.565949">
        <time>2026-07-23T11:12:40Z</time>
      </trkpt>
      <trkpt lat="9.003307" lon="-79.565937">
        <time>2026-07-23T11:12:44Z</time>
      </trkpt>
      <trkpt lat="9.003192" lon="-79.565917">
        <time>2026-07-23T11:12:53Z</time>
      </trkpt>
      <trkpt lat="9.003152" lon="-79.565900">
        <time>2026-07-23T11:12:57Z</time>
      </trkpt>
      <trkpt lat="9.003084" lon="-79.565882">
        <time>2026-07-23T11:13:03Z</time>
      </trkpt>
      <trkpt lat="9.003006" lon="-79.565841">
        <time>2026-07-23T11:13:11Z</time>
      </trkpt>
      <trkpt lat="9.002963" lon="-79.565820">
        <time>2026-07-23T11:13:15Z</time>
      </trkpt>
      <trkpt lat="9.002927" lon="-79.565810">
        <time>2026-07-23T11:13:19Z</time>
      </trkpt>
      <trkpt lat="9.002914" lon="-79.565813">
        <time>2026-07-23T11:13:24Z</time>
      </trkpt>
      <trkpt lat="9.002913" lon="-79.565814">
        <time>2026-07-23T11:13:26Z</time>
      </trkpt>
      <trkpt lat="9.002913" lon="-79.565814">
        <time>2026-07-23T11:13:30Z</time>
      </trkpt>
      <trkpt lat="9.002913" lon="-79.565814">
        <time>2026-07-23T11:13:32Z</time>
      </trkpt>
      <trkpt lat="9.002913" lon="-79.565814">
        <time>2026-07-23T11:13:35Z</time>
      </trkpt>
      <trkpt lat="9.002913" lon="-79.565814">
        <time>2026-07-23T11:13:42Z</time>
      </trkpt>
      <trkpt lat="9.002913" lon="-79.565814">
        <time>2026-07-23T11:13:45Z</time>
      </trkpt>
      <trkpt lat="9.002913" lon="-79.565814">
        <time>2026-07-23T11:13:58Z</time>
      </trkpt>
      <trkpt lat="9.002913" lon="-79.565814">
        <time>2026-07-23T11:14:01Z</time>
      </trkpt>
      <trkpt lat="9.002913" lon="-79.565809">
        <time>2026-07-23T11:14:05Z</time>
      </trkpt>
    </trkseg>
  </trk>
</gpx>
