<?xml version="1.0" encoding="UTF-8"?>
<gpx version="1.1" creator="FitFilter" xmlns="http://www.topografix.com/GPX/1/1" xmlns:xsi="http://www.w3.org/2001/XMLSchema-instance" xsi:schemaLocation="http://www.topografix.com/GPX/1/1 http://www.topografix.com/GPX/1/1/gpx.xsd">
  <metadata>
    <time>2026-07-28T11:22:16Z</time>
  </metadata>
  <trk>
    <name>Walking - 2026-07-28 11:22</name>
    <type>walking</type>
    <trkseg>
      <trkpt lat="9.005363" lon="-79.569463">
        <time>2026-07-28T11:22:16Z</time>
      </trkpt>
      <trkpt lat="9.005392" lon="-79.569390">
        <time>2026-07-28T11:22:21Z</time>
      </trkpt>
      <trkpt lat="9.005389" lon="-79.569376">
        <time>2026-07-28T11:22:22Z</time>
      </trkpt>
      <trkpt lat="9.005386" lon="-79.569366">
        <time>2026-07-28T11:22:23Z</time>
      </trkpt>
      <trkpt lat="9.005391" lon="-79.569327">
        <time>2026-07-28T11:22:26Z</time>
      </trkpt>
      <trkpt lat="9.005395" lon="-79.569315">
        <time>2026-07-28T11:22:27Z</time>
      </trkpt>
      <trkpt lat="9.005402" lon="-79.569289">
        <time>2026-07-28T11:22:29Z</time>
      </trkpt>
      <trkpt lat="9.005411" lon="-79.569247">
        <time>2026-07-28T11:22:32Z</time>
      </trkpt>
      <trkpt lat="9.005427" lon="-79.569199">
        <time>2026-07-28T11:22:36Z</time>
      </trkpt>
      <trkpt lat="9.005434" lon="-79.569185">
        <time>2026-07-28T11:22:37Z</time>
      </trkpt>
      <trkpt lat="9.005444" lon="-79.569123">
        <time>2026-07-28T11:22:42Z</time>
      </trkpt>
      <trkpt lat="9.005447" lon="-79.569111">
        <time>2026-07-28T11:22:43Z</time>
      </trkpt>
      <trkpt lat="9.005451" lon="-79.569100">
        <time>2026-07-28T11:22:44Z</time>
      </trkpt>
      <trkpt lat="9.005472" lon="-79.569055">
        <time>2026-07-28T11:22:48Z</time>
      </trkpt>
      <trkpt lat="9.005478" lon="-79.569042">
        <time>2026-07-28T11:22:49Z</time>
      </trkpt>
      <trkpt lat="9.005480" lon="-79.569028">
        <time>2026-07-28T11:22:50Z</time>
      </trkpt>
      <trkpt lat="9.005482" lon="-79.569016">
        <time>2026-07-28T11:22:51Z</time>
      </trkpt>
      <trkpt lat="9.005483" lon="-79.568978">
        <time>2026-07-28T11:22:54Z</time>
      </trkpt>
      <trkpt lat="9.005457" lon="-79.568939">
        <time>2026-07-28T11:22:59Z</time>
      </trkpt>
      <trkpt lat="9.005455" lon="-79.568928">
        <time>2026-07-28T11:23:00Z</time>
      </trkpt>
      <trkpt lat="9.005455" lon="-79.568915">
        <time>2026-07-28T11:23:01Z</time>
      </trkpt>
      <trkpt lat="9.005452" lon="-79.568904">
        <time>2026-07-28T11:23:02Z</time>
      </trkpt>
      <trkpt lat="9.005449" lon="-79.568873">
        <time>2026-07-28T11:23:05Z</time>
      </trkpt>
      <trkpt lat="9.005448" lon="-79.568847">
        <time>2026-07-28T11:23:07Z</time>
      </trkpt>
      <trkpt lat="9.005447" lon="-79.568826">
        <time>2026-07-28T11:23:09Z</time>
      </trkpt>
      <trkpt lat="9.005453" lon="-79.568790">
        <time>2026-07-28T11:23:13Z</time>
      </trkpt>
      <trkpt lat="9.005457" lon="-79.568753">
        <time>2026-07-28T11:23:16Z</time>
      </trkpt>
      <trkpt lat="9.005472" lon="-79.568710">
        <time>2026-07-28T11:23:20Z</time>
      </trkpt>
      <trkpt lat="9.005534" lon="-79.568663">
        <time>2026-07-28T11:23:28Z</time>
      </trkpt>
      <trkpt lat="9.005579" lon="-79.568645">
        <time>2026-07-28T11:23:32Z</time>
      </trkpt>
      <trkpt lat="9.005583" lon="-79.568636">
        <time>2026-07-28T11:23:33Z</time>
      </trkpt>
      <trkpt lat="9.005588" lon="-79.568578">
        <time>2026-07-28T11:23:39Z</time>
      </trkpt>
      <trkpt lat="9.005594" lon="-79.568519">
        <time>2026-07-28T11:23:45Z</time>
      </trkpt>
      <trkpt lat="9.005607" lon="-79.568431">
        <time>2026-07-28T11:23:52Z</time>
      </trkpt>
      <trkpt lat="9.005628" lon="-79.568398">
        <time>2026-07-28T11:23:55Z</time>
      </trkpt>
      <trkpt lat="9.005676" lon="-79.568324">
        <time>2026-07-28T11:24:01Z</time>
      </trkpt>
      <trkpt lat="9.005697" lon="-79.568283">
        <time>2026-07-28T11:24:05Z</time>
      </trkpt>
      <trkpt lat="9.005716" lon="-79.568256">
        <time>2026-07-28T11:24:08Z</time>
      </trkpt>
      <trkpt lat="9.005730" lon="-79.568233">
        <time>2026-07-28T11:24:10Z</time>
      </trkpt>
      <trkpt lat="9.005767" lon="-79.568173">
        <time>2026-07-28T11:24:16Z</time>
      </trkpt>
      <trkpt lat="9.005783" lon="-79.568137">
        <time>2026-07-28T11:24:19Z</time>
      </trkpt>
      <trkpt lat="9.005798" lon="-79.568094">
        <time>2026-07-28T11:24:23Z</time>
      </trkpt>
      <trkpt lat="9.005805" lon="-79.568067">
        <time>2026-07-28T11:24:25Z</time>
      </trkpt>
      <trkpt lat="9.005809" lon="-79.568011">
        <time>2026-07-28T11:24:30Z</time>
      </trkpt>
      <trkpt lat="9.005785" lon="-79.567944">
        <time>2026-07-28T11:24:36Z</time>
      </trkpt>
      <trkpt lat="9.005778" lon="-79.567935">
        <time>2026-07-28T11:24:37Z</time>
      </trkpt>
      <trkpt lat="9.005725" lon="-79.567866">
        <time>2026-07-28T11:24:44Z</time>
      </trkpt>
      <trkpt lat="9.005708" lon="-79.567838">
        <time>2026-07-28T11:24:46Z</time>
      </trkpt>
      <trkpt lat="9.005678" lon="-79.567806">
        <time>2026-07-28T11:24:50Z</time>
      </trkpt>
      <trkpt lat="9.005626" lon="-79.567744">
        <time>2026-07-28T11:24:56Z</time>
      </trkpt>
      <trkpt lat="9.005576" lon="-79.567671">
        <time>2026-07-28T11:25:03Z</time>
      </trkpt>
      <trkpt lat="9.005531" lon="-79.567621">
        <time>2026-07-28T11:25:09Z</time>
      </trkpt>
      <trkpt lat="9.005522" lon="-79.567608">
        <time>2026-07-28T11:25:10Z</time>
      </trkpt>
      <trkpt lat="9.005484" lon="-79.567560">
        <time>2026-07-28T11:25:15Z</time>
      </trkpt>
      <trkpt lat="9.005478" lon="-79.567551">
        <time>2026-07-28T11:25:16Z</time>
      </trkpt>
      <trkpt lat="9.005433" lon="-79.567475">
        <time>2026-07-28T11:25:22Z</time>
      </trkpt>
      <trkpt lat="9.005399" lon="-79.567418">
        <time>2026-07-28T11:25:28Z</time>
      </trkpt>
      <trkpt lat="9.005361" lon="-79.567353">
        <time>2026-07-28T11:25:35Z</time>
      </trkpt>
      <trkpt lat="9.005320" lon="-79.567251">
        <time>2026-07-28T11:25:43Z</time>
      </trkpt>
      <trkpt lat="9.005274" lon="-79.567157">
        <time>2026-07-28T11:25:51Z</time>
      </trkpt>
      <trkpt lat="9.005263" lon="-79.567137">
        <time>2026-07-28T11:25:53Z</time>
      </trkpt>
      <trkpt lat="9.005258" lon="-79.567126">
        <time>2026-07-28T11:25:54Z</time>
      </trkpt>
      <trkpt lat="9.005251" lon="-79.567102">
        <time>2026-07-28T11:25:56Z</time>
      </trkpt>
      <trkpt lat="9.005236" lon="-79.567063">
        <time>2026-07-28T11:25:59Z</time>
      </trkpt>
      <trkpt lat="9.005196" lon="-79.566999">
        <time>2026-07-28T11:26:05Z</time>
      </trkpt>
      <trkpt lat="9.005190" lon="-79.566989">
        <time>2026-07-28T11:26:06Z</time>
      </trkpt>
      <trkpt lat="9.005167" lon="-79.566922">
        <time>2026-07-28T11:26:12Z</time>
      </trkpt>
      <trkpt lat="9.005166" lon="-79.566897">
        <time>2026-07-28T11:26:14Z</time>
      </trkpt>
      <trkpt lat="9.005161" lon="-79.566856">
        <time>2026-07-28T11:26:17Z</time>
      </trkpt>
      <trkpt lat="9.005153" lon="-79.566828">
        <time>2026-07-28T11:26:19Z</time>
      </trkpt>
      <trkpt lat="9.005141" lon="-79.566810">
        <time>2026-07-28T11:26:21Z</time>
      </trkpt>
      <trkpt lat="9.005127" lon="-79.566776">
        <time>2026-07-28T11:26:24Z</time>
      </trkpt>
      <trkpt lat="9.005113" lon="-79.566736">
        <time>2026-07-28T11:26:27Z</time>
      </trkpt>
      <trkpt lat="9.005084" lon="-79.566654">
        <time>2026-07-28T11:26:34Z</time>
      </trkpt>
      <trkpt lat="9.005078" lon="-79.566626">
        <time>2026-07-28T11:26:36Z</time>
      </trkpt>
      <trkpt lat="9.005062" lon="-79.566584">
        <time>2026-07-28T11:26:40Z</time>
      </trkpt>
      <trkpt lat="9.005016" lon="-79.566474">
        <time>2026-07-28T11:26:48Z</time>
      </trkpt>
      <trkpt lat="9.004977" lon="-79.566378">
        <time>2026-07-28T11:26:56Z</time>
      </trkpt>
      <trkpt lat="9.004934" lon="-79.566294">
        <time>2026-07-28T11:27:03Z</time>
      </trkpt>
      <trkpt lat="9.004929" lon="-79.566285">
        <time>2026-07-28T11:27:04Z</time>
      </trkpt>
      <trkpt lat="9.004875" lon="-79.566193">
        <time>2026-07-28T11:27:12Z</time>
      </trkpt>
      <trkpt lat="9.004838" lon="-79.566131">
        <time>2026-07-28T11:27:18Z</time>
      </trkpt>
      <trkpt lat="9.004789" lon="-79.566048">
        <time>2026-07-28T11:27:25Z</time>
      </trkpt>
      <trkpt lat="9.004709" lon="-79.565979">
        <time>2026-07-28T11:27:33Z</time>
      </trkpt>
      <trkpt lat="9.004616" lon="-79.565979">
        <time>2026-07-28T11:27:40Z</time>
      </trkpt>
      <trkpt lat="9.004592" lon="-79.565987">
        <time>2026-07-28T11:27:42Z</time>
      </trkpt>
      <trkpt lat="9.004548" lon="-79.565997">
        <time>2026-07-28T11:27:45Z</time>
      </trkpt>
      <trkpt lat="9.004536" lon="-79.565998">
        <time>2026-07-28T11:27:46Z</time>
      </trkpt>
      <trkpt lat="9.004503" lon="-79.566000">
        <time>2026-07-28T11:27:49Z</time>
      </trkpt>
      <trkpt lat="9.004466" lon="-79.566004">
        <time>2026-07-28T11:27:52Z</time>
      </trkpt>
      <trkpt lat="9.004430" lon="-79.566005">
        <time>2026-07-28T11:27:55Z</time>
      </trkpt>
      <trkpt lat="9.004419" lon="-79.566007">
        <time>2026-07-28T11:27:56Z</time>
      </trkpt>
      <trkpt lat="9.004370" lon="-79.566005">
        <time>2026-07-28T11:28:00Z</time>
      </trkpt>
      <trkpt lat="9.004339" lon="-79.566007">
        <time>2026-07-28T11:28:03Z</time>
      </trkpt>
      <trkpt lat="9.004328" lon="-79.566010">
        <time>2026-07-28T11:28:04Z</time>
      </trkpt>
      <trkpt lat="9.004272" lon="-79.566016">
        <time>2026-07-28T11:28:08Z</time>
      </trkpt>
      <trkpt lat="9.004261" lon="-79.566017">
        <time>2026-07-28T11:28:09Z</time>
      </trkpt>
      <trkpt lat="9.004237" lon="-79.566021">
        <time>2026-07-28T11:28:11Z</time>
      </trkpt>
      <trkpt lat="9.004159" lon="-79.566019">
        <time>2026-07-28T11:28:18Z</time>
      </trkpt>
      <trkpt lat="9.004148" lon="-79.566018">
        <time>2026-07-28T11:28:19Z</time>
      </trkpt>
      <trkpt lat="9.004089" lon="-79.566023">
        <time>2026-07-28T11:28:23Z</time>
      </trkpt>
      <trkpt lat="9.004077" lon="-79.566023">
        <time>2026-07-28T11:28:24Z</time>
      </trkpt>
      <trkpt lat="9.004055" lon="-79.566022">
        <time>2026-07-28T11:28:26Z</time>
      </trkpt>
      <trkpt lat="9.004035" lon="-79.566024">
        <time>2026-07-28T11:28:28Z</time>
      </trkpt>
      <trkpt lat="9.004009" lon="-79.566021">
        <time>2026-07-28T11:28:30Z</time>
      </trkpt>
      <trkpt lat="9.003983" lon="-79.566015">
        <time>2026-07-28T11:28:33Z</time>
      </trkpt>
      <trkpt lat="9.003961" lon="-79.566015">
        <time>2026-07-28T11:28:35Z</time>
      </trkpt>
      <trkpt lat="9.003903" lon="-79.566012">
        <time>2026-07-28T11:28:40Z</time>
      </trkpt>
      <trkpt lat="9.003891" lon="-79.566012">
        <time>2026-07-28T11:28:41Z</time>
      </trkpt>
      <trkpt lat="9.003828" lon="-79.566003">
        <time>2026-07-28T11:28:46Z</time>
      </trkpt>
      <trkpt lat="9.003808" lon="-79.566006">
        <time>2026-07-28T11:28:48Z</time>
      </trkpt>
      <trkpt lat="9.003799" lon="-79.566004">
        <time>2026-07-28T11:28:49Z</time>
      </trkpt>
      <trkpt lat="9.003752" lon="-79.566005">
        <time>2026-07-28T11:28:53Z</time>
      </trkpt>
      <trkpt lat="9.003719" lon="-79.566010">
        <time>2026-07-28T11:28:56Z</time>
      </trkpt>
      <trkpt lat="9.003695" lon="-79.566006">
        <time>2026-07-28T11:28:58Z</time>
      </trkpt>
      <trkpt lat="9.003637" lon="-79.565996">
        <time>2026-07-28T11:29:03Z</time>
      </trkpt>
      <trkpt lat="9.003626" lon="-79.565995">
        <time>2026-07-28T11:29:04Z</time>
      </trkpt>
      <trkpt lat="9.003599" lon="-79.565994">
        <time>2026-07-28T11:29:06Z</time>
      </trkpt>
      <trkpt lat="9.003572" lon="-79.565991">
        <time>2026-07-28T11:29:08Z</time>
      </trkpt>
      <trkpt lat="9.003545" lon="-79.565987">
        <time>2026-07-28T11:29:10Z</time>
      </trkpt>
      <trkpt lat="9.003534" lon="-79.565984">
        <time>2026-07-28T11:29:11Z</time>
      </trkpt>
      <trkpt lat="9.003508" lon="-79.565981">
        <time>2026-07-28T11:29:13Z</time>
      </trkpt>
      <trkpt lat="9.003494" lon="-79.565977">
        <time>2026-07-28T11:29:14Z</time>
      </trkpt>
      <trkpt lat="9.003479" lon="-79.565972">
        <time>2026-07-28T11:29:15Z</time>
      </trkpt>
      <trkpt lat="9.003466" lon="-79.565970">
        <time>2026-07-28T11:29:16Z</time>
      </trkpt>
      <trkpt lat="9.003446" lon="-79.565967">
        <time>2026-07-28T11:29:18Z</time>
      </trkpt>
      <trkpt lat="9.003343" lon="-79.565940">
        <time>2026-07-28T11:29:27Z</time>
      </trkpt>
      <trkpt lat="9.003259" lon="-79.565924">
        <time>2026-07-28T11:29:34Z</time>
      </trkpt>
      <trkpt lat="9.003237" lon="-79.565917">
        <time>2026-07-28T11:29:36Z</time>
      </trkpt>
      <trkpt lat="9.003183" lon="-79.565901">
        <time>2026-07-28T11:29:41Z</time>
      </trkpt>
      <trkpt lat="9.003149" lon="-79.565894">
        <time>2026-07-28T11:29:44Z</time>
      </trkpt>
      <trkpt lat="9.003071" lon="-79.565872">
        <time>2026-07-28T11:29:51Z</time>
      </trkpt>
      <trkpt lat="9.002987" lon="-79.565838">
        <time>2026-07-28T11:29:59Z</time>
      </trkpt>
      <trkpt lat="9.002950" lon="-79.565818">
        <time>2026-07-28T11:30:03Z</time>
      </trkpt>
      <trkpt lat="9.002911" lon="-79.565809">
        <time>2026-07-28T11:30:07Z</time>
      </trkpt>
      <trkpt lat="9.002908" lon="-79.565809">
        <time>2026-07-28T11:30:11Z</time>
      </trkpt>
      <trkpt lat="9.002909" lon="-79.565806">
        <time>2026-07-28T11:30:13Z</time>
      </trkpt>
      <trkpt lat="9.002908" lon="-79.565809">
        <time>2026-07-28T11:30:14Z</time>
      </trkpt>
      <trkpt lat="9.002908" lon="-79.565809">
        <time>2026-07-28T11:30:17Z</time>
      </trkpt>
      <trkpt lat="9.002908" lon="-79.565809">
        <time>2026-07-28T11:30:21Z</time>
      </trkpt>
      <trkpt lat="9.002908" lon="-79.565808">
        <time>2026-07-28T11:30:24Z</time>
      </trkpt>
      <trkpt lat="9.002908" lon="-79.565809">
        <time>2026-07-28T11:30:27Z</time>
      </trkpt>
      <trkpt lat="9.002908" lon="-79.565809">
        <time>2026-07-28T11:30:32Z</time>
      </trkpt>
      <trkpt lat="9.002908" lon="-79.565809">
        <time>2026-07-28T11:30:36Z</time>
      </trkpt>
      <trkpt lat="9.002908" lon="-79.565809">
        <time>2026-07-28T11:30:38Z</time>
      </trkpt>
      <trkpt lat="9.002908" lon="-79.565809">
        <time>2026-07-28T11:30:47Z</time>
      </trkpt>
      <trkpt lat="9.002908" lon="-79.565809">
        <time>2026-07-28T11:30:52Z</time>
      </trkpt>
      <trkpt lat="9.002908" lon="-79.565809">
        <time>2026-07-28T11:30:55Z</time>
      </trkpt>
      <trkpt lat="9.002908" lon="-79.565809">
        <time>2026-07-28T11:31:00Z</time>
      </trkpt>
      <trkpt lat="9.002908" lon="-79.565809">
        <time>2026-07-28T11:31:01Z</time>
      </trkpt>
      <trkpt lat="9.002908" lon="-79.565809">
        <time>2026-07-28T11:31:02Z</time>
      </trkpt>
      <trkpt lat="9.002908" lon="-79.565809">
        <time>2026-07-28T11:31:05Z</time>
      </trkpt>
      <trkpt lat="9.002908" lon="-79.565809">
        <time>2026-07-28T11:31:11Z</time>
      </trkpt>
      <trkpt lat="9.002908" lon="-79.565809">
        <time>2026-07-28T11:31:15Z</time>
      </trkpt>
      <trkpt lat="9.002908" lon="-79.565809">
        <time>2026-07-28T11:31:18Z</time>
      </trkpt>
      <trkpt lat="9.002908" lon="-79.565809">
        <time>2026-07-28T11:31:22Z</time>
      </trkpt>
      <trkpt lat="9.002908" lon="-79.565809">
        <time>2026-07-28T11:31:24Z</time>
      </trkpt>
      <trkpt lat="9.002908" lon="-79.565809">
        <time>2026-07-28T11:31:26Z</time>
      </trkpt>
      <trkpt lat="9.002908" lon="-79.565809">
        <time>2026-07-28T11:31:28Z</time>
      </trkpt>
      <trkpt lat="9.002908" lon="-79.565809">
        <time>2026-07-28T11:31:29Z</time>
      </trkpt>
      <trkpt lat="9.002908" lon="-79.565809">
        <time>2026-07-28T11:31:37Z</time>
      </trkpt>
      <trkpt lat="9.002908" lon="-79.565809">
        <time>2026-07-28T11:31:39Z</time>
      </trkpt>
      <trkpt lat="9.002908" lon="-79.565809">
        <time>2026-07-28T11:31:44Z</time>
      </trkpt>
      <trkpt lat="9.002908" lon="-79.565809">
        <time>2026-07-28T11:31:50Z</time>
      </trkpt>
      <trkpt lat="9.002908" lon="-79.565809">
        <time>2026-07-28T11:31:52Z</time>
      </trkpt>
      <trkpt lat="9.002908" lon="-79.565809">
        <time>2026-07-28T11:31:56Z</time>
      </trkpt>
      <trkpt lat="9.002908" lon="-79.565809">
        <time>2026-07-28T11:31:57Z</time>
      </trkpt>
      <trkpt lat="9.002908" lon="-79.565809">
        <time>2026-07-28T11:32:08Z</time>
      </trkpt>
      <trkpt lat="9.002908" lon="-79.565809">
        <time>2026-07-28T11:32:10Z</time>
      </trkpt>
      <trkpt lat="9.002893" lon="-79.565803">
        <time>2026-07-28T11:32:15Z</time>
      </trkpt>
      <trkpt lat="9.002831" lon="-79.565812">
        <time>2026-07-28T11:32:22Z</time>
      </trkpt>
      <trkpt lat="9.002816" lon="-79.565812">
        <time>2026-07-28T11:32:24Z</time>
      </trkpt>
      <trkpt lat="9.002794" lon="-79.565806">
        <time>2026-07-28T11:32:26Z</time>
      </trkpt>
      <trkpt lat="9.002781" lon="-79.565800">
        <time>2026-07-28T11:32:27Z</time>
      </trkpt>
      <trkpt lat="9.002764" lon="-79.565798">
        <time>2026-07-28T11:32:29Z</time>
      </trkpt>
      <trkpt lat="9.002708" lon="-79.565781">
        <time>2026-07-28T11:32:35Z</time>
      </trkpt>
      <trkpt lat="9.002627" lon="-79.565754">
        <time>2026-07-28T11:32:42Z</time>
      </trkpt>
      <trkpt lat="9.002605" lon="-79.565751">
        <time>2026-07-28T11:32:44Z</time>
      </trkpt>
      <trkpt lat="9.002553" lon="-79.565737">
        <time>2026-07-28T11:32:50Z</time>
      </trkpt>
      <trkpt lat="9.002522" lon="-79.565731">
        <time>2026-07-28T11:32:53Z</time>
      </trkpt>
      <trkpt lat="9.002501" lon="-79.565726">
        <time>2026-07-28T11:32:55Z</time>
      </trkpt>
      <trkpt lat="9.002461" lon="-79.565723">
        <time>2026-07-28T11:32:59Z</time>
      </trkpt>
      <trkpt lat="9.002449" lon="-79.565722">
        <time>2026-07-28T11:33:00Z</time>
      </trkpt>
      <trkpt lat="9.002425" lon="-79.565719">
        <time>2026-07-28T11:33:02Z</time>
      </trkpt>
      <trkpt lat="9.002414" lon="-79.565714">
        <time>2026-07-28T11:33:03Z</time>
      </trkpt>
      <trkpt lat="9.002337" lon="-79.565693">
        <time>2026-07-28T11:33:09Z</time>
      </trkpt>
      <trkpt lat="9.002265" lon="-79.565681">
        <time>2026-07-28T11:33:15Z</time>
      </trkpt>
      <trkpt lat="9.002186" lon="-79.565683">
        <time>2026-07-28T11:33:22Z</time>
      </trkpt>
      <trkpt lat="9.002123" lon="-79.565681">
        <time>2026-07-28T11:33:28Z</time>
      </trkpt>
      <trkpt lat="9.002117" lon="-79.565680">
        <time>2026-07-28T11:33:29Z</time>
      </trkpt>
      <trkpt lat="9.002084" lon="-79.565678">
        <time>2026-07-28T11:33:32Z</time>
      </trkpt>
      <trkpt lat="9.002074" lon="-79.565679">
        <time>2026-07-28T11:33:33Z</time>
      </trkpt>
      <trkpt lat="9.002002" lon="-79.565682">
        <time>2026-07-28T11:33:40Z</time>
      </trkpt>
      <trkpt lat="9.001923" lon="-79.565684">
        <time>2026-07-28T11:33:47Z</time>
      </trkpt>
      <trkpt lat="9.001902" lon="-79.565686">
        <time>2026-07-28T11:33:49Z</time>
      </trkpt>
      <trkpt lat="9.001848" lon="-79.565696">
        <time>2026-07-28T11:33:54Z</time>
      </trkpt>
      <trkpt lat="9.001765" lon="-79.565711">
        <time>2026-07-28T11:34:01Z</time>
      </trkpt>
      <trkpt lat="9.001710" lon="-79.565731">
        <time>2026-07-28T11:34:06Z</time>
      </trkpt>
      <trkpt lat="9.001627" lon="-79.565745">
        <time>2026-07-28T11:34:13Z</time>
      </trkpt>
      <trkpt lat="9.001549" lon="-79.565751">
        <time>2026-07-28T11:34:20Z</time>
      </trkpt>
      <trkpt lat="9.001490" lon="-79.565761">
        <time>2026-07-28T11:34:26Z</time>
      </trkpt>
      <trkpt lat="9.001412" lon="-79.565773">
        <time>2026-07-28T11:34:32Z</time>
      </trkpt>
      <trkpt lat="9.001395" lon="-79.565774">
        <time>2026-07-28T11:34:34Z</time>
      </trkpt>
      <trkpt lat="9.001314" lon="-79.565775">
        <time>2026-07-28T11:34:41Z</time>
      </trkpt>
      <trkpt lat="9.001245" lon="-79.565786">
        <time>2026-07-28T11:34:47Z</time>
      </trkpt>
      <trkpt lat="9.001231" lon="-79.565789">
        <time>2026-07-28T11:34:48Z</time>
      </trkpt>
      <trkpt lat="9.001172" lon="-79.565810">
        <time>2026-07-28T11:34:54Z</time>
      </trkpt>
      <trkpt lat="9.001167" lon="-79.565816">
        <time>2026-07-28T11:34:55Z</time>
      </trkpt>
      <trkpt lat="9.001131" lon="-79.565847">
        <time>2026-07-28T11:35:02Z</time>
      </trkpt>
      <trkpt lat="9.001131" lon="-79.565821">
        <time>2026-07-28T11:35:07Z</time>
      </trkpt>
      <trkpt lat="9.001118" lon="-79.565809">
        <time>2026-07-28T11:35:10Z</time>
      </trkpt>
      <trkpt lat="9.001074" lon="-79.565801">
        <time>2026-07-28T11:35:16Z</time>
      </trkpt>
      <trkpt lat="9.001072" lon="-79.565808">
        <time>2026-07-28T11:35:18Z</time>
      </trkpt>
      <trkpt lat="9.001077" lon="-79.565813">
        <time>2026-07-28T11:35:22Z</time>
      </trkpt>
      <trkpt lat="9.001085" lon="-79.565819">
        <time>2026-07-28T11:35:23Z</time>
      </trkpt>
      <trkpt lat="9.001091" lon="-79.565827">
        <time>2026-07-28T11:35:24Z</time>
      </trkpt>
      <trkpt lat="9.001109" lon="-79.565848">
        <time>2026-07-28T11:35:27Z</time>
      </trkpt>
      <trkpt lat="9.001147" lon="-79.565885">
        <time>2026-07-28T11:35:32Z</time>
      </trkpt>
      <trkpt lat="9.001152" lon="-79.565890">
        <time>2026-07-28T11:35:33Z</time>
      </trkpt>
      <trkpt lat="9.001157" lon="-79.565901">
        <time>2026-07-28T11:35:35Z</time>
      </trkpt>
      <trkpt lat="9.001160" lon="-79.565903">
        <time>2026-07-28T11:35:36Z</time>
      </trkpt>
      <trkpt lat="9.001160" lon="-79.565903">
        <time>2026-07-28T11:35:40Z</time>
      </trkpt>
      <trkpt lat="9.001160" lon="-79.565903">
        <time>2026-07-28T11:35:45Z</time>
      </trkpt>
      <trkpt lat="9.001160" lon="-79.565903">
        <time>2026-07-28T11:35:48Z</time>
      </trkpt>
      <trkpt lat="9.001160" lon="-79.565903">
        <time>2026-07-28T11:35:49Z</time>
      </trkpt>
      <trkpt lat="9.001160" lon="-79.565903">
        <time>2026-07-28T11:35:55Z</time>
      </trkpt>
      <trkpt lat="9.001160" lon="-79.565903">
        <time>2026-07-28T11:35:58Z</time>
      </trkpt>
      <trkpt lat="9.001160" lon="-79.565903">
        <time>2026-07-28T11:36:08Z</time>
      </trkpt>
      <trkpt lat="9.001160" lon="-79.565903">
        <time>2026-07-28T11:36:12Z</time>
      </trkpt>
      <trkpt lat="9.001160" lon="-79.565903">
        <time>2026-07-28T11:36:16Z</time>
      </trkpt>
      <trkpt lat="9.001160" lon="-79.565903">
        <time>2026-07-28T11:36:21Z</time>
      </trkpt>
      <trkpt lat="9.001160" lon="-79.565903">
        <time>2026-07-28T11:36:22Z</time>
      </trkpt>
    </trkseg>
  </trk>
</gpx>
