<?xml version="1.0" encoding="UTF-8"?>
<gpx version="1.1" creator="FitFilter" xmlns="http://www.topografix.com/GPX/1/1" xmlns:xsi="http://www.w3.org/2001/XMLSchema-instance" xsi:schemaLocation="http://www.topografix.com/GPX/1/1 http://www.topografix.com/GPX/1/1/gpx.xsd">
  <metadata>
    <time>2026-07-30T11:13:12Z</time>
  </metadata>
  <trk>
    <name>Walking - 2026-07-30 11:13</name>
    <type>walking</type>
    <trkseg>
      <trkpt lat="9.003239" lon="-79.573706">
        <time>2026-07-30T11:13:12Z</time>
      </trkpt>
      <trkpt lat="9.003235" lon="-79.573698">
        <time>2026-07-30T11:13:13Z</time>
      </trkpt>
      <trkpt lat="9.003266" lon="-79.573651">
        <time>2026-07-30T11:13:16Z</time>
      </trkpt>
      <trkpt lat="9.003273" lon="-79.573645">
        <time>2026-07-30T11:13:18Z</time>
      </trkpt>
      <trkpt lat="9.003283" lon="-79.573639">
        <time>2026-07-30T11:13:19Z</time>
      </trkpt>
      <trkpt lat="9.003318" lon="-79.573613">
        <time>2026-07-30T11:13:22Z</time>
      </trkpt>
      <trkpt lat="9.003357" lon="-79.573578">
        <time>2026-07-30T11:13:26Z</time>
      </trkpt>
      <trkpt lat="9.003409" lon="-79.573533">
        <time>2026-07-30T11:13:31Z</time>
      </trkpt>
      <trkpt lat="9.003444" lon="-79.573517">
        <time>2026-07-30T11:13:34Z</time>
      </trkpt>
      <trkpt lat="9.003501" lon="-79.573479">
        <time>2026-07-30T11:13:40Z</time>
      </trkpt>
      <trkpt lat="9.003537" lon="-79.573455">
        <time>2026-07-30T11:13:43Z</time>
      </trkpt>
      <trkpt lat="9.003562" lon="-79.573429">
        <time>2026-07-30T11:13:46Z</time>
      </trkpt>
      <trkpt lat="9.003586" lon="-79.573414">
        <time>2026-07-30T11:13:48Z</time>
      </trkpt>
      <trkpt lat="9.003654" lon="-79.573376">
        <time>2026-07-30T11:13:55Z</time>
      </trkpt>
      <trkpt lat="9.003679" lon="-79.573357">
        <time>2026-07-30T11:13:58Z</time>
      </trkpt>
      <trkpt lat="9.003722" lon="-79.573327">
        <time>2026-07-30T11:14:02Z</time>
      </trkpt>
      <trkpt lat="9.003785" lon="-79.573279">
        <time>2026-07-30T11:14:09Z</time>
      </trkpt>
      <trkpt lat="9.003812" lon="-79.573257">
        <time>2026-07-30T11:14:12Z</time>
      </trkpt>
      <trkpt lat="9.003865" lon="-79.573211">
        <time>2026-07-30T11:14:17Z</time>
      </trkpt>
      <trkpt lat="9.003893" lon="-79.573184">
        <time>2026-07-30T11:14:20Z</time>
      </trkpt>
      <trkpt lat="9.003915" lon="-79.573160">
        <time>2026-07-30T11:14:23Z</time>
      </trkpt>
      <trkpt lat="9.003923" lon="-79.573149">
        <time>2026-07-30T11:14:24Z</time>
      </trkpt>
      <trkpt lat="9.003954" lon="-79.573125">
        <time>2026-07-30T11:14:27Z</time>
      </trkpt>
      <trkpt lat="9.004010" lon="-79.573089">
        <time>2026-07-30T11:14:32Z</time>
      </trkpt>
      <trkpt lat="9.004022" lon="-79.573085">
        <time>2026-07-30T11:14:33Z</time>
      </trkpt>
      <trkpt lat="9.004075" lon="-79.573035">
        <time>2026-07-30T11:14:39Z</time>
      </trkpt>
      <trkpt lat="9.004139" lon="-79.572981">
        <time>2026-07-30T11:14:46Z</time>
      </trkpt>
      <trkpt lat="9.004206" lon="-79.572918">
        <time>2026-07-30T11:14:53Z</time>
      </trkpt>
      <trkpt lat="9.004242" lon="-79.572888">
        <time>2026-07-30T11:14:57Z</time>
      </trkpt>
      <trkpt lat="9.004275" lon="-79.572849">
        <time>2026-07-30T11:15:01Z</time>
      </trkpt>
      <trkpt lat="9.004302" lon="-79.572813">
        <time>2026-07-30T11:15:04Z</time>
      </trkpt>
      <trkpt lat="9.004342" lon="-79.572778">
        <time>2026-07-30T11:15:08Z</time>
      </trkpt>
      <trkpt lat="9.004375" lon="-79.572740">
        <time>2026-07-30T11:15:12Z</time>
      </trkpt>
      <trkpt lat="9.004433" lon="-79.572667">
        <time>2026-07-30T11:15:19Z</time>
      </trkpt>
      <trkpt lat="9.004501" lon="-79.572577">
        <time>2026-07-30T11:15:27Z</time>
      </trkpt>
      <trkpt lat="9.004521" lon="-79.572542">
        <time>2026-07-30T11:15:31Z</time>
      </trkpt>
      <trkpt lat="9.004526" lon="-79.572532">
        <time>2026-07-30T11:15:32Z</time>
      </trkpt>
      <trkpt lat="9.004543" lon="-79.572513">
        <time>2026-07-30T11:15:34Z</time>
      </trkpt>
      <trkpt lat="9.004589" lon="-79.572460">
        <time>2026-07-30T11:15:39Z</time>
      </trkpt>
      <trkpt lat="9.004625" lon="-79.572381">
        <time>2026-07-30T11:15:45Z</time>
      </trkpt>
      <trkpt lat="9.004668" lon="-79.572281">
        <time>2026-07-30T11:15:52Z</time>
      </trkpt>
      <trkpt lat="9.004678" lon="-79.572262">
        <time>2026-07-30T11:15:54Z</time>
      </trkpt>
      <trkpt lat="9.004706" lon="-79.572206">
        <time>2026-07-30T11:15:59Z</time>
      </trkpt>
      <trkpt lat="9.004740" lon="-79.572127">
        <time>2026-07-30T11:16:05Z</time>
      </trkpt>
      <trkpt lat="9.004759" lon="-79.572064">
        <time>2026-07-30T11:16:10Z</time>
      </trkpt>
      <trkpt lat="9.004765" lon="-79.572051">
        <time>2026-07-30T11:16:11Z</time>
      </trkpt>
      <trkpt lat="9.004779" lon="-79.572025">
        <time>2026-07-30T11:16:13Z</time>
      </trkpt>
      <trkpt lat="9.004790" lon="-79.571997">
        <time>2026-07-30T11:16:15Z</time>
      </trkpt>
      <trkpt lat="9.004808" lon="-79.571937">
        <time>2026-07-30T11:16:19Z</time>
      </trkpt>
      <trkpt lat="9.004825" lon="-79.571884">
        <time>2026-07-30T11:16:23Z</time>
      </trkpt>
      <trkpt lat="9.004831" lon="-79.571843">
        <time>2026-07-30T11:16:26Z</time>
      </trkpt>
      <trkpt lat="9.004834" lon="-79.571788">
        <time>2026-07-30T11:16:30Z</time>
      </trkpt>
      <trkpt lat="9.004842" lon="-79.571753">
        <time>2026-07-30T11:16:33Z</time>
      </trkpt>
      <trkpt lat="9.004849" lon="-79.571690">
        <time>2026-07-30T11:16:37Z</time>
      </trkpt>
      <trkpt lat="9.004851" lon="-79.571675">
        <time>2026-07-30T11:16:38Z</time>
      </trkpt>
      <trkpt lat="9.004861" lon="-79.571643">
        <time>2026-07-30T11:16:40Z</time>
      </trkpt>
      <trkpt lat="9.004877" lon="-79.571578">
        <time>2026-07-30T11:16:45Z</time>
      </trkpt>
      <trkpt lat="9.004887" lon="-79.571484">
        <time>2026-07-30T11:16:51Z</time>
      </trkpt>
      <trkpt lat="9.004896" lon="-79.571416">
        <time>2026-07-30T11:16:57Z</time>
      </trkpt>
      <trkpt lat="9.004894" lon="-79.571406">
        <time>2026-07-30T11:16:58Z</time>
      </trkpt>
      <trkpt lat="9.004896" lon="-79.571374">
        <time>2026-07-30T11:17:00Z</time>
      </trkpt>
      <trkpt lat="9.004887" lon="-79.571331">
        <time>2026-07-30T11:17:04Z</time>
      </trkpt>
      <trkpt lat="9.004891" lon="-79.571248">
        <time>2026-07-30T11:17:11Z</time>
      </trkpt>
      <trkpt lat="9.004890" lon="-79.571212">
        <time>2026-07-30T11:17:14Z</time>
      </trkpt>
      <trkpt lat="9.004899" lon="-79.571161">
        <time>2026-07-30T11:17:18Z</time>
      </trkpt>
      <trkpt lat="9.004900" lon="-79.571137">
        <time>2026-07-30T11:17:20Z</time>
      </trkpt>
      <trkpt lat="9.004904" lon="-79.571101">
        <time>2026-07-30T11:17:23Z</time>
      </trkpt>
      <trkpt lat="9.004906" lon="-79.571059">
        <time>2026-07-30T11:17:26Z</time>
      </trkpt>
      <trkpt lat="9.004906" lon="-79.571036">
        <time>2026-07-30T11:17:28Z</time>
      </trkpt>
      <trkpt lat="9.004906" lon="-79.571023">
        <time>2026-07-30T11:17:29Z</time>
      </trkpt>
      <trkpt lat="9.004907" lon="-79.570994">
        <time>2026-07-30T11:17:31Z</time>
      </trkpt>
      <trkpt lat="9.004903" lon="-79.570968">
        <time>2026-07-30T11:17:33Z</time>
      </trkpt>
      <trkpt lat="9.004895" lon="-79.570945">
        <time>2026-07-30T11:17:35Z</time>
      </trkpt>
      <trkpt lat="9.004898" lon="-79.570855">
        <time>2026-07-30T11:17:42Z</time>
      </trkpt>
      <trkpt lat="9.004907" lon="-79.570811">
        <time>2026-07-30T11:17:46Z</time>
      </trkpt>
      <trkpt lat="9.004917" lon="-79.570773">
        <time>2026-07-30T11:17:49Z</time>
      </trkpt>
      <trkpt lat="9.004934" lon="-79.570704">
        <time>2026-07-30T11:17:55Z</time>
      </trkpt>
      <trkpt lat="9.004965" lon="-79.570662">
        <time>2026-07-30T11:17:59Z</time>
      </trkpt>
      <trkpt lat="9.004979" lon="-79.570619">
        <time>2026-07-30T11:18:02Z</time>
      </trkpt>
      <trkpt lat="9.005007" lon="-79.570560">
        <time>2026-07-30T11:18:07Z</time>
      </trkpt>
      <trkpt lat="9.005013" lon="-79.570548">
        <time>2026-07-30T11:18:08Z</time>
      </trkpt>
      <trkpt lat="9.005017" lon="-79.570535">
        <time>2026-07-30T11:18:09Z</time>
      </trkpt>
      <trkpt lat="9.005018" lon="-79.570523">
        <time>2026-07-30T11:18:10Z</time>
      </trkpt>
      <trkpt lat="9.005030" lon="-79.570484">
        <time>2026-07-30T11:18:13Z</time>
      </trkpt>
      <trkpt lat="9.005028" lon="-79.570463">
        <time>2026-07-30T11:18:15Z</time>
      </trkpt>
      <trkpt lat="9.005048" lon="-79.570386">
        <time>2026-07-30T11:18:22Z</time>
      </trkpt>
      <trkpt lat="9.005055" lon="-79.570362">
        <time>2026-07-30T11:18:24Z</time>
      </trkpt>
      <trkpt lat="9.005060" lon="-79.570304">
        <time>2026-07-30T11:18:29Z</time>
      </trkpt>
      <trkpt lat="9.005064" lon="-79.570267">
        <time>2026-07-30T11:18:32Z</time>
      </trkpt>
      <trkpt lat="9.005078" lon="-79.570210">
        <time>2026-07-30T11:18:37Z</time>
      </trkpt>
      <trkpt lat="9.005118" lon="-79.570130">
        <time>2026-07-30T11:18:44Z</time>
      </trkpt>
      <trkpt lat="9.005144" lon="-79.570040">
        <time>2026-07-30T11:18:51Z</time>
      </trkpt>
      <trkpt lat="9.005167" lon="-79.569958">
        <time>2026-07-30T11:18:58Z</time>
      </trkpt>
      <trkpt lat="9.005213" lon="-79.569868">
        <time>2026-07-30T11:19:05Z</time>
      </trkpt>
      <trkpt lat="9.005242" lon="-79.569802">
        <time>2026-07-30T11:19:11Z</time>
      </trkpt>
      <trkpt lat="9.005251" lon="-79.569784">
        <time>2026-07-30T11:19:12Z</time>
      </trkpt>
      <trkpt lat="9.005270" lon="-79.569728">
        <time>2026-07-30T11:19:17Z</time>
      </trkpt>
      <trkpt lat="9.005301" lon="-79.569643">
        <time>2026-07-30T11:19:24Z</time>
      </trkpt>
      <trkpt lat="9.005321" lon="-79.569559">
        <time>2026-07-30T11:19:30Z</time>
      </trkpt>
      <trkpt lat="9.005329" lon="-79.569540">
        <time>2026-07-30T11:19:32Z</time>
      </trkpt>
      <trkpt lat="9.005348" lon="-79.569488">
        <time>2026-07-30T11:19:36Z</time>
      </trkpt>
      <trkpt lat="9.005370" lon="-79.569413">
        <time>2026-07-30T11:19:42Z</time>
      </trkpt>
      <trkpt lat="9.005386" lon="-79.569316">
        <time>2026-07-30T11:19:49Z</time>
      </trkpt>
      <trkpt lat="9.005403" lon="-79.569234">
        <time>2026-07-30T11:19:55Z</time>
      </trkpt>
      <trkpt lat="9.005409" lon="-79.569207">
        <time>2026-07-30T11:19:57Z</time>
      </trkpt>
      <trkpt lat="9.005434" lon="-79.569118">
        <time>2026-07-30T11:20:04Z</time>
      </trkpt>
      <trkpt lat="9.005454" lon="-79.569049">
        <time>2026-07-30T11:20:10Z</time>
      </trkpt>
      <trkpt lat="9.005485" lon="-79.568955">
        <time>2026-07-30T11:20:17Z</time>
      </trkpt>
      <trkpt lat="9.005524" lon="-79.568853">
        <time>2026-07-30T11:20:25Z</time>
      </trkpt>
      <trkpt lat="9.005530" lon="-79.568846">
        <time>2026-07-30T11:20:26Z</time>
      </trkpt>
      <trkpt lat="9.005549" lon="-79.568770">
        <time>2026-07-30T11:20:32Z</time>
      </trkpt>
      <trkpt lat="9.005570" lon="-79.568686">
        <time>2026-07-30T11:20:39Z</time>
      </trkpt>
      <trkpt lat="9.005577" lon="-79.568609">
        <time>2026-07-30T11:20:46Z</time>
      </trkpt>
      <trkpt lat="9.005585" lon="-79.568590">
        <time>2026-07-30T11:20:48Z</time>
      </trkpt>
      <trkpt lat="9.005593" lon="-79.568558">
        <time>2026-07-30T11:20:50Z</time>
      </trkpt>
      <trkpt lat="9.005588" lon="-79.568533">
        <time>2026-07-30T11:20:52Z</time>
      </trkpt>
      <trkpt lat="9.005605" lon="-79.568439">
        <time>2026-07-30T11:20:59Z</time>
      </trkpt>
      <trkpt lat="9.005615" lon="-79.568424">
        <time>2026-07-30T11:21:00Z</time>
      </trkpt>
      <trkpt lat="9.005645" lon="-79.568371">
        <time>2026-07-30T11:21:05Z</time>
      </trkpt>
      <trkpt lat="9.005685" lon="-79.568312">
        <time>2026-07-30T11:21:10Z</time>
      </trkpt>
      <trkpt lat="9.005690" lon="-79.568301">
        <time>2026-07-30T11:21:11Z</time>
      </trkpt>
      <trkpt lat="9.005700" lon="-79.568280">
        <time>2026-07-30T11:21:13Z</time>
      </trkpt>
      <trkpt lat="9.005756" lon="-79.568191">
        <time>2026-07-30T11:21:21Z</time>
      </trkpt>
      <trkpt lat="9.005786" lon="-79.568133">
        <time>2026-07-30T11:21:26Z</time>
      </trkpt>
      <trkpt lat="9.005790" lon="-79.568122">
        <time>2026-07-30T11:21:27Z</time>
      </trkpt>
      <trkpt lat="9.005812" lon="-79.568033">
        <time>2026-07-30T11:21:34Z</time>
      </trkpt>
      <trkpt lat="9.005811" lon="-79.568007">
        <time>2026-07-30T11:21:36Z</time>
      </trkpt>
      <trkpt lat="9.005793" lon="-79.567960">
        <time>2026-07-30T11:21:40Z</time>
      </trkpt>
      <trkpt lat="9.005744" lon="-79.567894">
        <time>2026-07-30T11:21:46Z</time>
      </trkpt>
      <trkpt lat="9.005730" lon="-79.567865">
        <time>2026-07-30T11:21:49Z</time>
      </trkpt>
      <trkpt lat="9.005722" lon="-79.567856">
        <time>2026-07-30T11:21:50Z</time>
      </trkpt>
      <trkpt lat="9.005714" lon="-79.567848">
        <time>2026-07-30T11:21:51Z</time>
      </trkpt>
      <trkpt lat="9.005706" lon="-79.567841">
        <time>2026-07-30T11:21:53Z</time>
      </trkpt>
      <trkpt lat="9.005704" lon="-79.567842">
        <time>2026-07-30T11:21:54Z</time>
      </trkpt>
      <trkpt lat="9.005700" lon="-79.567837">
        <time>2026-07-30T11:21:55Z</time>
      </trkpt>
      <trkpt lat="9.005667" lon="-79.567799">
        <time>2026-07-30T11:21:59Z</time>
      </trkpt>
      <trkpt lat="9.005643" lon="-79.567765">
        <time>2026-07-30T11:22:02Z</time>
      </trkpt>
      <trkpt lat="9.005624" lon="-79.567739">
        <time>2026-07-30T11:22:04Z</time>
      </trkpt>
      <trkpt lat="9.005610" lon="-79.567719">
        <time>2026-07-30T11:22:06Z</time>
      </trkpt>
      <trkpt lat="9.005601" lon="-79.567704">
        <time>2026-07-30T11:22:08Z</time>
      </trkpt>
      <trkpt lat="9.005550" lon="-79.567631">
        <time>2026-07-30T11:22:15Z</time>
      </trkpt>
      <trkpt lat="9.005493" lon="-79.567560">
        <time>2026-07-30T11:22:22Z</time>
      </trkpt>
      <trkpt lat="9.005459" lon="-79.567517">
        <time>2026-07-30T11:22:27Z</time>
      </trkpt>
      <trkpt lat="9.005452" lon="-79.567504">
        <time>2026-07-30T11:22:28Z</time>
      </trkpt>
      <trkpt lat="9.005407" lon="-79.567432">
        <time>2026-07-30T11:22:35Z</time>
      </trkpt>
      <trkpt lat="9.005376" lon="-79.567374">
        <time>2026-07-30T11:22:40Z</time>
      </trkpt>
      <trkpt lat="9.005360" lon="-79.567346">
        <time>2026-07-30T11:22:43Z</time>
      </trkpt>
      <trkpt lat="9.005347" lon="-79.567321">
        <time>2026-07-30T11:22:45Z</time>
      </trkpt>
      <trkpt lat="9.005333" lon="-79.567285">
        <time>2026-07-30T11:22:48Z</time>
      </trkpt>
      <trkpt lat="9.005324" lon="-79.567264">
        <time>2026-07-30T11:22:50Z</time>
      </trkpt>
      <trkpt lat="9.005320" lon="-79.567249">
        <time>2026-07-30T11:22:51Z</time>
      </trkpt>
      <trkpt lat="9.005314" lon="-79.567232">
        <time>2026-07-30T11:22:52Z</time>
      </trkpt>
      <trkpt lat="9.005298" lon="-79.567204">
        <time>2026-07-30T11:22:54Z</time>
      </trkpt>
      <trkpt lat="9.005267" lon="-79.567133">
        <time>2026-07-30T11:23:00Z</time>
      </trkpt>
      <trkpt lat="9.005234" lon="-79.567058">
        <time>2026-07-30T11:23:07Z</time>
      </trkpt>
      <trkpt lat="9.005227" lon="-79.567046">
        <time>2026-07-30T11:23:08Z</time>
      </trkpt>
      <trkpt lat="9.005209" lon="-79.567013">
        <time>2026-07-30T11:23:11Z</time>
      </trkpt>
      <trkpt lat="9.005196" lon="-79.566989">
        <time>2026-07-30T11:23:13Z</time>
      </trkpt>
      <trkpt lat="9.005170" lon="-79.566928">
        <time>2026-07-30T11:23:18Z</time>
      </trkpt>
      <trkpt lat="9.005164" lon="-79.566876">
        <time>2026-07-30T11:23:22Z</time>
      </trkpt>
      <trkpt lat="9.005161" lon="-79.566842">
        <time>2026-07-30T11:23:25Z</time>
      </trkpt>
      <trkpt lat="9.005153" lon="-79.566832">
        <time>2026-07-30T11:23:26Z</time>
      </trkpt>
      <trkpt lat="9.005135" lon="-79.566813">
        <time>2026-07-30T11:23:28Z</time>
      </trkpt>
      <trkpt lat="9.005125" lon="-79.566785">
        <time>2026-07-30T11:23:30Z</time>
      </trkpt>
      <trkpt lat="9.005119" lon="-79.566769">
        <time>2026-07-30T11:23:31Z</time>
      </trkpt>
      <trkpt lat="9.005098" lon="-79.566712">
        <time>2026-07-30T11:23:36Z</time>
      </trkpt>
      <trkpt lat="9.005075" lon="-79.566630">
        <time>2026-07-30T11:23:42Z</time>
      </trkpt>
      <trkpt lat="9.005060" lon="-79.566595">
        <time>2026-07-30T11:23:45Z</time>
      </trkpt>
      <trkpt lat="9.005032" lon="-79.566547">
        <time>2026-07-30T11:23:49Z</time>
      </trkpt>
      <trkpt lat="9.004998" lon="-79.566437">
        <time>2026-07-30T11:23:57Z</time>
      </trkpt>
      <trkpt lat="9.004979" lon="-79.566390">
        <time>2026-07-30T11:24:01Z</time>
      </trkpt>
      <trkpt lat="9.004959" lon="-79.566351">
        <time>2026-07-30T11:24:04Z</time>
      </trkpt>
      <trkpt lat="9.004904" lon="-79.566250">
        <time>2026-07-30T11:24:13Z</time>
      </trkpt>
      <trkpt lat="9.004854" lon="-79.566165">
        <time>2026-07-30T11:24:20Z</time>
      </trkpt>
      <trkpt lat="9.004802" lon="-79.566075">
        <time>2026-07-30T11:24:28Z</time>
      </trkpt>
      <trkpt lat="9.004794" lon="-79.566064">
        <time>2026-07-30T11:24:29Z</time>
      </trkpt>
      <trkpt lat="9.004748" lon="-79.565996">
        <time>2026-07-30T11:24:35Z</time>
      </trkpt>
      <trkpt lat="9.004662" lon="-79.565973">
        <time>2026-07-30T11:24:41Z</time>
      </trkpt>
      <trkpt lat="9.004639" lon="-79.565982">
        <time>2026-07-30T11:24:43Z</time>
      </trkpt>
      <trkpt lat="9.004596" lon="-79.566002">
        <time>2026-07-30T11:24:47Z</time>
      </trkpt>
      <trkpt lat="9.004581" lon="-79.566005">
        <time>2026-07-30T11:24:48Z</time>
      </trkpt>
      <trkpt lat="9.004553" lon="-79.566010">
        <time>2026-07-30T11:24:50Z</time>
      </trkpt>
      <trkpt lat="9.004497" lon="-79.566000">
        <time>2026-07-30T11:24:55Z</time>
      </trkpt>
      <trkpt lat="9.004423" lon="-79.565990">
        <time>2026-07-30T11:25:01Z</time>
      </trkpt>
      <trkpt lat="9.004304" lon="-79.566013">
        <time>2026-07-30T11:25:10Z</time>
      </trkpt>
      <trkpt lat="9.004205" lon="-79.566023">
        <time>2026-07-30T11:25:18Z</time>
      </trkpt>
      <trkpt lat="9.004194" lon="-79.566025">
        <time>2026-07-30T11:25:19Z</time>
      </trkpt>
      <trkpt lat="9.004101" lon="-79.566028">
        <time>2026-07-30T11:25:26Z</time>
      </trkpt>
      <trkpt lat="9.004025" lon="-79.566035">
        <time>2026-07-30T11:25:32Z</time>
      </trkpt>
      <trkpt lat="9.004013" lon="-79.566034">
        <time>2026-07-30T11:25:33Z</time>
      </trkpt>
      <trkpt lat="9.003921" lon="-79.566029">
        <time>2026-07-30T11:25:40Z</time>
      </trkpt>
      <trkpt lat="9.003909" lon="-79.566026">
        <time>2026-07-30T11:25:41Z</time>
      </trkpt>
      <trkpt lat="9.003838" lon="-79.566028">
        <time>2026-07-30T11:25:47Z</time>
      </trkpt>
      <trkpt lat="9.003736" lon="-79.566015">
        <time>2026-07-30T11:25:55Z</time>
      </trkpt>
      <trkpt lat="9.003649" lon="-79.565993">
        <time>2026-07-30T11:26:02Z</time>
      </trkpt>
      <trkpt lat="9.003574" lon="-79.565996">
        <time>2026-07-30T11:26:08Z</time>
      </trkpt>
      <trkpt lat="9.003482" lon="-79.565985">
        <time>2026-07-30T11:26:16Z</time>
      </trkpt>
      <trkpt lat="9.003409" lon="-79.565977">
        <time>2026-07-30T11:26:22Z</time>
      </trkpt>
      <trkpt lat="9.003398" lon="-79.565974">
        <time>2026-07-30T11:26:23Z</time>
      </trkpt>
      <trkpt lat="9.003384" lon="-79.565965">
        <time>2026-07-30T11:26:28Z</time>
      </trkpt>
      <trkpt lat="9.003379" lon="-79.565957">
        <time>2026-07-30T11:26:29Z</time>
      </trkpt>
      <trkpt lat="9.003348" lon="-79.565947">
        <time>2026-07-30T11:26:32Z</time>
      </trkpt>
      <trkpt lat="9.003314" lon="-79.565938">
        <time>2026-07-30T11:26:35Z</time>
      </trkpt>
      <trkpt lat="9.003273" lon="-79.565932">
        <time>2026-07-30T11:26:39Z</time>
      </trkpt>
      <trkpt lat="9.003259" lon="-79.565929">
        <time>2026-07-30T11:26:40Z</time>
      </trkpt>
      <trkpt lat="9.003219" lon="-79.565919">
        <time>2026-07-30T11:26:44Z</time>
      </trkpt>
      <trkpt lat="9.003208" lon="-79.565917">
        <time>2026-07-30T11:26:45Z</time>
      </trkpt>
      <trkpt lat="9.003141" lon="-79.565906">
        <time>2026-07-30T11:26:51Z</time>
      </trkpt>
      <trkpt lat="9.003074" lon="-79.565881">
        <time>2026-07-30T11:26:57Z</time>
      </trkpt>
      <trkpt lat="9.003063" lon="-79.565879">
        <time>2026-07-30T11:26:58Z</time>
      </trkpt>
      <trkpt lat="9.003010" lon="-79.565850">
        <time>2026-07-30T11:27:03Z</time>
      </trkpt>
      <trkpt lat="9.002989" lon="-79.565846">
        <time>2026-07-30T11:27:05Z</time>
      </trkpt>
      <trkpt lat="9.002921" lon="-79.565812">
        <time>2026-07-30T11:27:13Z</time>
      </trkpt>
      <trkpt lat="9.002912" lon="-79.565808">
        <time>2026-07-30T11:27:15Z</time>
      </trkpt>
      <trkpt lat="9.002910" lon="-79.565809">
        <time>2026-07-30T11:27:16Z</time>
      </trkpt>
      <trkpt lat="9.002908" lon="-79.565808">
        <time>2026-07-30T11:27:19Z</time>
      </trkpt>
      <trkpt lat="9.002908" lon="-79.565808">
        <time>2026-07-30T11:27:23Z</time>
      </trkpt>
      <trkpt lat="9.002908" lon="-79.565808">
        <time>2026-07-30T11:27:25Z</time>
      </trkpt>
      <trkpt lat="9.002908" lon="-79.565808">
        <time>2026-07-30T11:27:30Z</time>
      </trkpt>
      <trkpt lat="9.002908" lon="-79.565808">
        <time>2026-07-30T11:27:37Z</time>
      </trkpt>
      <trkpt lat="9.002908" lon="-79.565808">
        <time>2026-07-30T11:27:38Z</time>
      </trkpt>
      <trkpt lat="9.002908" lon="-79.565808">
        <time>2026-07-30T11:27:44Z</time>
      </trkpt>
      <trkpt lat="9.002908" lon="-79.565808">
        <time>2026-07-30T11:27:50Z</time>
      </trkpt>
      <trkpt lat="9.002908" lon="-79.565808">
        <time>2026-07-30T11:27:51Z</time>
      </trkpt>
      <trkpt lat="9.002908" lon="-79.565808">
        <time>2026-07-30T11:28:00Z</time>
      </trkpt>
      <trkpt lat="9.002908" lon="-79.565808">
        <time>2026-07-30T11:28:09Z</time>
      </trkpt>
      <trkpt lat="9.002908" lon="-79.565807">
        <time>2026-07-30T11:28:13Z</time>
      </trkpt>
      <trkpt lat="9.002908" lon="-79.565808">
        <time>2026-07-30T11:28:16Z</time>
      </trkpt>
      <trkpt lat="9.002908" lon="-79.565808">
        <time>2026-07-30T11:28:18Z</time>
      </trkpt>
      <trkpt lat="9.002908" lon="-79.565808">
        <time>2026-07-30T11:28:20Z</time>
      </trkpt>
      <trkpt lat="9.002908" lon="-79.565808">
        <time>2026-07-30T11:28:27Z</time>
      </trkpt>
      <trkpt lat="9.002908" lon="-79.565808">
        <time>2026-07-30T11:28:34Z</time>
      </trkpt>
      <trkpt lat="9.002908" lon="-79.565808">
        <time>2026-07-30T11:28:38Z</time>
      </trkpt>
      <trkpt lat="9.002908" lon="-79.565808">
        <time>2026-07-30T11:28:39Z</time>
      </trkpt>
      <trkpt lat="9.002908" lon="-79.565808">
        <time>2026-07-30T11:28:44Z</time>
      </trkpt>
      <trkpt lat="9.002908" lon="-79.565808">
        <time>2026-07-30T11:28:50Z</time>
      </trkpt>
      <trkpt lat="9.002917" lon="-79.565799">
        <time>2026-07-30T11:28:52Z</time>
      </trkpt>
      <trkpt lat="9.002911" lon="-79.565798">
        <time>2026-07-30T11:28:54Z</time>
      </trkpt>
      <trkpt lat="9.002908" lon="-79.565808">
        <time>2026-07-30T11:28:55Z</time>
      </trkpt>
      <trkpt lat="9.002912" lon="-79.565795">
        <time>2026-07-30T11:28:59Z</time>
      </trkpt>
      <trkpt lat="9.002912" lon="-79.565795">
        <time>2026-07-30T11:29:02Z</time>
      </trkpt>
      <trkpt lat="9.002915" lon="-79.565794">
        <time>2026-07-30T11:29:08Z</time>
      </trkpt>
      <trkpt lat="9.002916" lon="-79.565792">
        <time>2026-07-30T11:29:10Z</time>
      </trkpt>
      <trkpt lat="9.002912" lon="-79.565795">
        <time>2026-07-30T11:29:19Z</time>
      </trkpt>
      <trkpt lat="9.002916" lon="-79.565795">
        <time>2026-07-30T11:29:23Z</time>
      </trkpt>
      <trkpt lat="9.002912" lon="-79.565795">
        <time>2026-07-30T11:29:26Z</time>
      </trkpt>
      <trkpt lat="9.002912" lon="-79.565795">
        <time>2026-07-30T11:29:34Z</time>
      </trkpt>
      <trkpt lat="9.002913" lon="-79.565813">
        <time>2026-07-30T11:29:40Z</time>
      </trkpt>
      <trkpt lat="9.002912" lon="-79.565815">
        <time>2026-07-30T11:29:46Z</time>
      </trkpt>
      <trkpt lat="9.002913" lon="-79.565813">
        <time>2026-07-30T11:29:51Z</time>
      </trkpt>
      <trkpt lat="9.002913" lon="-79.565813">
        <time>2026-07-30T11:29:52Z</time>
      </trkpt>
      <trkpt lat="9.002913" lon="-79.565813">
        <time>2026-07-30T11:29:59Z</time>
      </trkpt>
      <trkpt lat="9.002913" lon="-79.565813">
        <time>2026-07-30T11:30:00Z</time>
      </trkpt>
      <trkpt lat="9.002913" lon="-79.565813">
        <time>2026-07-30T11:30:05Z</time>
      </trkpt>
      <trkpt lat="9.002913" lon="-79.565813">
        <time>2026-07-30T11:30:11Z</time>
      </trkpt>
      <trkpt lat="9.002903" lon="-79.565818">
        <time>2026-07-30T11:30:12Z</time>
      </trkpt>
      <trkpt lat="9.002899" lon="-79.565816">
        <time>2026-07-30T11:30:16Z</time>
      </trkpt>
      <trkpt lat="9.002899" lon="-79.565816">
        <time>2026-07-30T11:30:17Z</time>
      </trkpt>
      <trkpt lat="9.002870" lon="-79.565813">
        <time>2026-07-30T11:30:25Z</time>
      </trkpt>
      <trkpt lat="9.002854" lon="-79.565818">
        <time>2026-07-30T11:30:27Z</time>
      </trkpt>
      <trkpt lat="9.002809" lon="-79.565804">
        <time>2026-07-30T11:30:33Z</time>
      </trkpt>
      <trkpt lat="9.002802" lon="-79.565801">
        <time>2026-07-30T11:30:34Z</time>
      </trkpt>
      <trkpt lat="9.002757" lon="-79.565782">
        <time>2026-07-30T11:30:39Z</time>
      </trkpt>
      <trkpt lat="9.002731" lon="-79.565774">
        <time>2026-07-30T11:30:42Z</time>
      </trkpt>
      <trkpt lat="9.002643" lon="-79.565754">
        <time>2026-07-30T11:30:52Z</time>
      </trkpt>
      <trkpt lat="9.002616" lon="-79.565748">
        <time>2026-07-30T11:30:55Z</time>
      </trkpt>
      <trkpt lat="9.002581" lon="-79.565742">
        <time>2026-07-30T11:30:59Z</time>
      </trkpt>
      <trkpt lat="9.002563" lon="-79.565739">
        <time>2026-07-30T11:31:01Z</time>
      </trkpt>
      <trkpt lat="9.002467" lon="-79.565718">
        <time>2026-07-30T11:31:11Z</time>
      </trkpt>
      <trkpt lat="9.002371" lon="-79.565703">
        <time>2026-07-30T11:31:20Z</time>
      </trkpt>
      <trkpt lat="9.002305" lon="-79.565691">
        <time>2026-07-30T11:31:26Z</time>
      </trkpt>
      <trkpt lat="9.002246" lon="-79.565686">
        <time>2026-07-30T11:31:32Z</time>
      </trkpt>
      <trkpt lat="9.002116" lon="-79.565682">
        <time>2026-07-30T11:31:45Z</time>
      </trkpt>
      <trkpt lat="9.001990" lon="-79.565684">
        <time>2026-07-30T11:31:57Z</time>
      </trkpt>
      <trkpt lat="9.001959" lon="-79.565686">
        <time>2026-07-30T11:32:00Z</time>
      </trkpt>
      <trkpt lat="9.001866" lon="-79.565693">
        <time>2026-07-30T11:32:09Z</time>
      </trkpt>
      <trkpt lat="9.001803" lon="-79.565700">
        <time>2026-07-30T11:32:16Z</time>
      </trkpt>
      <trkpt lat="9.001779" lon="-79.565703">
        <time>2026-07-30T11:32:18Z</time>
      </trkpt>
      <trkpt lat="9.001740" lon="-79.565707">
        <time>2026-07-30T11:32:21Z</time>
      </trkpt>
      <trkpt lat="9.001687" lon="-79.565718">
        <time>2026-07-30T11:32:26Z</time>
      </trkpt>
      <trkpt lat="9.001676" lon="-79.565721">
        <time>2026-07-30T11:32:27Z</time>
      </trkpt>
      <trkpt lat="9.001580" lon="-79.565753">
        <time>2026-07-30T11:32:37Z</time>
      </trkpt>
      <trkpt lat="9.001460" lon="-79.565763">
        <time>2026-07-30T11:32:49Z</time>
      </trkpt>
      <trkpt lat="9.001449" lon="-79.565766">
        <time>2026-07-30T11:32:50Z</time>
      </trkpt>
      <trkpt lat="9.001357" lon="-79.565781">
        <time>2026-07-30T11:32:58Z</time>
      </trkpt>
      <trkpt lat="9.001314" lon="-79.565787">
        <time>2026-07-30T11:33:03Z</time>
      </trkpt>
      <trkpt lat="9.001278" lon="-79.565796">
        <time>2026-07-30T11:33:07Z</time>
      </trkpt>
      <trkpt lat="9.001144" lon="-79.565861">
        <time>2026-07-30T11:33:20Z</time>
      </trkpt>
      <trkpt lat="9.001127" lon="-79.565909">
        <time>2026-07-30T11:33:26Z</time>
      </trkpt>
      <trkpt lat="9.001130" lon="-79.565916">
        <time>2026-07-30T11:33:27Z</time>
      </trkpt>
      <trkpt lat="9.001154" lon="-79.565943">
        <time>2026-07-30T11:33:33Z</time>
      </trkpt>
      <trkpt lat="9.001176" lon="-79.565930">
        <time>2026-07-30T11:33:44Z</time>
      </trkpt>
      <trkpt lat="9.001190" lon="-79.565910">
        <time>2026-07-30T11:33:54Z</time>
      </trkpt>
      <trkpt lat="9.001178" lon="-79.565893">
        <time>2026-07-30T11:33:59Z</time>
      </trkpt>
      <trkpt lat="9.001178" lon="-79.565893">
        <time>2026-07-30T11:34:01Z</time>
      </trkpt>
      <trkpt lat="9.001144" lon="-79.565857">
        <time>2026-07-30T11:34:08Z</time>
      </trkpt>
      <trkpt lat="9.001106" lon="-79.565823">
        <time>2026-07-30T11:34:16Z</time>
      </trkpt>
      <trkpt lat="9.001104" lon="-79.565821">
        <time>2026-07-30T11:34:18Z</time>
      </trkpt>
      <trkpt lat="9.001104" lon="-79.565821">
        <time>2026-07-30T11:34:21Z</time>
      </trkpt>
      <trkpt lat="9.001089" lon="-79.565836">
        <time>2026-07-30T11:34:28Z</time>
      </trkpt>
      <trkpt lat="9.001080" lon="-79.565843">
        <time>2026-07-30T11:34:33Z</time>
      </trkpt>
      <trkpt lat="9.001091" lon="-79.565880">
        <time>2026-07-30T11:34:41Z</time>
      </trkpt>
      <trkpt lat="9.001118" lon="-79.565885">
        <time>2026-07-30T11:34:50Z</time>
      </trkpt>
      <trkpt lat="9.001128" lon="-79.565901">
        <time>2026-07-30T11:34:56Z</time>
      </trkpt>
      <trkpt lat="9.001131" lon="-79.565904">
        <time>2026-07-30T11:34:59Z</time>
      </trkpt>
      <trkpt lat="9.001131" lon="-79.565905">
        <time>2026-07-30T11:35:02Z</time>
      </trkpt>
      <trkpt lat="9.001131" lon="-79.565905">
        <time>2026-07-30T11:35:12Z</time>
      </trkpt>
      <trkpt lat="9.001131" lon="-79.565905">
        <time>2026-07-30T11:35:17Z</time>
      </trkpt>
      <trkpt lat="9.001131" lon="-79.565905">
        <time>2026-07-30T11:35:30Z</time>
      </trkpt>
      <trkpt lat="9.001131" lon="-79.565905">
        <time>2026-07-30T11:35:38Z</time>
      </trkpt>
      <trkpt lat="9.001131" lon="-79.565905">
        <time>2026-07-30T11:35:52Z</time>
      </trkpt>
      <trkpt lat="9.001131" lon="-79.565905">
        <time>2026-07-30T11:36:03Z</time>
      </trkpt>
      <trkpt lat="9.001131" lon="-79.565905">
        <time>2026-07-30T11:36:08Z</time>
      </trkpt>
      <trkpt lat="9.001131" lon="-79.565905">
        <time>2026-07-30T11:36:28Z</time>
      </trkpt>
      <trkpt lat="9.001142" lon="-79.565895">
        <time>2026-07-30T11:36:47Z</time>
      </trkpt>
      <trkpt lat="9.001150" lon="-79.565895">
        <time>2026-07-30T11:36:58Z</time>
      </trkpt>
      <trkpt lat="9.001142" lon="-79.565895">
        <time>2026-07-30T11:37:09Z</time>
      </trkpt>
      <trkpt lat="9.001144" lon="-79.565889">
        <time>2026-07-30T11:37:15Z</time>
      </trkpt>
      <trkpt lat="9.001142" lon="-79.565895">
        <time>2026-07-30T11:37:16Z</time>
      </trkpt>
      <trkpt lat="9.001142" lon="-79.565895">
        <time>2026-07-30T11:37:20Z</time>
      </trkpt>
      <trkpt lat="9.001142" lon="-79.565895">
        <time>2026-07-30T11:37:27Z</time>
      </trkpt>
      <trkpt lat="9.001142" lon="-79.565895">
        <time>2026-07-30T11:37:30Z</time>
      </trkpt>
      <trkpt lat="9.001142" lon="-79.565895">
        <time>2026-07-30T11:37:40Z</time>
      </trkpt>
      <trkpt lat="9.001142" lon="-79.565895">
        <time>2026-07-30T11:37:51Z</time>
      </trkpt>
      <trkpt lat="9.001142" lon="-79.565895">
        <time>2026-07-30T11:37:58Z</time>
      </trkpt>
      <trkpt lat="9.001142" lon="-79.565895">
        <time>2026-07-30T11:38:11Z</time>
      </trkpt>
      <trkpt lat="9.001142" lon="-79.565895">
        <time>2026-07-30T11:38:25Z</time>
      </trkpt>
      <trkpt lat="9.001142" lon="-79.565895">
        <time>2026-07-30T11:38:30Z</time>
      </trkpt>
      <trkpt lat="9.001142" lon="-79.565895">
        <time>2026-07-30T11:38:31Z</time>
      </trkpt>
      <trkpt lat="9.001142" lon="-79.565895">
        <time>2026-07-30T11:38:44Z</time>
      </trkpt>
      <trkpt lat="9.001142" lon="-79.565895">
        <time>2026-07-30T11:38:53Z</time>
      </trkpt>
      <trkpt lat="9.001142" lon="-79.565895">
        <time>2026-07-30T11:39:01Z</time>
      </trkpt>
      <trkpt lat="9.001149" lon="-79.565879">
        <time>2026-07-30T11:39:10Z</time>
      </trkpt>
      <trkpt lat="9.001149" lon="-79.565879">
        <time>2026-07-30T11:39:12Z</time>
      </trkpt>
      <trkpt lat="9.001162" lon="-79.565880">
        <time>2026-07-30T11:39:18Z</time>
      </trkpt>
      <trkpt lat="9.001169" lon="-79.565894">
        <time>2026-07-30T11:39:23Z</time>
      </trkpt>
      <trkpt lat="9.001169" lon="-79.565895">
        <time>2026-07-30T11:39:30Z</time>
      </trkpt>
      <trkpt lat="9.001169" lon="-79.565895">
        <time>2026-07-30T11:39:33Z</time>
      </trkpt>
      <trkpt lat="9.001169" lon="-79.565895">
        <time>2026-07-30T11:39:41Z</time>
      </trkpt>
      <trkpt lat="9.001169" lon="-79.565895">
        <time>2026-07-30T11:39:44Z</time>
      </trkpt>
      <trkpt lat="9.001169" lon="-79.565895">
        <time>2026-07-30T11:39:56Z</time>
      </trkpt>
      <trkpt lat="9.001169" lon="-79.565895">
        <time>2026-07-30T11:40:04Z</time>
      </trkpt>
      <trkpt lat="9.001169" lon="-79.565895">
        <time>2026-07-30T11:40:19Z</time>
      </trkpt>
      <trkpt lat="9.001169" lon="-79.565895">
        <time>2026-07-30T11:40:22Z</time>
      </trkpt>
      <trkpt lat="9.001169" lon="-79.565895">
        <time>2026-07-30T11:40:24Z</time>
      </trkpt>
    </trkseg>
  </trk>
</gpx>
