<?xml version="1.0" encoding="UTF-8"?>
<gpx version="1.1" creator="FitFilter" xmlns="http://www.topografix.com/GPX/1/1" xmlns:xsi="http://www.w3.org/2001/XMLSchema-instance" xsi:schemaLocation="http://www.topografix.com/GPX/1/1 http://www.topografix.com/GPX/1/1/gpx.xsd">
  <metadata>
    <time>2026-08-04T11:13:53Z</time>
  </metadata>
  <trk>
    <name>Walking - 2026-08-04 11:13</name>
    <type>walking</type>
    <trkseg>
      <trkpt lat="9.002647" lon="-79.574192">
        <time>2026-08-04T11:13:53Z</time>
      </trkpt>
      <trkpt lat="9.002656" lon="-79.574174">
        <time>2026-08-04T11:13:54Z</time>
      </trkpt>
      <trkpt lat="9.002701" lon="-79.574164">
        <time>2026-08-04T11:13:57Z</time>
      </trkpt>
      <trkpt lat="9.002719" lon="-79.574148">
        <time>2026-08-04T11:13:59Z</time>
      </trkpt>
      <trkpt lat="9.002743" lon="-79.574129">
        <time>2026-08-04T11:14:01Z</time>
      </trkpt>
      <trkpt lat="9.002799" lon="-79.574083">
        <time>2026-08-04T11:14:06Z</time>
      </trkpt>
      <trkpt lat="9.002811" lon="-79.574072">
        <time>2026-08-04T11:14:07Z</time>
      </trkpt>
      <trkpt lat="9.002821" lon="-79.574062">
        <time>2026-08-04T11:14:08Z</time>
      </trkpt>
      <trkpt lat="9.002872" lon="-79.574011">
        <time>2026-08-04T11:14:13Z</time>
      </trkpt>
      <trkpt lat="9.002890" lon="-79.573993">
        <time>2026-08-04T11:14:15Z</time>
      </trkpt>
      <trkpt lat="9.002920" lon="-79.573960">
        <time>2026-08-04T11:14:19Z</time>
      </trkpt>
      <trkpt lat="9.002955" lon="-79.573936">
        <time>2026-08-04T11:14:22Z</time>
      </trkpt>
      <trkpt lat="9.003055" lon="-79.573856">
        <time>2026-08-04T11:14:31Z</time>
      </trkpt>
      <trkpt lat="9.003067" lon="-79.573847">
        <time>2026-08-04T11:14:32Z</time>
      </trkpt>
      <trkpt lat="9.003078" lon="-79.573841">
        <time>2026-08-04T11:14:33Z</time>
      </trkpt>
      <trkpt lat="9.003125" lon="-79.573806">
        <time>2026-08-04T11:14:37Z</time>
      </trkpt>
      <trkpt lat="9.003136" lon="-79.573797">
        <time>2026-08-04T11:14:38Z</time>
      </trkpt>
      <trkpt lat="9.003157" lon="-79.573785">
        <time>2026-08-04T11:14:40Z</time>
      </trkpt>
      <trkpt lat="9.003167" lon="-79.573778">
        <time>2026-08-04T11:14:41Z</time>
      </trkpt>
      <trkpt lat="9.003176" lon="-79.573772">
        <time>2026-08-04T11:14:42Z</time>
      </trkpt>
      <trkpt lat="9.003200" lon="-79.573756">
        <time>2026-08-04T11:14:44Z</time>
      </trkpt>
      <trkpt lat="9.003223" lon="-79.573737">
        <time>2026-08-04T11:14:46Z</time>
      </trkpt>
      <trkpt lat="9.003247" lon="-79.573714">
        <time>2026-08-04T11:14:48Z</time>
      </trkpt>
      <trkpt lat="9.003323" lon="-79.573646">
        <time>2026-08-04T11:14:56Z</time>
      </trkpt>
      <trkpt lat="9.003395" lon="-79.573591">
        <time>2026-08-04T11:15:03Z</time>
      </trkpt>
      <trkpt lat="9.003415" lon="-79.573572">
        <time>2026-08-04T11:15:05Z</time>
      </trkpt>
      <trkpt lat="9.003474" lon="-79.573520">
        <time>2026-08-04T11:15:11Z</time>
      </trkpt>
      <trkpt lat="9.003551" lon="-79.573457">
        <time>2026-08-04T11:15:18Z</time>
      </trkpt>
      <trkpt lat="9.003653" lon="-79.573384">
        <time>2026-08-04T11:15:27Z</time>
      </trkpt>
      <trkpt lat="9.003664" lon="-79.573377">
        <time>2026-08-04T11:15:28Z</time>
      </trkpt>
      <trkpt lat="9.003744" lon="-79.573312">
        <time>2026-08-04T11:15:36Z</time>
      </trkpt>
      <trkpt lat="9.003815" lon="-79.573257">
        <time>2026-08-04T11:15:43Z</time>
      </trkpt>
      <trkpt lat="9.003898" lon="-79.573195">
        <time>2026-08-04T11:15:50Z</time>
      </trkpt>
      <trkpt lat="9.004008" lon="-79.573123">
        <time>2026-08-04T11:15:59Z</time>
      </trkpt>
      <trkpt lat="9.004055" lon="-79.573089">
        <time>2026-08-04T11:16:03Z</time>
      </trkpt>
      <trkpt lat="9.004076" lon="-79.573068">
        <time>2026-08-04T11:16:05Z</time>
      </trkpt>
      <trkpt lat="9.004111" lon="-79.573046">
        <time>2026-08-04T11:16:08Z</time>
      </trkpt>
      <trkpt lat="9.004147" lon="-79.573019">
        <time>2026-08-04T11:16:11Z</time>
      </trkpt>
      <trkpt lat="9.004223" lon="-79.572948">
        <time>2026-08-04T11:16:19Z</time>
      </trkpt>
      <trkpt lat="9.004232" lon="-79.572940">
        <time>2026-08-04T11:16:20Z</time>
      </trkpt>
      <trkpt lat="9.004313" lon="-79.572858">
        <time>2026-08-04T11:16:29Z</time>
      </trkpt>
      <trkpt lat="9.004379" lon="-79.572782">
        <time>2026-08-04T11:16:37Z</time>
      </trkpt>
      <trkpt lat="9.004388" lon="-79.572772">
        <time>2026-08-04T11:16:38Z</time>
      </trkpt>
      <trkpt lat="9.004396" lon="-79.572762">
        <time>2026-08-04T11:16:39Z</time>
      </trkpt>
      <trkpt lat="9.004432" lon="-79.572697">
        <time>2026-08-04T11:16:44Z</time>
      </trkpt>
      <trkpt lat="9.004451" lon="-79.572677">
        <time>2026-08-04T11:16:46Z</time>
      </trkpt>
      <trkpt lat="9.004461" lon="-79.572668">
        <time>2026-08-04T11:16:47Z</time>
      </trkpt>
      <trkpt lat="9.004521" lon="-79.572584">
        <time>2026-08-04T11:16:56Z</time>
      </trkpt>
      <trkpt lat="9.004528" lon="-79.572572">
        <time>2026-08-04T11:16:57Z</time>
      </trkpt>
      <trkpt lat="9.004536" lon="-79.572559">
        <time>2026-08-04T11:16:58Z</time>
      </trkpt>
      <trkpt lat="9.004557" lon="-79.572526">
        <time>2026-08-04T11:17:01Z</time>
      </trkpt>
      <trkpt lat="9.004579" lon="-79.572491">
        <time>2026-08-04T11:17:04Z</time>
      </trkpt>
      <trkpt lat="9.004626" lon="-79.572415">
        <time>2026-08-04T11:17:12Z</time>
      </trkpt>
      <trkpt lat="9.004677" lon="-79.572318">
        <time>2026-08-04T11:17:19Z</time>
      </trkpt>
      <trkpt lat="9.004712" lon="-79.572226">
        <time>2026-08-04T11:17:26Z</time>
      </trkpt>
      <trkpt lat="9.004721" lon="-79.572201">
        <time>2026-08-04T11:17:28Z</time>
      </trkpt>
      <trkpt lat="9.004726" lon="-79.572187">
        <time>2026-08-04T11:17:29Z</time>
      </trkpt>
      <trkpt lat="9.004744" lon="-79.572138">
        <time>2026-08-04T11:17:33Z</time>
      </trkpt>
      <trkpt lat="9.004752" lon="-79.572111">
        <time>2026-08-04T11:17:35Z</time>
      </trkpt>
      <trkpt lat="9.004755" lon="-79.572099">
        <time>2026-08-04T11:17:36Z</time>
      </trkpt>
      <trkpt lat="9.004765" lon="-79.572070">
        <time>2026-08-04T11:17:38Z</time>
      </trkpt>
      <trkpt lat="9.004779" lon="-79.572028">
        <time>2026-08-04T11:17:41Z</time>
      </trkpt>
      <trkpt lat="9.004789" lon="-79.571988">
        <time>2026-08-04T11:17:44Z</time>
      </trkpt>
      <trkpt lat="9.004792" lon="-79.571977">
        <time>2026-08-04T11:17:45Z</time>
      </trkpt>
      <trkpt lat="9.004804" lon="-79.571922">
        <time>2026-08-04T11:17:49Z</time>
      </trkpt>
      <trkpt lat="9.004816" lon="-79.571880">
        <time>2026-08-04T11:17:52Z</time>
      </trkpt>
      <trkpt lat="9.004819" lon="-79.571853">
        <time>2026-08-04T11:17:54Z</time>
      </trkpt>
      <trkpt lat="9.004825" lon="-79.571825">
        <time>2026-08-04T11:17:56Z</time>
      </trkpt>
      <trkpt lat="9.004836" lon="-79.571754">
        <time>2026-08-04T11:18:01Z</time>
      </trkpt>
      <trkpt lat="9.004843" lon="-79.571725">
        <time>2026-08-04T11:18:03Z</time>
      </trkpt>
      <trkpt lat="9.004849" lon="-79.571643">
        <time>2026-08-04T11:18:09Z</time>
      </trkpt>
      <trkpt lat="9.004852" lon="-79.571617">
        <time>2026-08-04T11:18:11Z</time>
      </trkpt>
      <trkpt lat="9.004858" lon="-79.571576">
        <time>2026-08-04T11:18:14Z</time>
      </trkpt>
      <trkpt lat="9.004862" lon="-79.571517">
        <time>2026-08-04T11:18:19Z</time>
      </trkpt>
      <trkpt lat="9.004863" lon="-79.571503">
        <time>2026-08-04T11:18:20Z</time>
      </trkpt>
      <trkpt lat="9.004875" lon="-79.571424">
        <time>2026-08-04T11:18:26Z</time>
      </trkpt>
      <trkpt lat="9.004866" lon="-79.571368">
        <time>2026-08-04T11:18:30Z</time>
      </trkpt>
      <trkpt lat="9.004873" lon="-79.571300">
        <time>2026-08-04T11:18:35Z</time>
      </trkpt>
      <trkpt lat="9.004884" lon="-79.571243">
        <time>2026-08-04T11:18:39Z</time>
      </trkpt>
      <trkpt lat="9.004899" lon="-79.571134">
        <time>2026-08-04T11:18:47Z</time>
      </trkpt>
      <trkpt lat="9.004912" lon="-79.571073">
        <time>2026-08-04T11:18:51Z</time>
      </trkpt>
      <trkpt lat="9.004912" lon="-79.571045">
        <time>2026-08-04T11:18:53Z</time>
      </trkpt>
      <trkpt lat="9.004910" lon="-79.570965">
        <time>2026-08-04T11:18:59Z</time>
      </trkpt>
      <trkpt lat="9.004905" lon="-79.570936">
        <time>2026-08-04T11:19:01Z</time>
      </trkpt>
      <trkpt lat="9.004920" lon="-79.570830">
        <time>2026-08-04T11:19:09Z</time>
      </trkpt>
      <trkpt lat="9.004938" lon="-79.570711">
        <time>2026-08-04T11:19:18Z</time>
      </trkpt>
      <trkpt lat="9.004940" lon="-79.570698">
        <time>2026-08-04T11:19:19Z</time>
      </trkpt>
      <trkpt lat="9.004959" lon="-79.570637">
        <time>2026-08-04T11:19:24Z</time>
      </trkpt>
      <trkpt lat="9.004971" lon="-79.570595">
        <time>2026-08-04T11:19:27Z</time>
      </trkpt>
      <trkpt lat="9.004985" lon="-79.570528">
        <time>2026-08-04T11:19:32Z</time>
      </trkpt>
      <trkpt lat="9.004995" lon="-79.570503">
        <time>2026-08-04T11:19:34Z</time>
      </trkpt>
      <trkpt lat="9.005001" lon="-79.570478">
        <time>2026-08-04T11:19:36Z</time>
      </trkpt>
      <trkpt lat="9.005026" lon="-79.570412">
        <time>2026-08-04T11:19:41Z</time>
      </trkpt>
      <trkpt lat="9.005048" lon="-79.570378">
        <time>2026-08-04T11:19:44Z</time>
      </trkpt>
      <trkpt lat="9.005066" lon="-79.570325">
        <time>2026-08-04T11:19:48Z</time>
      </trkpt>
      <trkpt lat="9.005064" lon="-79.570276">
        <time>2026-08-04T11:19:51Z</time>
      </trkpt>
      <trkpt lat="9.005066" lon="-79.570243">
        <time>2026-08-04T11:19:54Z</time>
      </trkpt>
      <trkpt lat="9.005081" lon="-79.570214">
        <time>2026-08-04T11:19:57Z</time>
      </trkpt>
      <trkpt lat="9.005102" lon="-79.570159">
        <time>2026-08-04T11:20:01Z</time>
      </trkpt>
      <trkpt lat="9.005121" lon="-79.570102">
        <time>2026-08-04T11:20:05Z</time>
      </trkpt>
      <trkpt lat="9.005125" lon="-79.570081">
        <time>2026-08-04T11:20:07Z</time>
      </trkpt>
      <trkpt lat="9.005135" lon="-79.570058">
        <time>2026-08-04T11:20:09Z</time>
      </trkpt>
      <trkpt lat="9.005140" lon="-79.570044">
        <time>2026-08-04T11:20:10Z</time>
      </trkpt>
      <trkpt lat="9.005155" lon="-79.570002">
        <time>2026-08-04T11:20:13Z</time>
      </trkpt>
      <trkpt lat="9.005173" lon="-79.569938">
        <time>2026-08-04T11:20:18Z</time>
      </trkpt>
      <trkpt lat="9.005180" lon="-79.569926">
        <time>2026-08-04T11:20:19Z</time>
      </trkpt>
      <trkpt lat="9.005212" lon="-79.569859">
        <time>2026-08-04T11:20:24Z</time>
      </trkpt>
      <trkpt lat="9.005229" lon="-79.569836">
        <time>2026-08-04T11:20:26Z</time>
      </trkpt>
      <trkpt lat="9.005234" lon="-79.569825">
        <time>2026-08-04T11:20:27Z</time>
      </trkpt>
      <trkpt lat="9.005269" lon="-79.569728">
        <time>2026-08-04T11:20:35Z</time>
      </trkpt>
      <trkpt lat="9.005278" lon="-79.569699">
        <time>2026-08-04T11:20:37Z</time>
      </trkpt>
      <trkpt lat="9.005295" lon="-79.569644">
        <time>2026-08-04T11:20:42Z</time>
      </trkpt>
      <trkpt lat="9.005333" lon="-79.569538">
        <time>2026-08-04T11:20:50Z</time>
      </trkpt>
      <trkpt lat="9.005335" lon="-79.569526">
        <time>2026-08-04T11:20:51Z</time>
      </trkpt>
      <trkpt lat="9.005345" lon="-79.569493">
        <time>2026-08-04T11:20:54Z</time>
      </trkpt>
      <trkpt lat="9.005354" lon="-79.569466">
        <time>2026-08-04T11:20:56Z</time>
      </trkpt>
      <trkpt lat="9.005362" lon="-79.569435">
        <time>2026-08-04T11:20:58Z</time>
      </trkpt>
      <trkpt lat="9.005371" lon="-79.569377">
        <time>2026-08-04T11:21:02Z</time>
      </trkpt>
      <trkpt lat="9.005371" lon="-79.569365">
        <time>2026-08-04T11:21:03Z</time>
      </trkpt>
      <trkpt lat="9.005409" lon="-79.569242">
        <time>2026-08-04T11:21:12Z</time>
      </trkpt>
      <trkpt lat="9.005411" lon="-79.569177">
        <time>2026-08-04T11:21:17Z</time>
      </trkpt>
      <trkpt lat="9.005413" lon="-79.569166">
        <time>2026-08-04T11:21:18Z</time>
      </trkpt>
      <trkpt lat="9.005422" lon="-79.569138">
        <time>2026-08-04T11:21:20Z</time>
      </trkpt>
      <trkpt lat="9.005450" lon="-79.569052">
        <time>2026-08-04T11:21:26Z</time>
      </trkpt>
      <trkpt lat="9.005471" lon="-79.569005">
        <time>2026-08-04T11:21:30Z</time>
      </trkpt>
      <trkpt lat="9.005495" lon="-79.568957">
        <time>2026-08-04T11:21:34Z</time>
      </trkpt>
      <trkpt lat="9.005515" lon="-79.568895">
        <time>2026-08-04T11:21:38Z</time>
      </trkpt>
      <trkpt lat="9.005529" lon="-79.568856">
        <time>2026-08-04T11:21:41Z</time>
      </trkpt>
      <trkpt lat="9.005552" lon="-79.568766">
        <time>2026-08-04T11:21:48Z</time>
      </trkpt>
      <trkpt lat="9.005555" lon="-79.568752">
        <time>2026-08-04T11:21:49Z</time>
      </trkpt>
      <trkpt lat="9.005587" lon="-79.568621">
        <time>2026-08-04T11:21:59Z</time>
      </trkpt>
      <trkpt lat="9.005600" lon="-79.568531">
        <time>2026-08-04T11:22:06Z</time>
      </trkpt>
      <trkpt lat="9.005598" lon="-79.568480">
        <time>2026-08-04T11:22:10Z</time>
      </trkpt>
      <trkpt lat="9.005606" lon="-79.568444">
        <time>2026-08-04T11:22:13Z</time>
      </trkpt>
      <trkpt lat="9.005612" lon="-79.568430">
        <time>2026-08-04T11:22:14Z</time>
      </trkpt>
      <trkpt lat="9.005622" lon="-79.568412">
        <time>2026-08-04T11:22:16Z</time>
      </trkpt>
      <trkpt lat="9.005635" lon="-79.568390">
        <time>2026-08-04T11:22:18Z</time>
      </trkpt>
      <trkpt lat="9.005656" lon="-79.568357">
        <time>2026-08-04T11:22:21Z</time>
      </trkpt>
      <trkpt lat="9.005670" lon="-79.568335">
        <time>2026-08-04T11:22:23Z</time>
      </trkpt>
      <trkpt lat="9.005700" lon="-79.568292">
        <time>2026-08-04T11:22:27Z</time>
      </trkpt>
      <trkpt lat="9.005728" lon="-79.568244">
        <time>2026-08-04T11:22:31Z</time>
      </trkpt>
      <trkpt lat="9.005735" lon="-79.568236">
        <time>2026-08-04T11:22:32Z</time>
      </trkpt>
      <trkpt lat="9.005750" lon="-79.568215">
        <time>2026-08-04T11:22:34Z</time>
      </trkpt>
      <trkpt lat="9.005795" lon="-79.568145">
        <time>2026-08-04T11:22:41Z</time>
      </trkpt>
      <trkpt lat="9.005833" lon="-79.568033">
        <time>2026-08-04T11:22:49Z</time>
      </trkpt>
      <trkpt lat="9.005833" lon="-79.568021">
        <time>2026-08-04T11:22:50Z</time>
      </trkpt>
      <trkpt lat="9.005792" lon="-79.567932">
        <time>2026-08-04T11:22:57Z</time>
      </trkpt>
      <trkpt lat="9.005760" lon="-79.567888">
        <time>2026-08-04T11:23:01Z</time>
      </trkpt>
      <trkpt lat="9.005725" lon="-79.567849">
        <time>2026-08-04T11:23:05Z</time>
      </trkpt>
      <trkpt lat="9.005684" lon="-79.567798">
        <time>2026-08-04T11:23:09Z</time>
      </trkpt>
      <trkpt lat="9.005663" lon="-79.567775">
        <time>2026-08-04T11:23:12Z</time>
      </trkpt>
      <trkpt lat="9.005639" lon="-79.567752">
        <time>2026-08-04T11:23:15Z</time>
      </trkpt>
      <trkpt lat="9.005611" lon="-79.567715">
        <time>2026-08-04T11:23:18Z</time>
      </trkpt>
      <trkpt lat="9.005604" lon="-79.567704">
        <time>2026-08-04T11:23:19Z</time>
      </trkpt>
      <trkpt lat="9.005588" lon="-79.567689">
        <time>2026-08-04T11:23:21Z</time>
      </trkpt>
      <trkpt lat="9.005567" lon="-79.567663">
        <time>2026-08-04T11:23:24Z</time>
      </trkpt>
      <trkpt lat="9.005548" lon="-79.567639">
        <time>2026-08-04T11:23:26Z</time>
      </trkpt>
      <trkpt lat="9.005504" lon="-79.567584">
        <time>2026-08-04T11:23:31Z</time>
      </trkpt>
      <trkpt lat="9.005496" lon="-79.567576">
        <time>2026-08-04T11:23:32Z</time>
      </trkpt>
      <trkpt lat="9.005487" lon="-79.567569">
        <time>2026-08-04T11:23:33Z</time>
      </trkpt>
      <trkpt lat="9.005442" lon="-79.567503">
        <time>2026-08-04T11:23:39Z</time>
      </trkpt>
      <trkpt lat="9.005429" lon="-79.567478">
        <time>2026-08-04T11:23:41Z</time>
      </trkpt>
      <trkpt lat="9.005416" lon="-79.567459">
        <time>2026-08-04T11:23:43Z</time>
      </trkpt>
      <trkpt lat="9.005409" lon="-79.567452">
        <time>2026-08-04T11:23:44Z</time>
      </trkpt>
      <trkpt lat="9.005402" lon="-79.567442">
        <time>2026-08-04T11:23:45Z</time>
      </trkpt>
      <trkpt lat="9.005381" lon="-79.567408">
        <time>2026-08-04T11:23:48Z</time>
      </trkpt>
      <trkpt lat="9.005375" lon="-79.567374">
        <time>2026-08-04T11:23:50Z</time>
      </trkpt>
      <trkpt lat="9.005356" lon="-79.567350">
        <time>2026-08-04T11:23:53Z</time>
      </trkpt>
      <trkpt lat="9.005320" lon="-79.567260">
        <time>2026-08-04T11:24:00Z</time>
      </trkpt>
      <trkpt lat="9.005304" lon="-79.567227">
        <time>2026-08-04T11:24:03Z</time>
      </trkpt>
      <trkpt lat="9.005283" lon="-79.567177">
        <time>2026-08-04T11:24:07Z</time>
      </trkpt>
      <trkpt lat="9.005268" lon="-79.567136">
        <time>2026-08-04T11:24:10Z</time>
      </trkpt>
      <trkpt lat="9.005231" lon="-79.567072">
        <time>2026-08-04T11:24:16Z</time>
      </trkpt>
      <trkpt lat="9.005214" lon="-79.567031">
        <time>2026-08-04T11:24:19Z</time>
      </trkpt>
      <trkpt lat="9.005179" lon="-79.566978">
        <time>2026-08-04T11:24:24Z</time>
      </trkpt>
      <trkpt lat="9.005157" lon="-79.566903">
        <time>2026-08-04T11:24:30Z</time>
      </trkpt>
      <trkpt lat="9.005158" lon="-79.566875">
        <time>2026-08-04T11:24:32Z</time>
      </trkpt>
      <trkpt lat="9.005143" lon="-79.566828">
        <time>2026-08-04T11:24:36Z</time>
      </trkpt>
      <trkpt lat="9.005127" lon="-79.566796">
        <time>2026-08-04T11:24:39Z</time>
      </trkpt>
      <trkpt lat="9.005112" lon="-79.566750">
        <time>2026-08-04T11:24:42Z</time>
      </trkpt>
      <trkpt lat="9.005098" lon="-79.566710">
        <time>2026-08-04T11:24:46Z</time>
      </trkpt>
      <trkpt lat="9.005085" lon="-79.566646">
        <time>2026-08-04T11:24:51Z</time>
      </trkpt>
      <trkpt lat="9.005084" lon="-79.566633">
        <time>2026-08-04T11:24:52Z</time>
      </trkpt>
      <trkpt lat="9.005080" lon="-79.566622">
        <time>2026-08-04T11:24:53Z</time>
      </trkpt>
      <trkpt lat="9.005076" lon="-79.566608">
        <time>2026-08-04T11:24:54Z</time>
      </trkpt>
      <trkpt lat="9.005045" lon="-79.566542">
        <time>2026-08-04T11:25:00Z</time>
      </trkpt>
      <trkpt lat="9.005034" lon="-79.566517">
        <time>2026-08-04T11:25:02Z</time>
      </trkpt>
      <trkpt lat="9.005005" lon="-79.566427">
        <time>2026-08-04T11:25:09Z</time>
      </trkpt>
      <trkpt lat="9.005001" lon="-79.566419">
        <time>2026-08-04T11:25:10Z</time>
      </trkpt>
      <trkpt lat="9.004990" lon="-79.566398">
        <time>2026-08-04T11:25:12Z</time>
      </trkpt>
      <trkpt lat="9.004968" lon="-79.566368">
        <time>2026-08-04T11:25:15Z</time>
      </trkpt>
      <trkpt lat="9.004962" lon="-79.566358">
        <time>2026-08-04T11:25:16Z</time>
      </trkpt>
      <trkpt lat="9.004951" lon="-79.566339">
        <time>2026-08-04T11:25:18Z</time>
      </trkpt>
      <trkpt lat="9.004934" lon="-79.566302">
        <time>2026-08-04T11:25:21Z</time>
      </trkpt>
      <trkpt lat="9.004915" lon="-79.566270">
        <time>2026-08-04T11:25:24Z</time>
      </trkpt>
      <trkpt lat="9.004902" lon="-79.566243">
        <time>2026-08-04T11:25:26Z</time>
      </trkpt>
      <trkpt lat="9.004867" lon="-79.566184">
        <time>2026-08-04T11:25:31Z</time>
      </trkpt>
      <trkpt lat="9.004831" lon="-79.566120">
        <time>2026-08-04T11:25:37Z</time>
      </trkpt>
      <trkpt lat="9.004818" lon="-79.566095">
        <time>2026-08-04T11:25:39Z</time>
      </trkpt>
      <trkpt lat="9.004785" lon="-79.566056">
        <time>2026-08-04T11:25:43Z</time>
      </trkpt>
      <trkpt lat="9.004779" lon="-79.566044">
        <time>2026-08-04T11:25:44Z</time>
      </trkpt>
      <trkpt lat="9.004772" lon="-79.566034">
        <time>2026-08-04T11:25:45Z</time>
      </trkpt>
      <trkpt lat="9.004738" lon="-79.565989">
        <time>2026-08-04T11:25:49Z</time>
      </trkpt>
      <trkpt lat="9.004698" lon="-79.565979">
        <time>2026-08-04T11:25:52Z</time>
      </trkpt>
      <trkpt lat="9.004625" lon="-79.565973">
        <time>2026-08-04T11:25:57Z</time>
      </trkpt>
      <trkpt lat="9.004570" lon="-79.565965">
        <time>2026-08-04T11:26:01Z</time>
      </trkpt>
      <trkpt lat="9.004557" lon="-79.565966">
        <time>2026-08-04T11:26:02Z</time>
      </trkpt>
      <trkpt lat="9.004534" lon="-79.565970">
        <time>2026-08-04T11:26:04Z</time>
      </trkpt>
      <trkpt lat="9.004523" lon="-79.565974">
        <time>2026-08-04T11:26:05Z</time>
      </trkpt>
      <trkpt lat="9.004512" lon="-79.565979">
        <time>2026-08-04T11:26:06Z</time>
      </trkpt>
      <trkpt lat="9.004487" lon="-79.565982">
        <time>2026-08-04T11:26:08Z</time>
      </trkpt>
      <trkpt lat="9.004425" lon="-79.565984">
        <time>2026-08-04T11:26:13Z</time>
      </trkpt>
      <trkpt lat="9.004400" lon="-79.565985">
        <time>2026-08-04T11:26:15Z</time>
      </trkpt>
      <trkpt lat="9.004357" lon="-79.565995">
        <time>2026-08-04T11:26:18Z</time>
      </trkpt>
      <trkpt lat="9.004304" lon="-79.566000">
        <time>2026-08-04T11:26:22Z</time>
      </trkpt>
      <trkpt lat="9.004289" lon="-79.565999">
        <time>2026-08-04T11:26:23Z</time>
      </trkpt>
      <trkpt lat="9.004246" lon="-79.566000">
        <time>2026-08-04T11:26:26Z</time>
      </trkpt>
      <trkpt lat="9.004144" lon="-79.566001">
        <time>2026-08-04T11:26:34Z</time>
      </trkpt>
      <trkpt lat="9.004128" lon="-79.566002">
        <time>2026-08-04T11:26:35Z</time>
      </trkpt>
      <trkpt lat="9.004087" lon="-79.566008">
        <time>2026-08-04T11:26:39Z</time>
      </trkpt>
      <trkpt lat="9.004077" lon="-79.566008">
        <time>2026-08-04T11:26:40Z</time>
      </trkpt>
      <trkpt lat="9.004027" lon="-79.566020">
        <time>2026-08-04T11:26:44Z</time>
      </trkpt>
      <trkpt lat="9.003990" lon="-79.566022">
        <time>2026-08-04T11:26:47Z</time>
      </trkpt>
      <trkpt lat="9.003906" lon="-79.566026">
        <time>2026-08-04T11:26:54Z</time>
      </trkpt>
      <trkpt lat="9.003821" lon="-79.566011">
        <time>2026-08-04T11:27:01Z</time>
      </trkpt>
      <trkpt lat="9.003767" lon="-79.566015">
        <time>2026-08-04T11:27:05Z</time>
      </trkpt>
      <trkpt lat="9.003758" lon="-79.566013">
        <time>2026-08-04T11:27:06Z</time>
      </trkpt>
      <trkpt lat="9.003731" lon="-79.566009">
        <time>2026-08-04T11:27:08Z</time>
      </trkpt>
      <trkpt lat="9.003693" lon="-79.566003">
        <time>2026-08-04T11:27:11Z</time>
      </trkpt>
      <trkpt lat="9.003581" lon="-79.565993">
        <time>2026-08-04T11:27:20Z</time>
      </trkpt>
      <trkpt lat="9.003492" lon="-79.565973">
        <time>2026-08-04T11:27:27Z</time>
      </trkpt>
      <trkpt lat="9.003415" lon="-79.565954">
        <time>2026-08-04T11:27:34Z</time>
      </trkpt>
      <trkpt lat="9.003323" lon="-79.565931">
        <time>2026-08-04T11:27:41Z</time>
      </trkpt>
      <trkpt lat="9.003240" lon="-79.565911">
        <time>2026-08-04T11:27:48Z</time>
      </trkpt>
      <trkpt lat="9.003170" lon="-79.565892">
        <time>2026-08-04T11:27:54Z</time>
      </trkpt>
      <trkpt lat="9.003090" lon="-79.565869">
        <time>2026-08-04T11:28:02Z</time>
      </trkpt>
      <trkpt lat="9.003077" lon="-79.565863">
        <time>2026-08-04T11:28:03Z</time>
      </trkpt>
      <trkpt lat="9.003054" lon="-79.565853">
        <time>2026-08-04T11:28:05Z</time>
      </trkpt>
      <trkpt lat="9.003013" lon="-79.565845">
        <time>2026-08-04T11:28:09Z</time>
      </trkpt>
      <trkpt lat="9.002992" lon="-79.565840">
        <time>2026-08-04T11:28:11Z</time>
      </trkpt>
      <trkpt lat="9.002976" lon="-79.565828">
        <time>2026-08-04T11:28:14Z</time>
      </trkpt>
      <trkpt lat="9.002943" lon="-79.565806">
        <time>2026-08-04T11:28:19Z</time>
      </trkpt>
      <trkpt lat="9.002939" lon="-79.565805">
        <time>2026-08-04T11:28:20Z</time>
      </trkpt>
      <trkpt lat="9.002918" lon="-79.565792">
        <time>2026-08-04T11:28:25Z</time>
      </trkpt>
      <trkpt lat="9.002918" lon="-79.565792">
        <time>2026-08-04T11:28:27Z</time>
      </trkpt>
      <trkpt lat="9.002918" lon="-79.565792">
        <time>2026-08-04T11:28:28Z</time>
      </trkpt>
      <trkpt lat="9.002918" lon="-79.565792">
        <time>2026-08-04T11:28:29Z</time>
      </trkpt>
      <trkpt lat="9.002918" lon="-79.565792">
        <time>2026-08-04T11:28:37Z</time>
      </trkpt>
      <trkpt lat="9.002918" lon="-79.565792">
        <time>2026-08-04T11:28:38Z</time>
      </trkpt>
      <trkpt lat="9.002918" lon="-79.565792">
        <time>2026-08-04T11:28:42Z</time>
      </trkpt>
      <trkpt lat="9.002918" lon="-79.565792">
        <time>2026-08-04T11:28:47Z</time>
      </trkpt>
      <trkpt lat="9.002918" lon="-79.565792">
        <time>2026-08-04T11:28:50Z</time>
      </trkpt>
      <trkpt lat="9.002918" lon="-79.565792">
        <time>2026-08-04T11:28:54Z</time>
      </trkpt>
      <trkpt lat="9.002918" lon="-79.565792">
        <time>2026-08-04T11:28:55Z</time>
      </trkpt>
      <trkpt lat="9.002924" lon="-79.565810">
        <time>2026-08-04T11:28:59Z</time>
      </trkpt>
      <trkpt lat="9.002924" lon="-79.565811">
        <time>2026-08-04T11:29:00Z</time>
      </trkpt>
      <trkpt lat="9.002942" lon="-79.565806">
        <time>2026-08-04T11:29:07Z</time>
      </trkpt>
      <trkpt lat="9.002942" lon="-79.565806">
        <time>2026-08-04T11:29:09Z</time>
      </trkpt>
      <trkpt lat="9.002942" lon="-79.565806">
        <time>2026-08-04T11:29:11Z</time>
      </trkpt>
      <trkpt lat="9.002942" lon="-79.565806">
        <time>2026-08-04T11:29:14Z</time>
      </trkpt>
      <trkpt lat="9.002946" lon="-79.565801">
        <time>2026-08-04T11:29:17Z</time>
      </trkpt>
      <trkpt lat="9.002942" lon="-79.565806">
        <time>2026-08-04T11:29:23Z</time>
      </trkpt>
      <trkpt lat="9.002925" lon="-79.565799">
        <time>2026-08-04T11:29:28Z</time>
      </trkpt>
      <trkpt lat="9.002925" lon="-79.565799">
        <time>2026-08-04T11:29:32Z</time>
      </trkpt>
      <trkpt lat="9.002925" lon="-79.565799">
        <time>2026-08-04T11:29:35Z</time>
      </trkpt>
      <trkpt lat="9.002925" lon="-79.565799">
        <time>2026-08-04T11:29:37Z</time>
      </trkpt>
      <trkpt lat="9.002925" lon="-79.565799">
        <time>2026-08-04T11:29:38Z</time>
      </trkpt>
      <trkpt lat="9.002862" lon="-79.565800">
        <time>2026-08-04T11:29:46Z</time>
      </trkpt>
      <trkpt lat="9.002855" lon="-79.565802">
        <time>2026-08-04T11:29:47Z</time>
      </trkpt>
      <trkpt lat="9.002816" lon="-79.565798">
        <time>2026-08-04T11:29:52Z</time>
      </trkpt>
      <trkpt lat="9.002786" lon="-79.565792">
        <time>2026-08-04T11:29:56Z</time>
      </trkpt>
      <trkpt lat="9.002672" lon="-79.565767">
        <time>2026-08-04T11:30:09Z</time>
      </trkpt>
      <trkpt lat="9.002559" lon="-79.565741">
        <time>2026-08-04T11:30:20Z</time>
      </trkpt>
      <trkpt lat="9.002541" lon="-79.565738">
        <time>2026-08-04T11:30:22Z</time>
      </trkpt>
      <trkpt lat="9.002489" lon="-79.565733">
        <time>2026-08-04T11:30:27Z</time>
      </trkpt>
      <trkpt lat="9.002412" lon="-79.565736">
        <time>2026-08-04T11:30:34Z</time>
      </trkpt>
      <trkpt lat="9.002364" lon="-79.565720">
        <time>2026-08-04T11:30:41Z</time>
      </trkpt>
      <trkpt lat="9.002353" lon="-79.565714">
        <time>2026-08-04T11:30:42Z</time>
      </trkpt>
      <trkpt lat="9.002269" lon="-79.565702">
        <time>2026-08-04T11:30:49Z</time>
      </trkpt>
      <trkpt lat="9.002245" lon="-79.565700">
        <time>2026-08-04T11:30:51Z</time>
      </trkpt>
      <trkpt lat="9.002160" lon="-79.565695">
        <time>2026-08-04T11:31:01Z</time>
      </trkpt>
      <trkpt lat="9.002123" lon="-79.565686">
        <time>2026-08-04T11:31:05Z</time>
      </trkpt>
      <trkpt lat="9.002060" lon="-79.565685">
        <time>2026-08-04T11:31:11Z</time>
      </trkpt>
      <trkpt lat="9.001988" lon="-79.565686">
        <time>2026-08-04T11:31:17Z</time>
      </trkpt>
      <trkpt lat="9.001914" lon="-79.565691">
        <time>2026-08-04T11:31:24Z</time>
      </trkpt>
      <trkpt lat="9.001836" lon="-79.565704">
        <time>2026-08-04T11:31:32Z</time>
      </trkpt>
      <trkpt lat="9.001808" lon="-79.565702">
        <time>2026-08-04T11:31:35Z</time>
      </trkpt>
      <trkpt lat="9.001688" lon="-79.565714">
        <time>2026-08-04T11:31:46Z</time>
      </trkpt>
      <trkpt lat="9.001666" lon="-79.565717">
        <time>2026-08-04T11:31:48Z</time>
      </trkpt>
      <trkpt lat="9.001554" lon="-79.565747">
        <time>2026-08-04T11:31:59Z</time>
      </trkpt>
      <trkpt lat="9.001490" lon="-79.565736">
        <time>2026-08-04T11:32:08Z</time>
      </trkpt>
      <trkpt lat="9.001476" lon="-79.565755">
        <time>2026-08-04T11:32:16Z</time>
      </trkpt>
      <trkpt lat="9.001427" lon="-79.565778">
        <time>2026-08-04T11:32:24Z</time>
      </trkpt>
      <trkpt lat="9.001308" lon="-79.565770">
        <time>2026-08-04T11:32:34Z</time>
      </trkpt>
      <trkpt lat="9.001219" lon="-79.565779">
        <time>2026-08-04T11:32:43Z</time>
      </trkpt>
      <trkpt lat="9.001138" lon="-79.565807">
        <time>2026-08-04T11:32:52Z</time>
      </trkpt>
      <trkpt lat="9.001140" lon="-79.565813">
        <time>2026-08-04T11:32:55Z</time>
      </trkpt>
      <trkpt lat="9.001144" lon="-79.565801">
        <time>2026-08-04T11:32:57Z</time>
      </trkpt>
      <trkpt lat="9.001138" lon="-79.565795">
        <time>2026-08-04T11:32:59Z</time>
      </trkpt>
      <trkpt lat="9.001124" lon="-79.565788">
        <time>2026-08-04T11:33:02Z</time>
      </trkpt>
      <trkpt lat="9.001117" lon="-79.565788">
        <time>2026-08-04T11:33:04Z</time>
      </trkpt>
      <trkpt lat="9.001122" lon="-79.565788">
        <time>2026-08-04T11:33:09Z</time>
      </trkpt>
      <trkpt lat="9.001122" lon="-79.565788">
        <time>2026-08-04T11:33:10Z</time>
      </trkpt>
      <trkpt lat="9.001122" lon="-79.565788">
        <time>2026-08-04T11:33:16Z</time>
      </trkpt>
      <trkpt lat="9.001122" lon="-79.565788">
        <time>2026-08-04T11:33:20Z</time>
      </trkpt>
      <trkpt lat="9.001122" lon="-79.565788">
        <time>2026-08-04T11:33:22Z</time>
      </trkpt>
      <trkpt lat="9.001122" lon="-79.565788">
        <time>2026-08-04T11:33:32Z</time>
      </trkpt>
      <trkpt lat="9.001122" lon="-79.565788">
        <time>2026-08-04T11:33:54Z</time>
      </trkpt>
      <trkpt lat="9.001111" lon="-79.565799">
        <time>2026-08-04T11:34:11Z</time>
      </trkpt>
      <trkpt lat="9.001111" lon="-79.565799">
        <time>2026-08-04T11:34:12Z</time>
      </trkpt>
      <trkpt lat="9.001101" lon="-79.565850">
        <time>2026-08-04T11:34:20Z</time>
      </trkpt>
      <trkpt lat="9.001104" lon="-79.565863">
        <time>2026-08-04T11:34:21Z</time>
      </trkpt>
      <trkpt lat="9.001108" lon="-79.565873">
        <time>2026-08-04T11:34:22Z</time>
      </trkpt>
      <trkpt lat="9.001140" lon="-79.565938">
        <time>2026-08-04T11:34:31Z</time>
      </trkpt>
      <trkpt lat="9.001150" lon="-79.565942">
        <time>2026-08-04T11:34:37Z</time>
      </trkpt>
      <trkpt lat="9.001150" lon="-79.565943">
        <time>2026-08-04T11:34:38Z</time>
      </trkpt>
      <trkpt lat="9.001146" lon="-79.565951">
        <time>2026-08-04T11:34:42Z</time>
      </trkpt>
      <trkpt lat="9.001152" lon="-79.565933">
        <time>2026-08-04T11:34:48Z</time>
      </trkpt>
      <trkpt lat="9.001176" lon="-79.565919">
        <time>2026-08-04T11:34:52Z</time>
      </trkpt>
      <trkpt lat="9.001176" lon="-79.565919">
        <time>2026-08-04T11:34:54Z</time>
      </trkpt>
      <trkpt lat="9.001176" lon="-79.565919">
        <time>2026-08-04T11:34:55Z</time>
      </trkpt>
      <trkpt lat="9.001176" lon="-79.565919">
        <time>2026-08-04T11:34:56Z</time>
      </trkpt>
      <trkpt lat="9.001184" lon="-79.565912">
        <time>2026-08-04T11:35:00Z</time>
      </trkpt>
      <trkpt lat="9.001191" lon="-79.565878">
        <time>2026-08-04T11:35:05Z</time>
      </trkpt>
      <trkpt lat="9.001197" lon="-79.565875">
        <time>2026-08-04T11:35:08Z</time>
      </trkpt>
      <trkpt lat="9.001198" lon="-79.565871">
        <time>2026-08-04T11:35:09Z</time>
      </trkpt>
      <trkpt lat="9.001181" lon="-79.565858">
        <time>2026-08-04T11:35:14Z</time>
      </trkpt>
      <trkpt lat="9.001167" lon="-79.565857">
        <time>2026-08-04T11:35:16Z</time>
      </trkpt>
      <trkpt lat="9.001162" lon="-79.565863">
        <time>2026-08-04T11:35:19Z</time>
      </trkpt>
      <trkpt lat="9.001165" lon="-79.565872">
        <time>2026-08-04T11:35:23Z</time>
      </trkpt>
      <trkpt lat="9.001165" lon="-79.565876">
        <time>2026-08-04T11:35:24Z</time>
      </trkpt>
      <trkpt lat="9.001170" lon="-79.565885">
        <time>2026-08-04T11:35:32Z</time>
      </trkpt>
      <trkpt lat="9.001174" lon="-79.565885">
        <time>2026-08-04T11:35:34Z</time>
      </trkpt>
      <trkpt lat="9.001177" lon="-79.565886">
        <time>2026-08-04T11:35:38Z</time>
      </trkpt>
      <trkpt lat="9.001177" lon="-79.565886">
        <time>2026-08-04T11:35:50Z</time>
      </trkpt>
      <trkpt lat="9.001177" lon="-79.565886">
        <time>2026-08-04T11:35:53Z</time>
      </trkpt>
      <trkpt lat="9.001177" lon="-79.565886">
        <time>2026-08-04T11:35:59Z</time>
      </trkpt>
      <trkpt lat="9.001177" lon="-79.565886">
        <time>2026-08-04T11:36:02Z</time>
      </trkpt>
      <trkpt lat="9.001177" lon="-79.565886">
        <time>2026-08-04T11:36:03Z</time>
      </trkpt>
      <trkpt lat="9.001177" lon="-79.565886">
        <time>2026-08-04T11:36:04Z</time>
      </trkpt>
      <trkpt lat="9.001177" lon="-79.565886">
        <time>2026-08-04T11:36:14Z</time>
      </trkpt>
      <trkpt lat="9.001177" lon="-79.565886">
        <time>2026-08-04T11:36:16Z</time>
      </trkpt>
      <trkpt lat="9.001177" lon="-79.565886">
        <time>2026-08-04T11:36:23Z</time>
      </trkpt>
      <trkpt lat="9.001177" lon="-79.565886">
        <time>2026-08-04T11:36:25Z</time>
      </trkpt>
      <trkpt lat="9.001177" lon="-79.565886">
        <time>2026-08-04T11:36:33Z</time>
      </trkpt>
      <trkpt lat="9.001177" lon="-79.565886">
        <time>2026-08-04T11:36:36Z</time>
      </trkpt>
      <trkpt lat="9.001177" lon="-79.565886">
        <time>2026-08-04T11:36:42Z</time>
      </trkpt>
      <trkpt lat="9.001177" lon="-79.565886">
        <time>2026-08-04T11:36:59Z</time>
      </trkpt>
      <trkpt lat="9.001177" lon="-79.565886">
        <time>2026-08-04T11:37:19Z</time>
      </trkpt>
      <trkpt lat="9.001177" lon="-79.565886">
        <time>2026-08-04T11:37:23Z</time>
      </trkpt>
      <trkpt lat="9.001177" lon="-79.565886">
        <time>2026-08-04T11:37:29Z</time>
      </trkpt>
      <trkpt lat="9.001177" lon="-79.565886">
        <time>2026-08-04T11:37:31Z</time>
      </trkpt>
      <trkpt lat="9.001177" lon="-79.565886">
        <time>2026-08-04T11:37:36Z</time>
      </trkpt>
      <trkpt lat="9.001177" lon="-79.565886">
        <time>2026-08-04T11:37:42Z</time>
      </trkpt>
      <trkpt lat="9.001151" lon="-79.565893">
        <time>2026-08-04T11:37:47Z</time>
      </trkpt>
      <trkpt lat="9.001147" lon="-79.565893">
        <time>2026-08-04T11:37:54Z</time>
      </trkpt>
      <trkpt lat="9.001147" lon="-79.565893">
        <time>2026-08-04T11:37:58Z</time>
      </trkpt>
      <trkpt lat="9.001147" lon="-79.565893">
        <time>2026-08-04T11:38:00Z</time>
      </trkpt>
      <trkpt lat="9.001147" lon="-79.565893">
        <time>2026-08-04T11:38:02Z</time>
      </trkpt>
      <trkpt lat="9.001147" lon="-79.565893">
        <time>2026-08-04T11:38:03Z</time>
      </trkpt>
      <trkpt lat="9.001147" lon="-79.565893">
        <time>2026-08-04T11:38:11Z</time>
      </trkpt>
      <trkpt lat="9.001147" lon="-79.565893">
        <time>2026-08-04T11:38:13Z</time>
      </trkpt>
      <trkpt lat="9.001147" lon="-79.565893">
        <time>2026-08-04T11:38:14Z</time>
      </trkpt>
      <trkpt lat="9.001147" lon="-79.565893">
        <time>2026-08-04T11:38:16Z</time>
      </trkpt>
      <trkpt lat="9.001147" lon="-79.565893">
        <time>2026-08-04T11:38:30Z</time>
      </trkpt>
      <trkpt lat="9.001147" lon="-79.565893">
        <time>2026-08-04T11:38:37Z</time>
      </trkpt>
      <trkpt lat="9.001147" lon="-79.565893">
        <time>2026-08-04T11:38:39Z</time>
      </trkpt>
      <trkpt lat="9.001147" lon="-79.565893">
        <time>2026-08-04T11:38:48Z</time>
      </trkpt>
      <trkpt lat="9.001147" lon="-79.565893">
        <time>2026-08-04T11:38:52Z</time>
      </trkpt>
      <trkpt lat="9.001147" lon="-79.565893">
        <time>2026-08-04T11:38:57Z</time>
      </trkpt>
      <trkpt lat="9.001147" lon="-79.565893">
        <time>2026-08-04T11:39:03Z</time>
      </trkpt>
      <trkpt lat="9.001147" lon="-79.565893">
        <time>2026-08-04T11:39:16Z</time>
      </trkpt>
      <trkpt lat="9.001147" lon="-79.565893">
        <time>2026-08-04T11:39:23Z</time>
      </trkpt>
      <trkpt lat="9.001147" lon="-79.565893">
        <time>2026-08-04T11:39:24Z</time>
      </trkpt>
      <trkpt lat="9.001147" lon="-79.565893">
        <time>2026-08-04T11:39:26Z</time>
      </trkpt>
      <trkpt lat="9.001147" lon="-79.565893">
        <time>2026-08-04T11:39:28Z</time>
      </trkpt>
      <trkpt lat="9.001147" lon="-79.565893">
        <time>2026-08-04T11:39:31Z</time>
      </trkpt>
      <trkpt lat="9.001147" lon="-79.565893">
        <time>2026-08-04T11:39:34Z</time>
      </trkpt>
      <trkpt lat="9.001147" lon="-79.565893">
        <time>2026-08-04T11:39:51Z</time>
      </trkpt>
      <trkpt lat="9.001147" lon="-79.565893">
        <time>2026-08-04T11:39:58Z</time>
      </trkpt>
      <trkpt lat="9.001147" lon="-79.565893">
        <time>2026-08-04T11:40:03Z</time>
      </trkpt>
      <trkpt lat="9.001147" lon="-79.565893">
        <time>2026-08-04T11:40:05Z</time>
      </trkpt>
      <trkpt lat="9.001147" lon="-79.565893">
        <time>2026-08-04T11:40:18Z</time>
      </trkpt>
      <trkpt lat="9.001147" lon="-79.565893">
        <time>2026-08-04T11:40:25Z</time>
      </trkpt>
      <trkpt lat="9.001147" lon="-79.565893">
        <time>2026-08-04T11:40:28Z</time>
      </trkpt>
      <trkpt lat="9.001147" lon="-79.565893">
        <time>2026-08-04T11:40:41Z</time>
      </trkpt>
      <trkpt lat="9.001147" lon="-79.565893">
        <time>2026-08-04T11:40:46Z</time>
      </trkpt>
      <trkpt lat="9.001147" lon="-79.565893">
        <time>2026-08-04T11:40:52Z</time>
      </trkpt>
      <trkpt lat="9.001147" lon="-79.565893">
        <time>2026-08-04T11:40:59Z</time>
      </trkpt>
      <trkpt lat="9.001147" lon="-79.565893">
        <time>2026-08-04T11:41:09Z</time>
      </trkpt>
      <trkpt lat="9.001147" lon="-79.565893">
        <time>2026-08-04T11:41:17Z</time>
      </trkpt>
      <trkpt lat="9.001147" lon="-79.565893">
        <time>2026-08-04T11:41:18Z</time>
      </trkpt>
      <trkpt lat="9.001147" lon="-79.565893">
        <time>2026-08-04T11:41:22Z</time>
      </trkpt>
      <trkpt lat="9.001147" lon="-79.565893">
        <time>2026-08-04T11:41:27Z</time>
      </trkpt>
      <trkpt lat="9.001147" lon="-79.565893">
        <time>2026-08-04T11:41:28Z</time>
      </trkpt>
      <trkpt lat="9.001147" lon="-79.565893">
        <time>2026-08-04T11:41:34Z</time>
      </trkpt>
      <trkpt lat="9.001147" lon="-79.565893">
        <time>2026-08-04T11:41:43Z</time>
      </trkpt>
      <trkpt lat="9.001147" lon="-79.565893">
        <time>2026-08-04T11:41:52Z</time>
      </trkpt>
      <trkpt lat="9.001147" lon="-79.565893">
        <time>2026-08-04T11:42:08Z</time>
      </trkpt>
      <trkpt lat="9.001147" lon="-79.565893">
        <time>2026-08-04T11:42:16Z</time>
      </trkpt>
      <trkpt lat="9.001147" lon="-79.565893">
        <time>2026-08-04T11:42:26Z</time>
      </trkpt>
      <trkpt lat="9.001147" lon="-79.565893">
        <time>2026-08-04T11:42:34Z</time>
      </trkpt>
      <trkpt lat="9.001147" lon="-79.565893">
        <time>2026-08-04T11:42:35Z</time>
      </trkpt>
      <trkpt lat="9.001147" lon="-79.565893">
        <time>2026-08-04T11:42:54Z</time>
      </trkpt>
      <trkpt lat="9.001147" lon="-79.565893">
        <time>2026-08-04T11:42:57Z</time>
      </trkpt>
      <trkpt lat="9.001147" lon="-79.565893">
        <time>2026-08-04T11:42:58Z</time>
      </trkpt>
      <trkpt lat="9.001147" lon="-79.565893">
        <time>2026-08-04T11:43:00Z</time>
      </trkpt>
      <trkpt lat="9.001147" lon="-79.565893">
        <time>2026-08-04T11:43:08Z</time>
      </trkpt>
      <trkpt lat="9.001147" lon="-79.565893">
        <time>2026-08-04T11:43:09Z</time>
      </trkpt>
      <trkpt lat="9.001147" lon="-79.565893">
        <time>2026-08-04T11:43:12Z</time>
      </trkpt>
      <trkpt lat="9.001147" lon="-79.565893">
        <time>2026-08-04T11:43:14Z</time>
      </trkpt>
      <trkpt lat="9.001147" lon="-79.565893">
        <time>2026-08-04T11:43:17Z</time>
      </trkpt>
      <trkpt lat="9.001147" lon="-79.565893">
        <time>2026-08-04T11:43:23Z</time>
      </trkpt>
      <trkpt lat="9.001147" lon="-79.565893">
        <time>2026-08-04T11:43:26Z</time>
      </trkpt>
      <trkpt lat="9.001147" lon="-79.565893">
        <time>2026-08-04T11:43:36Z</time>
      </trkpt>
      <trkpt lat="9.001147" lon="-79.565893">
        <time>2026-08-04T11:43:37Z</time>
      </trkpt>
      <trkpt lat="9.001147" lon="-79.565893">
        <time>2026-08-04T11:43:39Z</time>
      </trkpt>
      <trkpt lat="9.001147" lon="-79.565893">
        <time>2026-08-04T11:43:41Z</time>
      </trkpt>
      <trkpt lat="9.001147" lon="-79.565893">
        <time>2026-08-04T11:43:44Z</time>
      </trkpt>
      <trkpt lat="9.001147" lon="-79.565893">
        <time>2026-08-04T11:43:47Z</time>
      </trkpt>
      <trkpt lat="9.001147" lon="-79.565893">
        <time>2026-08-04T11:43:55Z</time>
      </trkpt>
      <trkpt lat="9.001147" lon="-79.565893">
        <time>2026-08-04T11:43:57Z</time>
      </trkpt>
      <trkpt lat="9.001147" lon="-79.565893">
        <time>2026-08-04T11:44:09Z</time>
      </trkpt>
      <trkpt lat="9.001147" lon="-79.565893">
        <time>2026-08-04T11:44:36Z</time>
      </trkpt>
      <trkpt lat="9.001147" lon="-79.565893">
        <time>2026-08-04T11:44:46Z</time>
      </trkpt>
      <trkpt lat="9.001147" lon="-79.565893">
        <time>2026-08-04T11:44:49Z</time>
      </trkpt>
      <trkpt lat="9.001147" lon="-79.565893">
        <time>2026-08-04T11:44:51Z</time>
      </trkpt>
      <trkpt lat="9.001147" lon="-79.565893">
        <time>2026-08-04T11:45:13Z</time>
      </trkpt>
      <trkpt lat="9.001147" lon="-79.565893">
        <time>2026-08-04T11:45:16Z</time>
      </trkpt>
      <trkpt lat="9.001147" lon="-79.565893">
        <time>2026-08-04T11:45:28Z</time>
      </trkpt>
      <trkpt lat="9.001147" lon="-79.565893">
        <time>2026-08-04T11:45:34Z</time>
      </trkpt>
      <trkpt lat="9.001147" lon="-79.565893">
        <time>2026-08-04T11:45:35Z</time>
      </trkpt>
      <trkpt lat="9.001147" lon="-79.565893">
        <time>2026-08-04T11:45:39Z</time>
      </trkpt>
      <trkpt lat="9.001147" lon="-79.565893">
        <time>2026-08-04T11:45:45Z</time>
      </trkpt>
      <trkpt lat="9.001147" lon="-79.565893">
        <time>2026-08-04T11:45:50Z</time>
      </trkpt>
      <trkpt lat="9.001147" lon="-79.565893">
        <time>2026-08-04T11:45:59Z</time>
      </trkpt>
      <trkpt lat="9.001147" lon="-79.565893">
        <time>2026-08-04T11:46:03Z</time>
      </trkpt>
      <trkpt lat="9.001147" lon="-79.565893">
        <time>2026-08-04T11:46:22Z</time>
      </trkpt>
      <trkpt lat="9.001147" lon="-79.565893">
        <time>2026-08-04T11:46:24Z</time>
      </trkpt>
      <trkpt lat="9.001147" lon="-79.565893">
        <time>2026-08-04T11:46:27Z</time>
      </trkpt>
      <trkpt lat="9.001147" lon="-79.565893">
        <time>2026-08-04T11:46:43Z</time>
      </trkpt>
      <trkpt lat="9.001147" lon="-79.565893">
        <time>2026-08-04T11:46:51Z</time>
      </trkpt>
      <trkpt lat="9.001147" lon="-79.565893">
        <time>2026-08-04T11:47:01Z</time>
      </trkpt>
      <trkpt lat="9.001147" lon="-79.565893">
        <time>2026-08-04T11:47:04Z</time>
      </trkpt>
      <trkpt lat="9.001147" lon="-79.565893">
        <time>2026-08-04T11:47:06Z</time>
      </trkpt>
      <trkpt lat="9.001147" lon="-79.565893">
        <time>2026-08-04T11:47:31Z</time>
      </trkpt>
      <trkpt lat="9.001147" lon="-79.565893">
        <time>2026-08-04T11:47:40Z</time>
      </trkpt>
      <trkpt lat="9.001147" lon="-79.565893">
        <time>2026-08-04T11:47:48Z</time>
      </trkpt>
      <trkpt lat="9.001147" lon="-79.565893">
        <time>2026-08-04T11:47:51Z</time>
      </trkpt>
      <trkpt lat="9.001147" lon="-79.565893">
        <time>2026-08-04T11:47:54Z</time>
      </trkpt>
      <trkpt lat="9.001147" lon="-79.565893">
        <time>2026-08-04T11:47:57Z</time>
      </trkpt>
      <trkpt lat="9.001147" lon="-79.565893">
        <time>2026-08-04T11:47:58Z</time>
      </trkpt>
      <trkpt lat="9.001147" lon="-79.565893">
        <time>2026-08-04T11:48:15Z</time>
      </trkpt>
      <trkpt lat="9.001147" lon="-79.565893">
        <time>2026-08-04T11:48:39Z</time>
      </trkpt>
      <trkpt lat="9.001147" lon="-79.565893">
        <time>2026-08-04T11:48:40Z</time>
      </trkpt>
      <trkpt lat="9.001147" lon="-79.565893">
        <time>2026-08-04T11:48:53Z</time>
      </trkpt>
      <trkpt lat="9.001147" lon="-79.565893">
        <time>2026-08-04T11:48:57Z</time>
      </trkpt>
      <trkpt lat="9.001147" lon="-79.565893">
        <time>2026-08-04T11:49:10Z</time>
      </trkpt>
      <trkpt lat="9.001147" lon="-79.565893">
        <time>2026-08-04T11:49:15Z</time>
      </trkpt>
      <trkpt lat="9.001147" lon="-79.565893">
        <time>2026-08-04T11:49:20Z</time>
      </trkpt>
      <trkpt lat="9.001147" lon="-79.565893">
        <time>2026-08-04T11:49:22Z</time>
      </trkpt>
      <trkpt lat="9.001147" lon="-79.565907">
        <time>2026-08-04T11:49:29Z</time>
      </trkpt>
      <trkpt lat="9.001147" lon="-79.565907">
        <time>2026-08-04T11:49:31Z</time>
      </trkpt>
      <trkpt lat="9.001147" lon="-79.565907">
        <time>2026-08-04T11:49:34Z</time>
      </trkpt>
      <trkpt lat="9.001165" lon="-79.565912">
        <time>2026-08-04T11:49:39Z</time>
      </trkpt>
      <trkpt lat="9.001221" lon="-79.565903">
        <time>2026-08-04T11:49:45Z</time>
      </trkpt>
      <trkpt lat="9.001237" lon="-79.565893">
        <time>2026-08-04T11:49:49Z</time>
      </trkpt>
      <trkpt lat="9.001243" lon="-79.565891">
        <time>2026-08-04T11:49:50Z</time>
      </trkpt>
      <trkpt lat="9.001258" lon="-79.565891">
        <time>2026-08-04T11:49:52Z</time>
      </trkpt>
      <trkpt lat="9.001268" lon="-79.565889">
        <time>2026-08-04T11:49:53Z</time>
      </trkpt>
      <trkpt lat="9.001296" lon="-79.565882">
        <time>2026-08-04T11:49:56Z</time>
      </trkpt>
      <trkpt lat="9.001328" lon="-79.565877">
        <time>2026-08-04T11:49:59Z</time>
      </trkpt>
      <trkpt lat="9.001337" lon="-79.565872">
        <time>2026-08-04T11:50:00Z</time>
      </trkpt>
      <trkpt lat="9.001366" lon="-79.565865">
        <time>2026-08-04T11:50:03Z</time>
      </trkpt>
      <trkpt lat="9.001407" lon="-79.565849">
        <time>2026-08-04T11:50:07Z</time>
      </trkpt>
      <trkpt lat="9.001468" lon="-79.565833">
        <time>2026-08-04T11:50:13Z</time>
      </trkpt>
      <trkpt lat="9.001524" lon="-79.565817">
        <time>2026-08-04T11:50:19Z</time>
      </trkpt>
      <trkpt lat="9.001546" lon="-79.565808">
        <time>2026-08-04T11:50:22Z</time>
      </trkpt>
      <trkpt lat="9.001579" lon="-79.565802">
        <time>2026-08-04T11:50:27Z</time>
      </trkpt>
      <trkpt lat="9.001620" lon="-79.565791">
        <time>2026-08-04T11:50:31Z</time>
      </trkpt>
      <trkpt lat="9.001641" lon="-79.565782">
        <time>2026-08-04T11:50:33Z</time>
      </trkpt>
      <trkpt lat="9.001681" lon="-79.565773">
        <time>2026-08-04T11:50:36Z</time>
      </trkpt>
      <trkpt lat="9.001768" lon="-79.565748">
        <time>2026-08-04T11:50:43Z</time>
      </trkpt>
      <trkpt lat="9.001812" lon="-79.565738">
        <time>2026-08-04T11:50:47Z</time>
      </trkpt>
      <trkpt lat="9.001857" lon="-79.565734">
        <time>2026-08-04T11:50:51Z</time>
      </trkpt>
      <trkpt lat="9.001920" lon="-79.565740">
        <time>2026-08-04T11:50:57Z</time>
      </trkpt>
      <trkpt lat="9.001951" lon="-79.565741">
        <time>2026-08-04T11:51:00Z</time>
      </trkpt>
      <trkpt lat="9.001992" lon="-79.565746">
        <time>2026-08-04T11:51:04Z</time>
      </trkpt>
      <trkpt lat="9.002061" lon="-79.565745">
        <time>2026-08-04T11:51:11Z</time>
      </trkpt>
      <trkpt lat="9.002130" lon="-79.565747">
        <time>2026-08-04T11:51:17Z</time>
      </trkpt>
      <trkpt lat="9.002188" lon="-79.565754">
        <time>2026-08-04T11:51:23Z</time>
      </trkpt>
      <trkpt lat="9.002265" lon="-79.565776">
        <time>2026-08-04T11:51:31Z</time>
      </trkpt>
      <trkpt lat="9.002370" lon="-79.565792">
        <time>2026-08-04T11:51:39Z</time>
      </trkpt>
      <trkpt lat="9.002440" lon="-79.565802">
        <time>2026-08-04T11:51:45Z</time>
      </trkpt>
      <trkpt lat="9.002526" lon="-79.565805">
        <time>2026-08-04T11:51:52Z</time>
      </trkpt>
      <trkpt lat="9.002610" lon="-79.565816">
        <time>2026-08-04T11:51:59Z</time>
      </trkpt>
      <trkpt lat="9.002622" lon="-79.565820">
        <time>2026-08-04T11:52:00Z</time>
      </trkpt>
      <trkpt lat="9.002717" lon="-79.565841">
        <time>2026-08-04T11:52:08Z</time>
      </trkpt>
      <trkpt lat="9.002791" lon="-79.565858">
        <time>2026-08-04T11:52:14Z</time>
      </trkpt>
      <trkpt lat="9.002811" lon="-79.565862">
        <time>2026-08-04T11:52:16Z</time>
      </trkpt>
      <trkpt lat="9.002895" lon="-79.565852">
        <time>2026-08-04T11:52:24Z</time>
      </trkpt>
      <trkpt lat="9.002922" lon="-79.565853">
        <time>2026-08-04T11:52:28Z</time>
      </trkpt>
      <trkpt lat="9.002928" lon="-79.565851">
        <time>2026-08-04T11:52:30Z</time>
      </trkpt>
      <trkpt lat="9.002933" lon="-79.565845">
        <time>2026-08-04T11:52:35Z</time>
      </trkpt>
      <trkpt lat="9.002928" lon="-79.565851">
        <time>2026-08-04T11:52:37Z</time>
      </trkpt>
      <trkpt lat="9.002928" lon="-79.565851">
        <time>2026-08-04T11:52:49Z</time>
      </trkpt>
      <trkpt lat="9.002936" lon="-79.565836">
        <time>2026-08-04T11:52:57Z</time>
      </trkpt>
      <trkpt lat="9.002936" lon="-79.565836">
        <time>2026-08-04T11:52:58Z</time>
      </trkpt>
      <trkpt lat="9.002936" lon="-79.565836">
        <time>2026-08-04T11:52:59Z</time>
      </trkpt>
      <trkpt lat="9.002936" lon="-79.565836">
        <time>2026-08-04T11:53:03Z</time>
      </trkpt>
      <trkpt lat="9.002936" lon="-79.565836">
        <time>2026-08-04T11:53:04Z</time>
      </trkpt>
      <trkpt lat="9.002936" lon="-79.565836">
        <time>2026-08-04T11:53:05Z</time>
      </trkpt>
      <trkpt lat="9.002945" lon="-79.565821">
        <time>2026-08-04T11:53:10Z</time>
      </trkpt>
      <trkpt lat="9.002945" lon="-79.565815">
        <time>2026-08-04T11:53:14Z</time>
      </trkpt>
      <trkpt lat="9.002945" lon="-79.565818">
        <time>2026-08-04T11:53:17Z</time>
      </trkpt>
      <trkpt lat="9.002945" lon="-79.565818">
        <time>2026-08-04T11:53:21Z</time>
      </trkpt>
      <trkpt lat="9.002945" lon="-79.565818">
        <time>2026-08-04T11:53:24Z</time>
      </trkpt>
      <trkpt lat="9.002944" lon="-79.565802">
        <time>2026-08-04T11:53:26Z</time>
      </trkpt>
      <trkpt lat="9.002939" lon="-79.565792">
        <time>2026-08-04T11:53:27Z</time>
      </trkpt>
      <trkpt lat="9.002936" lon="-79.565791">
        <time>2026-08-04T11:53:29Z</time>
      </trkpt>
      <trkpt lat="9.002936" lon="-79.565791">
        <time>2026-08-04T11:53:34Z</time>
      </trkpt>
      <trkpt lat="9.002936" lon="-79.565791">
        <time>2026-08-04T11:53:37Z</time>
      </trkpt>
      <trkpt lat="9.002936" lon="-79.565791">
        <time>2026-08-04T11:53:46Z</time>
      </trkpt>
      <trkpt lat="9.002936" lon="-79.565791">
        <time>2026-08-04T11:53:55Z</time>
      </trkpt>
      <trkpt lat="9.002936" lon="-79.565791">
        <time>2026-08-04T11:53:57Z</time>
      </trkpt>
      <trkpt lat="9.002936" lon="-79.565791">
        <time>2026-08-04T11:54:01Z</time>
      </trkpt>
      <trkpt lat="9.002931" lon="-79.565794">
        <time>2026-08-04T11:54:05Z</time>
      </trkpt>
      <trkpt lat="9.002982" lon="-79.565815">
        <time>2026-08-04T11:54:10Z</time>
      </trkpt>
      <trkpt lat="9.003038" lon="-79.565844">
        <time>2026-08-04T11:54:12Z</time>
      </trkpt>
      <trkpt lat="9.003140" lon="-79.565884">
        <time>2026-08-04T11:54:15Z</time>
      </trkpt>
      <trkpt lat="9.003175" lon="-79.565892">
        <time>2026-08-04T11:54:16Z</time>
      </trkpt>
      <trkpt lat="9.003213" lon="-79.565902">
        <time>2026-08-04T11:54:17Z</time>
      </trkpt>
      <trkpt lat="9.003332" lon="-79.565933">
        <time>2026-08-04T11:54:20Z</time>
      </trkpt>
      <trkpt lat="9.003456" lon="-79.565964">
        <time>2026-08-04T11:54:23Z</time>
      </trkpt>
      <trkpt lat="9.003500" lon="-79.565975">
        <time>2026-08-04T11:54:24Z</time>
      </trkpt>
      <trkpt lat="9.003549" lon="-79.565988">
        <time>2026-08-04T11:54:25Z</time>
      </trkpt>
      <trkpt lat="9.003786" lon="-79.566026">
        <time>2026-08-04T11:54:29Z</time>
      </trkpt>
      <trkpt lat="9.003984" lon="-79.566040">
        <time>2026-08-04T11:54:32Z</time>
      </trkpt>
      <trkpt lat="9.004184" lon="-79.566033">
        <time>2026-08-04T11:54:35Z</time>
      </trkpt>
      <trkpt lat="9.004310" lon="-79.566026">
        <time>2026-08-04T11:54:37Z</time>
      </trkpt>
      <trkpt lat="9.004430" lon="-79.566011">
        <time>2026-08-04T11:54:39Z</time>
      </trkpt>
      <trkpt lat="9.004579" lon="-79.565991">
        <time>2026-08-04T11:54:42Z</time>
      </trkpt>
      <trkpt lat="9.004614" lon="-79.565977">
        <time>2026-08-04T11:54:43Z</time>
      </trkpt>
      <trkpt lat="9.004662" lon="-79.565941">
        <time>2026-08-04T11:54:45Z</time>
      </trkpt>
      <trkpt lat="9.004674" lon="-79.565908">
        <time>2026-08-04T11:54:47Z</time>
      </trkpt>
      <trkpt lat="9.004668" lon="-79.565856">
        <time>2026-08-04T11:54:50Z</time>
      </trkpt>
      <trkpt lat="9.004639" lon="-79.565794">
        <time>2026-08-04T11:54:52Z</time>
      </trkpt>
      <trkpt lat="9.004502" lon="-79.565602">
        <time>2026-08-04T11:54:56Z</time>
      </trkpt>
      <trkpt lat="9.004353" lon="-79.565403">
        <time>2026-08-04T11:54:59Z</time>
      </trkpt>
      <trkpt lat="9.004298" lon="-79.565330">
        <time>2026-08-04T11:55:00Z</time>
      </trkpt>
      <trkpt lat="9.004246" lon="-79.565257">
        <time>2026-08-04T11:55:01Z</time>
      </trkpt>
      <trkpt lat="9.004140" lon="-79.565106">
        <time>2026-08-04T11:55:03Z</time>
      </trkpt>
      <trkpt lat="9.004044" lon="-79.564942">
        <time>2026-08-04T11:55:05Z</time>
      </trkpt>
      <trkpt lat="9.003951" lon="-79.564767">
        <time>2026-08-04T11:55:07Z</time>
      </trkpt>
      <trkpt lat="9.003864" lon="-79.564577">
        <time>2026-08-04T11:55:09Z</time>
      </trkpt>
      <trkpt lat="9.003816" lon="-79.564483">
        <time>2026-08-04T11:55:10Z</time>
      </trkpt>
      <trkpt lat="9.003730" lon="-79.564287">
        <time>2026-08-04T11:55:12Z</time>
      </trkpt>
      <trkpt lat="9.003722" lon="-79.564040">
        <time>2026-08-04T11:55:14Z</time>
      </trkpt>
      <trkpt lat="9.003720" lon="-79.563927">
        <time>2026-08-04T11:55:15Z</time>
      </trkpt>
      <trkpt lat="9.003709" lon="-79.563723">
        <time>2026-08-04T11:55:17Z</time>
      </trkpt>
    </trkseg>
  </trk>
</gpx>
