<?xml version="1.0" encoding="UTF-8"?>
<gpx version="1.1" creator="FitFilter" xmlns="http://www.topografix.com/GPX/1/1" xmlns:xsi="http://www.w3.org/2001/XMLSchema-instance" xsi:schemaLocation="http://www.topografix.com/GPX/1/1 http://www.topografix.com/GPX/1/1/gpx.xsd">
  <metadata>
    <time>2026-09-01T11:15:24Z</time>
  </metadata>
  <trk>
    <name>Walking - 2026-09-01 11:15</name>
    <type>walking</type>
    <trkseg>
      <trkpt lat="9.004714" lon="-79.572176">
        <time>2026-09-01T11:15:24Z</time>
      </trkpt>
      <trkpt lat="9.004722" lon="-79.572167">
        <time>2026-09-01T11:15:25Z</time>
      </trkpt>
      <trkpt lat="9.004741" lon="-79.572120">
        <time>2026-09-01T11:15:30Z</time>
      </trkpt>
      <trkpt lat="9.004767" lon="-79.572070">
        <time>2026-09-01T11:15:35Z</time>
      </trkpt>
      <trkpt lat="9.004775" lon="-79.572044">
        <time>2026-09-01T11:15:37Z</time>
      </trkpt>
      <trkpt lat="9.004787" lon="-79.572017">
        <time>2026-09-01T11:15:39Z</time>
      </trkpt>
      <trkpt lat="9.004796" lon="-79.572010">
        <time>2026-09-01T11:15:40Z</time>
      </trkpt>
      <trkpt lat="9.004805" lon="-79.572003">
        <time>2026-09-01T11:15:41Z</time>
      </trkpt>
      <trkpt lat="9.004832" lon="-79.571925">
        <time>2026-09-01T11:15:47Z</time>
      </trkpt>
      <trkpt lat="9.004829" lon="-79.571896">
        <time>2026-09-01T11:15:49Z</time>
      </trkpt>
      <trkpt lat="9.004825" lon="-79.571883">
        <time>2026-09-01T11:15:50Z</time>
      </trkpt>
      <trkpt lat="9.004830" lon="-79.571844">
        <time>2026-09-01T11:15:53Z</time>
      </trkpt>
      <trkpt lat="9.004833" lon="-79.571830">
        <time>2026-09-01T11:15:54Z</time>
      </trkpt>
      <trkpt lat="9.004852" lon="-79.571750">
        <time>2026-09-01T11:16:00Z</time>
      </trkpt>
      <trkpt lat="9.004853" lon="-79.571735">
        <time>2026-09-01T11:16:01Z</time>
      </trkpt>
      <trkpt lat="9.004862" lon="-79.571657">
        <time>2026-09-01T11:16:07Z</time>
      </trkpt>
      <trkpt lat="9.004864" lon="-79.571646">
        <time>2026-09-01T11:16:08Z</time>
      </trkpt>
      <trkpt lat="9.004872" lon="-79.571595">
        <time>2026-09-01T11:16:12Z</time>
      </trkpt>
      <trkpt lat="9.004873" lon="-79.571582">
        <time>2026-09-01T11:16:13Z</time>
      </trkpt>
      <trkpt lat="9.004877" lon="-79.571557">
        <time>2026-09-01T11:16:15Z</time>
      </trkpt>
      <trkpt lat="9.004883" lon="-79.571533">
        <time>2026-09-01T11:16:17Z</time>
      </trkpt>
      <trkpt lat="9.004884" lon="-79.571523">
        <time>2026-09-01T11:16:18Z</time>
      </trkpt>
      <trkpt lat="9.004885" lon="-79.571500">
        <time>2026-09-01T11:16:20Z</time>
      </trkpt>
      <trkpt lat="9.004888" lon="-79.571476">
        <time>2026-09-01T11:16:22Z</time>
      </trkpt>
      <trkpt lat="9.004894" lon="-79.571463">
        <time>2026-09-01T11:16:23Z</time>
      </trkpt>
      <trkpt lat="9.004907" lon="-79.571420">
        <time>2026-09-01T11:16:26Z</time>
      </trkpt>
      <trkpt lat="9.004915" lon="-79.571361">
        <time>2026-09-01T11:16:29Z</time>
      </trkpt>
      <trkpt lat="9.004923" lon="-79.571261">
        <time>2026-09-01T11:16:33Z</time>
      </trkpt>
      <trkpt lat="9.004926" lon="-79.571237">
        <time>2026-09-01T11:16:34Z</time>
      </trkpt>
      <trkpt lat="9.004928" lon="-79.571212">
        <time>2026-09-01T11:16:35Z</time>
      </trkpt>
      <trkpt lat="9.004936" lon="-79.571140">
        <time>2026-09-01T11:16:38Z</time>
      </trkpt>
      <trkpt lat="9.004942" lon="-79.571068">
        <time>2026-09-01T11:16:41Z</time>
      </trkpt>
      <trkpt lat="9.004942" lon="-79.571049">
        <time>2026-09-01T11:16:42Z</time>
      </trkpt>
      <trkpt lat="9.004928" lon="-79.570991">
        <time>2026-09-01T11:16:47Z</time>
      </trkpt>
      <trkpt lat="9.004922" lon="-79.570966">
        <time>2026-09-01T11:16:49Z</time>
      </trkpt>
      <trkpt lat="9.004921" lon="-79.570941">
        <time>2026-09-01T11:16:51Z</time>
      </trkpt>
      <trkpt lat="9.004918" lon="-79.570929">
        <time>2026-09-01T11:16:52Z</time>
      </trkpt>
      <trkpt lat="9.004919" lon="-79.570919">
        <time>2026-09-01T11:16:53Z</time>
      </trkpt>
      <trkpt lat="9.004920" lon="-79.570892">
        <time>2026-09-01T11:16:55Z</time>
      </trkpt>
      <trkpt lat="9.004921" lon="-79.570863">
        <time>2026-09-01T11:16:58Z</time>
      </trkpt>
      <trkpt lat="9.004927" lon="-79.570817">
        <time>2026-09-01T11:17:03Z</time>
      </trkpt>
      <trkpt lat="9.004940" lon="-79.570742">
        <time>2026-09-01T11:17:10Z</time>
      </trkpt>
      <trkpt lat="9.004943" lon="-79.570691">
        <time>2026-09-01T11:17:15Z</time>
      </trkpt>
      <trkpt lat="9.004950" lon="-79.570677">
        <time>2026-09-01T11:17:16Z</time>
      </trkpt>
      <trkpt lat="9.004963" lon="-79.570623">
        <time>2026-09-01T11:17:21Z</time>
      </trkpt>
      <trkpt lat="9.004976" lon="-79.570566">
        <time>2026-09-01T11:17:26Z</time>
      </trkpt>
      <trkpt lat="9.004991" lon="-79.570516">
        <time>2026-09-01T11:17:30Z</time>
      </trkpt>
      <trkpt lat="9.005017" lon="-79.570433">
        <time>2026-09-01T11:17:37Z</time>
      </trkpt>
      <trkpt lat="9.005020" lon="-79.570420">
        <time>2026-09-01T11:17:38Z</time>
      </trkpt>
      <trkpt lat="9.005047" lon="-79.570373">
        <time>2026-09-01T11:17:43Z</time>
      </trkpt>
      <trkpt lat="9.005063" lon="-79.570294">
        <time>2026-09-01T11:17:50Z</time>
      </trkpt>
      <trkpt lat="9.005079" lon="-79.570230">
        <time>2026-09-01T11:17:55Z</time>
      </trkpt>
      <trkpt lat="9.005088" lon="-79.570193">
        <time>2026-09-01T11:17:58Z</time>
      </trkpt>
      <trkpt lat="9.005108" lon="-79.570145">
        <time>2026-09-01T11:18:02Z</time>
      </trkpt>
      <trkpt lat="9.005122" lon="-79.570087">
        <time>2026-09-01T11:18:06Z</time>
      </trkpt>
      <trkpt lat="9.005126" lon="-79.570075">
        <time>2026-09-01T11:18:07Z</time>
      </trkpt>
      <trkpt lat="9.005157" lon="-79.569987">
        <time>2026-09-01T11:18:15Z</time>
      </trkpt>
      <trkpt lat="9.005207" lon="-79.569876">
        <time>2026-09-01T11:18:24Z</time>
      </trkpt>
      <trkpt lat="9.005222" lon="-79.569841">
        <time>2026-09-01T11:18:27Z</time>
      </trkpt>
      <trkpt lat="9.005258" lon="-79.569777">
        <time>2026-09-01T11:18:33Z</time>
      </trkpt>
      <trkpt lat="9.005289" lon="-79.569673">
        <time>2026-09-01T11:18:41Z</time>
      </trkpt>
      <trkpt lat="9.005328" lon="-79.569582">
        <time>2026-09-01T11:18:49Z</time>
      </trkpt>
      <trkpt lat="9.005356" lon="-79.569496">
        <time>2026-09-01T11:18:56Z</time>
      </trkpt>
      <trkpt lat="9.005374" lon="-79.569440">
        <time>2026-09-01T11:19:00Z</time>
      </trkpt>
      <trkpt lat="9.005380" lon="-79.569409">
        <time>2026-09-01T11:19:03Z</time>
      </trkpt>
      <trkpt lat="9.005393" lon="-79.569314">
        <time>2026-09-01T11:19:10Z</time>
      </trkpt>
      <trkpt lat="9.005415" lon="-79.569228">
        <time>2026-09-01T11:19:17Z</time>
      </trkpt>
      <trkpt lat="9.005411" lon="-79.569204">
        <time>2026-09-01T11:19:19Z</time>
      </trkpt>
      <trkpt lat="9.005415" lon="-79.569153">
        <time>2026-09-01T11:19:23Z</time>
      </trkpt>
      <trkpt lat="9.005429" lon="-79.569116">
        <time>2026-09-01T11:19:26Z</time>
      </trkpt>
      <trkpt lat="9.005453" lon="-79.569033">
        <time>2026-09-01T11:19:33Z</time>
      </trkpt>
      <trkpt lat="9.005488" lon="-79.568965">
        <time>2026-09-01T11:19:39Z</time>
      </trkpt>
      <trkpt lat="9.005515" lon="-79.568876">
        <time>2026-09-01T11:19:47Z</time>
      </trkpt>
      <trkpt lat="9.005551" lon="-79.568787">
        <time>2026-09-01T11:19:53Z</time>
      </trkpt>
      <trkpt lat="9.005551" lon="-79.568773">
        <time>2026-09-01T11:19:54Z</time>
      </trkpt>
      <trkpt lat="9.005575" lon="-79.568689">
        <time>2026-09-01T11:20:01Z</time>
      </trkpt>
      <trkpt lat="9.005589" lon="-79.568628">
        <time>2026-09-01T11:20:07Z</time>
      </trkpt>
      <trkpt lat="9.005604" lon="-79.568542">
        <time>2026-09-01T11:20:14Z</time>
      </trkpt>
      <trkpt lat="9.005604" lon="-79.568530">
        <time>2026-09-01T11:20:15Z</time>
      </trkpt>
      <trkpt lat="9.005620" lon="-79.568431">
        <time>2026-09-01T11:20:23Z</time>
      </trkpt>
      <trkpt lat="9.005666" lon="-79.568346">
        <time>2026-09-01T11:20:31Z</time>
      </trkpt>
      <trkpt lat="9.005701" lon="-79.568304">
        <time>2026-09-01T11:20:36Z</time>
      </trkpt>
      <trkpt lat="9.005704" lon="-79.568291">
        <time>2026-09-01T11:20:37Z</time>
      </trkpt>
      <trkpt lat="9.005716" lon="-79.568268">
        <time>2026-09-01T11:20:39Z</time>
      </trkpt>
      <trkpt lat="9.005755" lon="-79.568216">
        <time>2026-09-01T11:20:44Z</time>
      </trkpt>
      <trkpt lat="9.005777" lon="-79.568174">
        <time>2026-09-01T11:20:48Z</time>
      </trkpt>
      <trkpt lat="9.005806" lon="-79.568107">
        <time>2026-09-01T11:20:53Z</time>
      </trkpt>
      <trkpt lat="9.005820" lon="-79.568040">
        <time>2026-09-01T11:20:58Z</time>
      </trkpt>
      <trkpt lat="9.005817" lon="-79.568000">
        <time>2026-09-01T11:21:01Z</time>
      </trkpt>
      <trkpt lat="9.005774" lon="-79.567921">
        <time>2026-09-01T11:21:08Z</time>
      </trkpt>
      <trkpt lat="9.005750" lon="-79.567888">
        <time>2026-09-01T11:21:11Z</time>
      </trkpt>
      <trkpt lat="9.005715" lon="-79.567849">
        <time>2026-09-01T11:21:15Z</time>
      </trkpt>
      <trkpt lat="9.005708" lon="-79.567839">
        <time>2026-09-01T11:21:16Z</time>
      </trkpt>
      <trkpt lat="9.005641" lon="-79.567766">
        <time>2026-09-01T11:21:24Z</time>
      </trkpt>
      <trkpt lat="9.005582" lon="-79.567687">
        <time>2026-09-01T11:21:32Z</time>
      </trkpt>
      <trkpt lat="9.005533" lon="-79.567618">
        <time>2026-09-01T11:21:39Z</time>
      </trkpt>
      <trkpt lat="9.005485" lon="-79.567555">
        <time>2026-09-01T11:21:45Z</time>
      </trkpt>
      <trkpt lat="9.005478" lon="-79.567548">
        <time>2026-09-01T11:21:46Z</time>
      </trkpt>
      <trkpt lat="9.005439" lon="-79.567482">
        <time>2026-09-01T11:21:51Z</time>
      </trkpt>
      <trkpt lat="9.005428" lon="-79.567459">
        <time>2026-09-01T11:21:53Z</time>
      </trkpt>
      <trkpt lat="9.005385" lon="-79.567385">
        <time>2026-09-01T11:22:00Z</time>
      </trkpt>
      <trkpt lat="9.005359" lon="-79.567333">
        <time>2026-09-01T11:22:05Z</time>
      </trkpt>
      <trkpt lat="9.005350" lon="-79.567321">
        <time>2026-09-01T11:22:06Z</time>
      </trkpt>
      <trkpt lat="9.005331" lon="-79.567261">
        <time>2026-09-01T11:22:11Z</time>
      </trkpt>
      <trkpt lat="9.005327" lon="-79.567250">
        <time>2026-09-01T11:22:12Z</time>
      </trkpt>
      <trkpt lat="9.005321" lon="-79.567238">
        <time>2026-09-01T11:22:13Z</time>
      </trkpt>
      <trkpt lat="9.005299" lon="-79.567198">
        <time>2026-09-01T11:22:17Z</time>
      </trkpt>
      <trkpt lat="9.005286" lon="-79.567161">
        <time>2026-09-01T11:22:20Z</time>
      </trkpt>
      <trkpt lat="9.005277" lon="-79.567137">
        <time>2026-09-01T11:22:22Z</time>
      </trkpt>
      <trkpt lat="9.005249" lon="-79.567078">
        <time>2026-09-01T11:22:27Z</time>
      </trkpt>
      <trkpt lat="9.005236" lon="-79.567028">
        <time>2026-09-01T11:22:31Z</time>
      </trkpt>
      <trkpt lat="9.005227" lon="-79.567016">
        <time>2026-09-01T11:22:32Z</time>
      </trkpt>
      <trkpt lat="9.005199" lon="-79.566939">
        <time>2026-09-01T11:22:38Z</time>
      </trkpt>
      <trkpt lat="9.005199" lon="-79.566904">
        <time>2026-09-01T11:22:41Z</time>
      </trkpt>
      <trkpt lat="9.005198" lon="-79.566852">
        <time>2026-09-01T11:22:45Z</time>
      </trkpt>
      <trkpt lat="9.005195" lon="-79.566837">
        <time>2026-09-01T11:22:46Z</time>
      </trkpt>
      <trkpt lat="9.005182" lon="-79.566803">
        <time>2026-09-01T11:22:49Z</time>
      </trkpt>
      <trkpt lat="9.005150" lon="-79.566672">
        <time>2026-09-01T11:22:59Z</time>
      </trkpt>
      <trkpt lat="9.005116" lon="-79.566552">
        <time>2026-09-01T11:23:08Z</time>
      </trkpt>
      <trkpt lat="9.005079" lon="-79.566464">
        <time>2026-09-01T11:23:16Z</time>
      </trkpt>
      <trkpt lat="9.005050" lon="-79.566407">
        <time>2026-09-01T11:23:21Z</time>
      </trkpt>
      <trkpt lat="9.005013" lon="-79.566348">
        <time>2026-09-01T11:23:26Z</time>
      </trkpt>
      <trkpt lat="9.004938" lon="-79.566213">
        <time>2026-09-01T11:23:37Z</time>
      </trkpt>
      <trkpt lat="9.004891" lon="-79.566143">
        <time>2026-09-01T11:23:43Z</time>
      </trkpt>
      <trkpt lat="9.004867" lon="-79.566095">
        <time>2026-09-01T11:23:47Z</time>
      </trkpt>
      <trkpt lat="9.004815" lon="-79.566009">
        <time>2026-09-01T11:23:54Z</time>
      </trkpt>
      <trkpt lat="9.004779" lon="-79.565962">
        <time>2026-09-01T11:23:58Z</time>
      </trkpt>
      <trkpt lat="9.004673" lon="-79.565931">
        <time>2026-09-01T11:24:05Z</time>
      </trkpt>
      <trkpt lat="9.004660" lon="-79.565930">
        <time>2026-09-01T11:24:06Z</time>
      </trkpt>
      <trkpt lat="9.004548" lon="-79.565945">
        <time>2026-09-01T11:24:14Z</time>
      </trkpt>
      <trkpt lat="9.004486" lon="-79.565967">
        <time>2026-09-01T11:24:19Z</time>
      </trkpt>
      <trkpt lat="9.004464" lon="-79.565972">
        <time>2026-09-01T11:24:21Z</time>
      </trkpt>
      <trkpt lat="9.004437" lon="-79.565978">
        <time>2026-09-01T11:24:23Z</time>
      </trkpt>
      <trkpt lat="9.004383" lon="-79.565987">
        <time>2026-09-01T11:24:28Z</time>
      </trkpt>
      <trkpt lat="9.004341" lon="-79.565989">
        <time>2026-09-01T11:24:31Z</time>
      </trkpt>
      <trkpt lat="9.004313" lon="-79.565995">
        <time>2026-09-01T11:24:33Z</time>
      </trkpt>
      <trkpt lat="9.004289" lon="-79.566000">
        <time>2026-09-01T11:24:35Z</time>
      </trkpt>
      <trkpt lat="9.004194" lon="-79.566008">
        <time>2026-09-01T11:24:43Z</time>
      </trkpt>
      <trkpt lat="9.004131" lon="-79.566013">
        <time>2026-09-01T11:24:48Z</time>
      </trkpt>
      <trkpt lat="9.004109" lon="-79.566017">
        <time>2026-09-01T11:24:50Z</time>
      </trkpt>
      <trkpt lat="9.004029" lon="-79.566023">
        <time>2026-09-01T11:24:56Z</time>
      </trkpt>
      <trkpt lat="9.004017" lon="-79.566023">
        <time>2026-09-01T11:24:57Z</time>
      </trkpt>
      <trkpt lat="9.003920" lon="-79.566016">
        <time>2026-09-01T11:25:05Z</time>
      </trkpt>
      <trkpt lat="9.003882" lon="-79.566012">
        <time>2026-09-01T11:25:08Z</time>
      </trkpt>
      <trkpt lat="9.003855" lon="-79.566012">
        <time>2026-09-01T11:25:10Z</time>
      </trkpt>
      <trkpt lat="9.003825" lon="-79.566013">
        <time>2026-09-01T11:25:13Z</time>
      </trkpt>
      <trkpt lat="9.003775" lon="-79.566006">
        <time>2026-09-01T11:25:17Z</time>
      </trkpt>
      <trkpt lat="9.003733" lon="-79.566014">
        <time>2026-09-01T11:25:21Z</time>
      </trkpt>
      <trkpt lat="9.003695" lon="-79.566011">
        <time>2026-09-01T11:25:24Z</time>
      </trkpt>
      <trkpt lat="9.003674" lon="-79.566003">
        <time>2026-09-01T11:25:26Z</time>
      </trkpt>
      <trkpt lat="9.003650" lon="-79.565999">
        <time>2026-09-01T11:25:28Z</time>
      </trkpt>
      <trkpt lat="9.003602" lon="-79.566003">
        <time>2026-09-01T11:25:32Z</time>
      </trkpt>
      <trkpt lat="9.003584" lon="-79.566001">
        <time>2026-09-01T11:25:34Z</time>
      </trkpt>
      <trkpt lat="9.003547" lon="-79.565985">
        <time>2026-09-01T11:25:37Z</time>
      </trkpt>
      <trkpt lat="9.003499" lon="-79.565986">
        <time>2026-09-01T11:25:41Z</time>
      </trkpt>
      <trkpt lat="9.003422" lon="-79.565974">
        <time>2026-09-01T11:25:47Z</time>
      </trkpt>
      <trkpt lat="9.003352" lon="-79.565962">
        <time>2026-09-01T11:25:53Z</time>
      </trkpt>
      <trkpt lat="9.003287" lon="-79.565952">
        <time>2026-09-01T11:25:59Z</time>
      </trkpt>
      <trkpt lat="9.003222" lon="-79.565934">
        <time>2026-09-01T11:26:05Z</time>
      </trkpt>
      <trkpt lat="9.003209" lon="-79.565929">
        <time>2026-09-01T11:26:06Z</time>
      </trkpt>
      <trkpt lat="9.003145" lon="-79.565905">
        <time>2026-09-01T11:26:12Z</time>
      </trkpt>
      <trkpt lat="9.003084" lon="-79.565874">
        <time>2026-09-01T11:26:18Z</time>
      </trkpt>
      <trkpt lat="9.003041" lon="-79.565861">
        <time>2026-09-01T11:26:22Z</time>
      </trkpt>
      <trkpt lat="9.003014" lon="-79.565848">
        <time>2026-09-01T11:26:25Z</time>
      </trkpt>
      <trkpt lat="9.002984" lon="-79.565835">
        <time>2026-09-01T11:26:28Z</time>
      </trkpt>
      <trkpt lat="9.002967" lon="-79.565825">
        <time>2026-09-01T11:26:30Z</time>
      </trkpt>
      <trkpt lat="9.002954" lon="-79.565817">
        <time>2026-09-01T11:26:31Z</time>
      </trkpt>
      <trkpt lat="9.002944" lon="-79.565811">
        <time>2026-09-01T11:26:32Z</time>
      </trkpt>
      <trkpt lat="9.002938" lon="-79.565804">
        <time>2026-09-01T11:26:33Z</time>
      </trkpt>
      <trkpt lat="9.002925" lon="-79.565803">
        <time>2026-09-01T11:26:36Z</time>
      </trkpt>
      <trkpt lat="9.002928" lon="-79.565808">
        <time>2026-09-01T11:26:38Z</time>
      </trkpt>
      <trkpt lat="9.002928" lon="-79.565808">
        <time>2026-09-01T11:26:42Z</time>
      </trkpt>
      <trkpt lat="9.002928" lon="-79.565808">
        <time>2026-09-01T11:26:43Z</time>
      </trkpt>
      <trkpt lat="9.002928" lon="-79.565808">
        <time>2026-09-01T11:26:44Z</time>
      </trkpt>
      <trkpt lat="9.002928" lon="-79.565808">
        <time>2026-09-01T11:26:47Z</time>
      </trkpt>
      <trkpt lat="9.002928" lon="-79.565808">
        <time>2026-09-01T11:26:49Z</time>
      </trkpt>
      <trkpt lat="9.002931" lon="-79.565815">
        <time>2026-09-01T11:26:52Z</time>
      </trkpt>
      <trkpt lat="9.002929" lon="-79.565815">
        <time>2026-09-01T11:26:56Z</time>
      </trkpt>
      <trkpt lat="9.002928" lon="-79.565822">
        <time>2026-09-01T11:26:59Z</time>
      </trkpt>
      <trkpt lat="9.002926" lon="-79.565821">
        <time>2026-09-01T11:27:00Z</time>
      </trkpt>
      <trkpt lat="9.002926" lon="-79.565820">
        <time>2026-09-01T11:27:02Z</time>
      </trkpt>
      <trkpt lat="9.002924" lon="-79.565820">
        <time>2026-09-01T11:27:05Z</time>
      </trkpt>
      <trkpt lat="9.002923" lon="-79.565819">
        <time>2026-09-01T11:27:07Z</time>
      </trkpt>
      <trkpt lat="9.002928" lon="-79.565808">
        <time>2026-09-01T11:27:15Z</time>
      </trkpt>
      <trkpt lat="9.002928" lon="-79.565808">
        <time>2026-09-01T11:27:18Z</time>
      </trkpt>
      <trkpt lat="9.002928" lon="-79.565808">
        <time>2026-09-01T11:27:19Z</time>
      </trkpt>
      <trkpt lat="9.002928" lon="-79.565808">
        <time>2026-09-01T11:27:22Z</time>
      </trkpt>
      <trkpt lat="9.002928" lon="-79.565808">
        <time>2026-09-01T11:27:23Z</time>
      </trkpt>
      <trkpt lat="9.002928" lon="-79.565808">
        <time>2026-09-01T11:27:27Z</time>
      </trkpt>
      <trkpt lat="9.002928" lon="-79.565808">
        <time>2026-09-01T11:27:28Z</time>
      </trkpt>
      <trkpt lat="9.002928" lon="-79.565808">
        <time>2026-09-01T11:27:33Z</time>
      </trkpt>
      <trkpt lat="9.002928" lon="-79.565808">
        <time>2026-09-01T11:27:38Z</time>
      </trkpt>
      <trkpt lat="9.002928" lon="-79.565808">
        <time>2026-09-01T11:27:44Z</time>
      </trkpt>
      <trkpt lat="9.002928" lon="-79.565808">
        <time>2026-09-01T11:27:45Z</time>
      </trkpt>
      <trkpt lat="9.002928" lon="-79.565808">
        <time>2026-09-01T11:27:46Z</time>
      </trkpt>
      <trkpt lat="9.002928" lon="-79.565808">
        <time>2026-09-01T11:27:48Z</time>
      </trkpt>
      <trkpt lat="9.002928" lon="-79.565808">
        <time>2026-09-01T11:27:51Z</time>
      </trkpt>
      <trkpt lat="9.002928" lon="-79.565808">
        <time>2026-09-01T11:27:57Z</time>
      </trkpt>
      <trkpt lat="9.002928" lon="-79.565808">
        <time>2026-09-01T11:28:00Z</time>
      </trkpt>
      <trkpt lat="9.002928" lon="-79.565808">
        <time>2026-09-01T11:28:04Z</time>
      </trkpt>
      <trkpt lat="9.002928" lon="-79.565808">
        <time>2026-09-01T11:28:05Z</time>
      </trkpt>
      <trkpt lat="9.002928" lon="-79.565808">
        <time>2026-09-01T11:28:07Z</time>
      </trkpt>
      <trkpt lat="9.002928" lon="-79.565808">
        <time>2026-09-01T11:28:11Z</time>
      </trkpt>
      <trkpt lat="9.002928" lon="-79.565808">
        <time>2026-09-01T11:28:13Z</time>
      </trkpt>
      <trkpt lat="9.002928" lon="-79.565808">
        <time>2026-09-01T11:28:19Z</time>
      </trkpt>
      <trkpt lat="9.002928" lon="-79.565808">
        <time>2026-09-01T11:28:22Z</time>
      </trkpt>
      <trkpt lat="9.002928" lon="-79.565808">
        <time>2026-09-01T11:28:27Z</time>
      </trkpt>
      <trkpt lat="9.002928" lon="-79.565808">
        <time>2026-09-01T11:28:30Z</time>
      </trkpt>
      <trkpt lat="9.002923" lon="-79.565821">
        <time>2026-09-01T11:28:39Z</time>
      </trkpt>
      <trkpt lat="9.002923" lon="-79.565821">
        <time>2026-09-01T11:28:44Z</time>
      </trkpt>
      <trkpt lat="9.002923" lon="-79.565821">
        <time>2026-09-01T11:28:46Z</time>
      </trkpt>
      <trkpt lat="9.002923" lon="-79.565821">
        <time>2026-09-01T11:28:53Z</time>
      </trkpt>
      <trkpt lat="9.002908" lon="-79.565813">
        <time>2026-09-01T11:28:58Z</time>
      </trkpt>
      <trkpt lat="9.002895" lon="-79.565797">
        <time>2026-09-01T11:29:01Z</time>
      </trkpt>
      <trkpt lat="9.002869" lon="-79.565789">
        <time>2026-09-01T11:29:04Z</time>
      </trkpt>
      <trkpt lat="9.002858" lon="-79.565788">
        <time>2026-09-01T11:29:05Z</time>
      </trkpt>
      <trkpt lat="9.002810" lon="-79.565794">
        <time>2026-09-01T11:29:13Z</time>
      </trkpt>
      <trkpt lat="9.002743" lon="-79.565778">
        <time>2026-09-01T11:29:21Z</time>
      </trkpt>
      <trkpt lat="9.002733" lon="-79.565777">
        <time>2026-09-01T11:29:22Z</time>
      </trkpt>
      <trkpt lat="9.002723" lon="-79.565774">
        <time>2026-09-01T11:29:23Z</time>
      </trkpt>
      <trkpt lat="9.002714" lon="-79.565769">
        <time>2026-09-01T11:29:24Z</time>
      </trkpt>
      <trkpt lat="9.002673" lon="-79.565761">
        <time>2026-09-01T11:29:29Z</time>
      </trkpt>
      <trkpt lat="9.002666" lon="-79.565759">
        <time>2026-09-01T11:29:30Z</time>
      </trkpt>
      <trkpt lat="9.002599" lon="-79.565747">
        <time>2026-09-01T11:29:37Z</time>
      </trkpt>
      <trkpt lat="9.002561" lon="-79.565743">
        <time>2026-09-01T11:29:41Z</time>
      </trkpt>
      <trkpt lat="9.002522" lon="-79.565740">
        <time>2026-09-01T11:29:44Z</time>
      </trkpt>
      <trkpt lat="9.002450" lon="-79.565733">
        <time>2026-09-01T11:29:51Z</time>
      </trkpt>
      <trkpt lat="9.002383" lon="-79.565724">
        <time>2026-09-01T11:29:58Z</time>
      </trkpt>
      <trkpt lat="9.002307" lon="-79.565709">
        <time>2026-09-01T11:30:06Z</time>
      </trkpt>
      <trkpt lat="9.002293" lon="-79.565707">
        <time>2026-09-01T11:30:07Z</time>
      </trkpt>
      <trkpt lat="9.002229" lon="-79.565709">
        <time>2026-09-01T11:30:13Z</time>
      </trkpt>
      <trkpt lat="9.002134" lon="-79.565710">
        <time>2026-09-01T11:30:22Z</time>
      </trkpt>
      <trkpt lat="9.002062" lon="-79.565708">
        <time>2026-09-01T11:30:29Z</time>
      </trkpt>
      <trkpt lat="9.001981" lon="-79.565713">
        <time>2026-09-01T11:30:37Z</time>
      </trkpt>
      <trkpt lat="9.001913" lon="-79.565710">
        <time>2026-09-01T11:30:44Z</time>
      </trkpt>
      <trkpt lat="9.001847" lon="-79.565711">
        <time>2026-09-01T11:30:50Z</time>
      </trkpt>
      <trkpt lat="9.001826" lon="-79.565714">
        <time>2026-09-01T11:30:52Z</time>
      </trkpt>
      <trkpt lat="9.001754" lon="-79.565719">
        <time>2026-09-01T11:30:59Z</time>
      </trkpt>
      <trkpt lat="9.001684" lon="-79.565730">
        <time>2026-09-01T11:31:06Z</time>
      </trkpt>
      <trkpt lat="9.001608" lon="-79.565743">
        <time>2026-09-01T11:31:13Z</time>
      </trkpt>
      <trkpt lat="9.001513" lon="-79.565754">
        <time>2026-09-01T11:31:22Z</time>
      </trkpt>
      <trkpt lat="9.001428" lon="-79.565762">
        <time>2026-09-01T11:31:30Z</time>
      </trkpt>
      <trkpt lat="9.001349" lon="-79.565769">
        <time>2026-09-01T11:31:38Z</time>
      </trkpt>
      <trkpt lat="9.001281" lon="-79.565786">
        <time>2026-09-01T11:31:46Z</time>
      </trkpt>
      <trkpt lat="9.001201" lon="-79.565828">
        <time>2026-09-01T11:31:56Z</time>
      </trkpt>
      <trkpt lat="9.001170" lon="-79.565843">
        <time>2026-09-01T11:32:02Z</time>
      </trkpt>
      <trkpt lat="9.001161" lon="-79.565837">
        <time>2026-09-01T11:32:04Z</time>
      </trkpt>
      <trkpt lat="9.001130" lon="-79.565820">
        <time>2026-09-01T11:32:08Z</time>
      </trkpt>
      <trkpt lat="9.001119" lon="-79.565814">
        <time>2026-09-01T11:32:11Z</time>
      </trkpt>
      <trkpt lat="9.001108" lon="-79.565828">
        <time>2026-09-01T11:32:23Z</time>
      </trkpt>
      <trkpt lat="9.001108" lon="-79.565828">
        <time>2026-09-01T11:32:24Z</time>
      </trkpt>
      <trkpt lat="9.001104" lon="-79.565836">
        <time>2026-09-01T11:32:31Z</time>
      </trkpt>
      <trkpt lat="9.001108" lon="-79.565851">
        <time>2026-09-01T11:32:33Z</time>
      </trkpt>
      <trkpt lat="9.001120" lon="-79.565868">
        <time>2026-09-01T11:32:37Z</time>
      </trkpt>
      <trkpt lat="9.001136" lon="-79.565876">
        <time>2026-09-01T11:32:43Z</time>
      </trkpt>
      <trkpt lat="9.001144" lon="-79.565883">
        <time>2026-09-01T11:32:46Z</time>
      </trkpt>
      <trkpt lat="9.001154" lon="-79.565869">
        <time>2026-09-01T11:32:50Z</time>
      </trkpt>
      <trkpt lat="9.001155" lon="-79.565869">
        <time>2026-09-01T11:32:53Z</time>
      </trkpt>
      <trkpt lat="9.001156" lon="-79.565870">
        <time>2026-09-01T11:32:55Z</time>
      </trkpt>
      <trkpt lat="9.001153" lon="-79.565870">
        <time>2026-09-01T11:32:57Z</time>
      </trkpt>
      <trkpt lat="9.001157" lon="-79.565869">
        <time>2026-09-01T11:32:58Z</time>
      </trkpt>
      <trkpt lat="9.001161" lon="-79.565859">
        <time>2026-09-01T11:33:02Z</time>
      </trkpt>
      <trkpt lat="9.001154" lon="-79.565869">
        <time>2026-09-01T11:33:07Z</time>
      </trkpt>
      <trkpt lat="9.001154" lon="-79.565869">
        <time>2026-09-01T11:33:09Z</time>
      </trkpt>
      <trkpt lat="9.001154" lon="-79.565869">
        <time>2026-09-01T11:33:10Z</time>
      </trkpt>
    </trkseg>
  </trk>
</gpx>
