<?xml version="1.0" encoding="UTF-8"?>
<gpx version="1.1" creator="FitFilter" xmlns="http://www.topografix.com/GPX/1/1" xmlns:xsi="http://www.w3.org/2001/XMLSchema-instance" xsi:schemaLocation="http://www.topografix.com/GPX/1/1 http://www.topografix.com/GPX/1/1/gpx.xsd">
  <metadata>
    <time>2026-09-03T11:16:11Z</time>
  </metadata>
  <trk>
    <name>Walking - 2026-09-03 11:16</name>
    <type>walking</type>
    <trkseg>
      <trkpt lat="9.004821" lon="-79.571679">
        <time>2026-09-03T11:16:11Z</time>
      </trkpt>
      <trkpt lat="9.004829" lon="-79.571666">
        <time>2026-09-03T11:16:13Z</time>
      </trkpt>
      <trkpt lat="9.004841" lon="-79.571614">
        <time>2026-09-03T11:16:16Z</time>
      </trkpt>
      <trkpt lat="9.004848" lon="-79.571596">
        <time>2026-09-03T11:16:17Z</time>
      </trkpt>
      <trkpt lat="9.004857" lon="-79.571529">
        <time>2026-09-03T11:16:23Z</time>
      </trkpt>
      <trkpt lat="9.004866" lon="-79.571457">
        <time>2026-09-03T11:16:28Z</time>
      </trkpt>
      <trkpt lat="9.004868" lon="-79.571446">
        <time>2026-09-03T11:16:29Z</time>
      </trkpt>
      <trkpt lat="9.004868" lon="-79.571386">
        <time>2026-09-03T11:16:34Z</time>
      </trkpt>
      <trkpt lat="9.004872" lon="-79.571361">
        <time>2026-09-03T11:16:36Z</time>
      </trkpt>
      <trkpt lat="9.004873" lon="-79.571338">
        <time>2026-09-03T11:16:38Z</time>
      </trkpt>
      <trkpt lat="9.004876" lon="-79.571296">
        <time>2026-09-03T11:16:41Z</time>
      </trkpt>
      <trkpt lat="9.004882" lon="-79.571261">
        <time>2026-09-03T11:16:44Z</time>
      </trkpt>
      <trkpt lat="9.004883" lon="-79.571226">
        <time>2026-09-03T11:16:47Z</time>
      </trkpt>
      <trkpt lat="9.004886" lon="-79.571175">
        <time>2026-09-03T11:16:51Z</time>
      </trkpt>
      <trkpt lat="9.004903" lon="-79.571057">
        <time>2026-09-03T11:17:01Z</time>
      </trkpt>
      <trkpt lat="9.004907" lon="-79.571021">
        <time>2026-09-03T11:17:04Z</time>
      </trkpt>
      <trkpt lat="9.004908" lon="-79.570934">
        <time>2026-09-03T11:17:11Z</time>
      </trkpt>
      <trkpt lat="9.004903" lon="-79.570842">
        <time>2026-09-03T11:17:19Z</time>
      </trkpt>
      <trkpt lat="9.004909" lon="-79.570802">
        <time>2026-09-03T11:17:24Z</time>
      </trkpt>
      <trkpt lat="9.004945" lon="-79.570712">
        <time>2026-09-03T11:17:32Z</time>
      </trkpt>
      <trkpt lat="9.004961" lon="-79.570660">
        <time>2026-09-03T11:17:36Z</time>
      </trkpt>
      <trkpt lat="9.004965" lon="-79.570614">
        <time>2026-09-03T11:17:40Z</time>
      </trkpt>
      <trkpt lat="9.004987" lon="-79.570555">
        <time>2026-09-03T11:17:46Z</time>
      </trkpt>
      <trkpt lat="9.005006" lon="-79.570489">
        <time>2026-09-03T11:17:52Z</time>
      </trkpt>
      <trkpt lat="9.005009" lon="-79.570470">
        <time>2026-09-03T11:17:54Z</time>
      </trkpt>
      <trkpt lat="9.005012" lon="-79.570458">
        <time>2026-09-03T11:17:55Z</time>
      </trkpt>
      <trkpt lat="9.005021" lon="-79.570452">
        <time>2026-09-03T11:17:56Z</time>
      </trkpt>
      <trkpt lat="9.005030" lon="-79.570430">
        <time>2026-09-03T11:17:58Z</time>
      </trkpt>
      <trkpt lat="9.005040" lon="-79.570407">
        <time>2026-09-03T11:18:00Z</time>
      </trkpt>
      <trkpt lat="9.005063" lon="-79.570342">
        <time>2026-09-03T11:18:05Z</time>
      </trkpt>
      <trkpt lat="9.005062" lon="-79.570335">
        <time>2026-09-03T11:18:06Z</time>
      </trkpt>
      <trkpt lat="9.005074" lon="-79.570254">
        <time>2026-09-03T11:18:13Z</time>
      </trkpt>
      <trkpt lat="9.005107" lon="-79.570166">
        <time>2026-09-03T11:18:21Z</time>
      </trkpt>
      <trkpt lat="9.005138" lon="-79.570069">
        <time>2026-09-03T11:18:29Z</time>
      </trkpt>
      <trkpt lat="9.005146" lon="-79.570020">
        <time>2026-09-03T11:18:32Z</time>
      </trkpt>
      <trkpt lat="9.005162" lon="-79.569976">
        <time>2026-09-03T11:18:37Z</time>
      </trkpt>
      <trkpt lat="9.005187" lon="-79.569899">
        <time>2026-09-03T11:18:44Z</time>
      </trkpt>
      <trkpt lat="9.005193" lon="-79.569887">
        <time>2026-09-03T11:18:45Z</time>
      </trkpt>
      <trkpt lat="9.005241" lon="-79.569806">
        <time>2026-09-03T11:18:52Z</time>
      </trkpt>
      <trkpt lat="9.005269" lon="-79.569745">
        <time>2026-09-03T11:18:57Z</time>
      </trkpt>
      <trkpt lat="9.005273" lon="-79.569722">
        <time>2026-09-03T11:18:59Z</time>
      </trkpt>
      <trkpt lat="9.005276" lon="-79.569713">
        <time>2026-09-03T11:19:00Z</time>
      </trkpt>
      <trkpt lat="9.005296" lon="-79.569643">
        <time>2026-09-03T11:19:07Z</time>
      </trkpt>
      <trkpt lat="9.005336" lon="-79.569538">
        <time>2026-09-03T11:19:16Z</time>
      </trkpt>
      <trkpt lat="9.005355" lon="-79.569482">
        <time>2026-09-03T11:19:21Z</time>
      </trkpt>
      <trkpt lat="9.005370" lon="-79.569443">
        <time>2026-09-03T11:19:24Z</time>
      </trkpt>
      <trkpt lat="9.005372" lon="-79.569405">
        <time>2026-09-03T11:19:27Z</time>
      </trkpt>
      <trkpt lat="9.005371" lon="-79.569365">
        <time>2026-09-03T11:19:31Z</time>
      </trkpt>
      <trkpt lat="9.005389" lon="-79.569313">
        <time>2026-09-03T11:19:35Z</time>
      </trkpt>
      <trkpt lat="9.005397" lon="-79.569277">
        <time>2026-09-03T11:19:38Z</time>
      </trkpt>
      <trkpt lat="9.005408" lon="-79.569165">
        <time>2026-09-03T11:19:47Z</time>
      </trkpt>
      <trkpt lat="9.005429" lon="-79.569091">
        <time>2026-09-03T11:19:53Z</time>
      </trkpt>
      <trkpt lat="9.005470" lon="-79.568997">
        <time>2026-09-03T11:20:01Z</time>
      </trkpt>
      <trkpt lat="9.005504" lon="-79.568899">
        <time>2026-09-03T11:20:09Z</time>
      </trkpt>
      <trkpt lat="9.005533" lon="-79.568803">
        <time>2026-09-03T11:20:17Z</time>
      </trkpt>
      <trkpt lat="9.005540" lon="-79.568780">
        <time>2026-09-03T11:20:19Z</time>
      </trkpt>
      <trkpt lat="9.005559" lon="-79.568713">
        <time>2026-09-03T11:20:24Z</time>
      </trkpt>
      <trkpt lat="9.005581" lon="-79.568624">
        <time>2026-09-03T11:20:32Z</time>
      </trkpt>
      <trkpt lat="9.005592" lon="-79.568564">
        <time>2026-09-03T11:20:37Z</time>
      </trkpt>
      <trkpt lat="9.005594" lon="-79.568532">
        <time>2026-09-03T11:20:40Z</time>
      </trkpt>
      <trkpt lat="9.005593" lon="-79.568483">
        <time>2026-09-03T11:20:44Z</time>
      </trkpt>
      <trkpt lat="9.005608" lon="-79.568420">
        <time>2026-09-03T11:20:49Z</time>
      </trkpt>
      <trkpt lat="9.005621" lon="-79.568397">
        <time>2026-09-03T11:20:51Z</time>
      </trkpt>
      <trkpt lat="9.005670" lon="-79.568320">
        <time>2026-09-03T11:20:58Z</time>
      </trkpt>
      <trkpt lat="9.005691" lon="-79.568284">
        <time>2026-09-03T11:21:01Z</time>
      </trkpt>
      <trkpt lat="9.005732" lon="-79.568211">
        <time>2026-09-03T11:21:08Z</time>
      </trkpt>
      <trkpt lat="9.005757" lon="-79.568166">
        <time>2026-09-03T11:21:12Z</time>
      </trkpt>
      <trkpt lat="9.005773" lon="-79.568135">
        <time>2026-09-03T11:21:15Z</time>
      </trkpt>
      <trkpt lat="9.005811" lon="-79.568037">
        <time>2026-09-03T11:21:23Z</time>
      </trkpt>
      <trkpt lat="9.005784" lon="-79.567930">
        <time>2026-09-03T11:21:32Z</time>
      </trkpt>
      <trkpt lat="9.005729" lon="-79.567861">
        <time>2026-09-03T11:21:39Z</time>
      </trkpt>
      <trkpt lat="9.005720" lon="-79.567856">
        <time>2026-09-03T11:21:40Z</time>
      </trkpt>
      <trkpt lat="9.005660" lon="-79.567788">
        <time>2026-09-03T11:21:47Z</time>
      </trkpt>
      <trkpt lat="9.005606" lon="-79.567723">
        <time>2026-09-03T11:21:53Z</time>
      </trkpt>
      <trkpt lat="9.005568" lon="-79.567669">
        <time>2026-09-03T11:21:59Z</time>
      </trkpt>
      <trkpt lat="9.005560" lon="-79.567657">
        <time>2026-09-03T11:22:00Z</time>
      </trkpt>
      <trkpt lat="9.005520" lon="-79.567606">
        <time>2026-09-03T11:22:06Z</time>
      </trkpt>
      <trkpt lat="9.005475" lon="-79.567542">
        <time>2026-09-03T11:22:12Z</time>
      </trkpt>
      <trkpt lat="9.005431" lon="-79.567470">
        <time>2026-09-03T11:22:18Z</time>
      </trkpt>
      <trkpt lat="9.005386" lon="-79.567397">
        <time>2026-09-03T11:22:25Z</time>
      </trkpt>
      <trkpt lat="9.005349" lon="-79.567337">
        <time>2026-09-03T11:22:31Z</time>
      </trkpt>
      <trkpt lat="9.005338" lon="-79.567301">
        <time>2026-09-03T11:22:34Z</time>
      </trkpt>
      <trkpt lat="9.005328" lon="-79.567279">
        <time>2026-09-03T11:22:36Z</time>
      </trkpt>
      <trkpt lat="9.005321" lon="-79.567254">
        <time>2026-09-03T11:22:38Z</time>
      </trkpt>
      <trkpt lat="9.005316" lon="-79.567243">
        <time>2026-09-03T11:22:39Z</time>
      </trkpt>
      <trkpt lat="9.005303" lon="-79.567209">
        <time>2026-09-03T11:22:42Z</time>
      </trkpt>
      <trkpt lat="9.005288" lon="-79.567178">
        <time>2026-09-03T11:22:45Z</time>
      </trkpt>
      <trkpt lat="9.005271" lon="-79.567118">
        <time>2026-09-03T11:22:50Z</time>
      </trkpt>
      <trkpt lat="9.005261" lon="-79.567099">
        <time>2026-09-03T11:22:52Z</time>
      </trkpt>
      <trkpt lat="9.005230" lon="-79.567028">
        <time>2026-09-03T11:22:58Z</time>
      </trkpt>
      <trkpt lat="9.005225" lon="-79.567017">
        <time>2026-09-03T11:22:59Z</time>
      </trkpt>
      <trkpt lat="9.005180" lon="-79.566905">
        <time>2026-09-03T11:23:09Z</time>
      </trkpt>
      <trkpt lat="9.005178" lon="-79.566878">
        <time>2026-09-03T11:23:11Z</time>
      </trkpt>
      <trkpt lat="9.005165" lon="-79.566821">
        <time>2026-09-03T11:23:16Z</time>
      </trkpt>
      <trkpt lat="9.005151" lon="-79.566800">
        <time>2026-09-03T11:23:18Z</time>
      </trkpt>
      <trkpt lat="9.005144" lon="-79.566788">
        <time>2026-09-03T11:23:19Z</time>
      </trkpt>
      <trkpt lat="9.005137" lon="-79.566775">
        <time>2026-09-03T11:23:20Z</time>
      </trkpt>
      <trkpt lat="9.005121" lon="-79.566723">
        <time>2026-09-03T11:23:24Z</time>
      </trkpt>
      <trkpt lat="9.005103" lon="-79.566682">
        <time>2026-09-03T11:23:28Z</time>
      </trkpt>
      <trkpt lat="9.005088" lon="-79.566622">
        <time>2026-09-03T11:23:33Z</time>
      </trkpt>
      <trkpt lat="9.005068" lon="-79.566581">
        <time>2026-09-03T11:23:37Z</time>
      </trkpt>
      <trkpt lat="9.005033" lon="-79.566488">
        <time>2026-09-03T11:23:45Z</time>
      </trkpt>
      <trkpt lat="9.005016" lon="-79.566452">
        <time>2026-09-03T11:23:48Z</time>
      </trkpt>
      <trkpt lat="9.004992" lon="-79.566392">
        <time>2026-09-03T11:23:53Z</time>
      </trkpt>
      <trkpt lat="9.004986" lon="-79.566381">
        <time>2026-09-03T11:23:54Z</time>
      </trkpt>
      <trkpt lat="9.004933" lon="-79.566286">
        <time>2026-09-03T11:24:02Z</time>
      </trkpt>
      <trkpt lat="9.004901" lon="-79.566231">
        <time>2026-09-03T11:24:07Z</time>
      </trkpt>
      <trkpt lat="9.004888" lon="-79.566203">
        <time>2026-09-03T11:24:09Z</time>
      </trkpt>
      <trkpt lat="9.004853" lon="-79.566148">
        <time>2026-09-03T11:24:15Z</time>
      </trkpt>
      <trkpt lat="9.004846" lon="-79.566137">
        <time>2026-09-03T11:24:16Z</time>
      </trkpt>
      <trkpt lat="9.004814" lon="-79.566074">
        <time>2026-09-03T11:24:21Z</time>
      </trkpt>
      <trkpt lat="9.004775" lon="-79.566016">
        <time>2026-09-03T11:24:27Z</time>
      </trkpt>
      <trkpt lat="9.004769" lon="-79.566004">
        <time>2026-09-03T11:24:28Z</time>
      </trkpt>
      <trkpt lat="9.004737" lon="-79.565973">
        <time>2026-09-03T11:24:33Z</time>
      </trkpt>
      <trkpt lat="9.004724" lon="-79.565968">
        <time>2026-09-03T11:24:34Z</time>
      </trkpt>
      <trkpt lat="9.004726" lon="-79.565962">
        <time>2026-09-03T11:24:37Z</time>
      </trkpt>
      <trkpt lat="9.004728" lon="-79.565978">
        <time>2026-09-03T11:24:41Z</time>
      </trkpt>
      <trkpt lat="9.004697" lon="-79.565958">
        <time>2026-09-03T11:24:46Z</time>
      </trkpt>
      <trkpt lat="9.004660" lon="-79.565961">
        <time>2026-09-03T11:24:49Z</time>
      </trkpt>
      <trkpt lat="9.004636" lon="-79.565960">
        <time>2026-09-03T11:24:51Z</time>
      </trkpt>
      <trkpt lat="9.004558" lon="-79.565972">
        <time>2026-09-03T11:24:58Z</time>
      </trkpt>
      <trkpt lat="9.004502" lon="-79.565970">
        <time>2026-09-03T11:25:03Z</time>
      </trkpt>
      <trkpt lat="9.004450" lon="-79.565982">
        <time>2026-09-03T11:25:08Z</time>
      </trkpt>
      <trkpt lat="9.004443" lon="-79.565986">
        <time>2026-09-03T11:25:09Z</time>
      </trkpt>
      <trkpt lat="9.004364" lon="-79.565991">
        <time>2026-09-03T11:25:16Z</time>
      </trkpt>
      <trkpt lat="9.004259" lon="-79.566005">
        <time>2026-09-03T11:25:25Z</time>
      </trkpt>
      <trkpt lat="9.004248" lon="-79.566003">
        <time>2026-09-03T11:25:26Z</time>
      </trkpt>
      <trkpt lat="9.004168" lon="-79.566015">
        <time>2026-09-03T11:25:33Z</time>
      </trkpt>
      <trkpt lat="9.004070" lon="-79.566019">
        <time>2026-09-03T11:25:41Z</time>
      </trkpt>
      <trkpt lat="9.003991" lon="-79.566025">
        <time>2026-09-03T11:25:48Z</time>
      </trkpt>
      <trkpt lat="9.003914" lon="-79.566032">
        <time>2026-09-03T11:25:55Z</time>
      </trkpt>
      <trkpt lat="9.003832" lon="-79.566019">
        <time>2026-09-03T11:26:02Z</time>
      </trkpt>
      <trkpt lat="9.003741" lon="-79.566007">
        <time>2026-09-03T11:26:10Z</time>
      </trkpt>
      <trkpt lat="9.003645" lon="-79.565995">
        <time>2026-09-03T11:26:18Z</time>
      </trkpt>
      <trkpt lat="9.003547" lon="-79.565983">
        <time>2026-09-03T11:26:26Z</time>
      </trkpt>
      <trkpt lat="9.003464" lon="-79.565973">
        <time>2026-09-03T11:26:33Z</time>
      </trkpt>
      <trkpt lat="9.003395" lon="-79.565959">
        <time>2026-09-03T11:26:39Z</time>
      </trkpt>
      <trkpt lat="9.003327" lon="-79.565946">
        <time>2026-09-03T11:26:45Z</time>
      </trkpt>
      <trkpt lat="9.003252" lon="-79.565923">
        <time>2026-09-03T11:26:52Z</time>
      </trkpt>
      <trkpt lat="9.003189" lon="-79.565912">
        <time>2026-09-03T11:26:58Z</time>
      </trkpt>
      <trkpt lat="9.003177" lon="-79.565908">
        <time>2026-09-03T11:26:59Z</time>
      </trkpt>
      <trkpt lat="9.003130" lon="-79.565890">
        <time>2026-09-03T11:27:04Z</time>
      </trkpt>
      <trkpt lat="9.003054" lon="-79.565859">
        <time>2026-09-03T11:27:11Z</time>
      </trkpt>
      <trkpt lat="9.003006" lon="-79.565836">
        <time>2026-09-03T11:27:16Z</time>
      </trkpt>
      <trkpt lat="9.002945" lon="-79.565806">
        <time>2026-09-03T11:27:22Z</time>
      </trkpt>
      <trkpt lat="9.002935" lon="-79.565802">
        <time>2026-09-03T11:27:23Z</time>
      </trkpt>
      <trkpt lat="9.002917" lon="-79.565798">
        <time>2026-09-03T11:27:27Z</time>
      </trkpt>
      <trkpt lat="9.002917" lon="-79.565798">
        <time>2026-09-03T11:27:29Z</time>
      </trkpt>
      <trkpt lat="9.002915" lon="-79.565797">
        <time>2026-09-03T11:27:32Z</time>
      </trkpt>
      <trkpt lat="9.002910" lon="-79.565801">
        <time>2026-09-03T11:27:35Z</time>
      </trkpt>
      <trkpt lat="9.002909" lon="-79.565803">
        <time>2026-09-03T11:27:37Z</time>
      </trkpt>
      <trkpt lat="9.002917" lon="-79.565798">
        <time>2026-09-03T11:27:41Z</time>
      </trkpt>
      <trkpt lat="9.002911" lon="-79.565804">
        <time>2026-09-03T11:27:46Z</time>
      </trkpt>
      <trkpt lat="9.002917" lon="-79.565798">
        <time>2026-09-03T11:27:51Z</time>
      </trkpt>
      <trkpt lat="9.002917" lon="-79.565798">
        <time>2026-09-03T11:27:56Z</time>
      </trkpt>
      <trkpt lat="9.002917" lon="-79.565798">
        <time>2026-09-03T11:27:57Z</time>
      </trkpt>
      <trkpt lat="9.002917" lon="-79.565798">
        <time>2026-09-03T11:27:59Z</time>
      </trkpt>
      <trkpt lat="9.002917" lon="-79.565798">
        <time>2026-09-03T11:28:03Z</time>
      </trkpt>
      <trkpt lat="9.002917" lon="-79.565798">
        <time>2026-09-03T11:28:10Z</time>
      </trkpt>
      <trkpt lat="9.002917" lon="-79.565798">
        <time>2026-09-03T11:28:11Z</time>
      </trkpt>
      <trkpt lat="9.002917" lon="-79.565798">
        <time>2026-09-03T11:28:12Z</time>
      </trkpt>
      <trkpt lat="9.002917" lon="-79.565798">
        <time>2026-09-03T11:28:17Z</time>
      </trkpt>
      <trkpt lat="9.002917" lon="-79.565798">
        <time>2026-09-03T11:28:24Z</time>
      </trkpt>
      <trkpt lat="9.002917" lon="-79.565798">
        <time>2026-09-03T11:28:26Z</time>
      </trkpt>
      <trkpt lat="9.002917" lon="-79.565798">
        <time>2026-09-03T11:28:31Z</time>
      </trkpt>
      <trkpt lat="9.002917" lon="-79.565798">
        <time>2026-09-03T11:28:33Z</time>
      </trkpt>
      <trkpt lat="9.002917" lon="-79.565798">
        <time>2026-09-03T11:28:35Z</time>
      </trkpt>
      <trkpt lat="9.002917" lon="-79.565798">
        <time>2026-09-03T11:28:40Z</time>
      </trkpt>
      <trkpt lat="9.002917" lon="-79.565798">
        <time>2026-09-03T11:28:49Z</time>
      </trkpt>
      <trkpt lat="9.002917" lon="-79.565798">
        <time>2026-09-03T11:28:51Z</time>
      </trkpt>
      <trkpt lat="9.002917" lon="-79.565798">
        <time>2026-09-03T11:28:52Z</time>
      </trkpt>
      <trkpt lat="9.002917" lon="-79.565798">
        <time>2026-09-03T11:28:56Z</time>
      </trkpt>
      <trkpt lat="9.002917" lon="-79.565798">
        <time>2026-09-03T11:29:05Z</time>
      </trkpt>
      <trkpt lat="9.002917" lon="-79.565798">
        <time>2026-09-03T11:29:11Z</time>
      </trkpt>
      <trkpt lat="9.002917" lon="-79.565798">
        <time>2026-09-03T11:29:16Z</time>
      </trkpt>
      <trkpt lat="9.002917" lon="-79.565798">
        <time>2026-09-03T11:29:27Z</time>
      </trkpt>
      <trkpt lat="9.002900" lon="-79.565805">
        <time>2026-09-03T11:29:35Z</time>
      </trkpt>
      <trkpt lat="9.002864" lon="-79.565808">
        <time>2026-09-03T11:29:42Z</time>
      </trkpt>
      <trkpt lat="9.002803" lon="-79.565791">
        <time>2026-09-03T11:29:51Z</time>
      </trkpt>
      <trkpt lat="9.002754" lon="-79.565781">
        <time>2026-09-03T11:29:57Z</time>
      </trkpt>
      <trkpt lat="9.002747" lon="-79.565779">
        <time>2026-09-03T11:29:58Z</time>
      </trkpt>
      <trkpt lat="9.002721" lon="-79.565776">
        <time>2026-09-03T11:30:01Z</time>
      </trkpt>
      <trkpt lat="9.002706" lon="-79.565775">
        <time>2026-09-03T11:30:03Z</time>
      </trkpt>
      <trkpt lat="9.002653" lon="-79.565761">
        <time>2026-09-03T11:30:09Z</time>
      </trkpt>
      <trkpt lat="9.002581" lon="-79.565748">
        <time>2026-09-03T11:30:17Z</time>
      </trkpt>
      <trkpt lat="9.002573" lon="-79.565746">
        <time>2026-09-03T11:30:18Z</time>
      </trkpt>
      <trkpt lat="9.002499" lon="-79.565735">
        <time>2026-09-03T11:30:26Z</time>
      </trkpt>
      <trkpt lat="9.002442" lon="-79.565727">
        <time>2026-09-03T11:30:33Z</time>
      </trkpt>
      <trkpt lat="9.002433" lon="-79.565725">
        <time>2026-09-03T11:30:34Z</time>
      </trkpt>
      <trkpt lat="9.002365" lon="-79.565716">
        <time>2026-09-03T11:30:40Z</time>
      </trkpt>
      <trkpt lat="9.002258" lon="-79.565703">
        <time>2026-09-03T11:30:50Z</time>
      </trkpt>
      <trkpt lat="9.002233" lon="-79.565698">
        <time>2026-09-03T11:30:53Z</time>
      </trkpt>
      <trkpt lat="9.002197" lon="-79.565697">
        <time>2026-09-03T11:30:57Z</time>
      </trkpt>
      <trkpt lat="9.002159" lon="-79.565694">
        <time>2026-09-03T11:31:01Z</time>
      </trkpt>
      <trkpt lat="9.002099" lon="-79.565693">
        <time>2026-09-03T11:31:07Z</time>
      </trkpt>
      <trkpt lat="9.002078" lon="-79.565692">
        <time>2026-09-03T11:31:09Z</time>
      </trkpt>
      <trkpt lat="9.002005" lon="-79.565692">
        <time>2026-09-03T11:31:16Z</time>
      </trkpt>
      <trkpt lat="9.001961" lon="-79.565693">
        <time>2026-09-03T11:31:21Z</time>
      </trkpt>
      <trkpt lat="9.001931" lon="-79.565697">
        <time>2026-09-03T11:31:24Z</time>
      </trkpt>
      <trkpt lat="9.001840" lon="-79.565700">
        <time>2026-09-03T11:31:33Z</time>
      </trkpt>
      <trkpt lat="9.001795" lon="-79.565707">
        <time>2026-09-03T11:31:37Z</time>
      </trkpt>
      <trkpt lat="9.001760" lon="-79.565711">
        <time>2026-09-03T11:31:41Z</time>
      </trkpt>
      <trkpt lat="9.001677" lon="-79.565720">
        <time>2026-09-03T11:31:49Z</time>
      </trkpt>
      <trkpt lat="9.001601" lon="-79.565731">
        <time>2026-09-03T11:31:57Z</time>
      </trkpt>
      <trkpt lat="9.001535" lon="-79.565740">
        <time>2026-09-03T11:32:05Z</time>
      </trkpt>
      <trkpt lat="9.001464" lon="-79.565756">
        <time>2026-09-03T11:32:14Z</time>
      </trkpt>
      <trkpt lat="9.001393" lon="-79.565774">
        <time>2026-09-03T11:32:20Z</time>
      </trkpt>
      <trkpt lat="9.001337" lon="-79.565789">
        <time>2026-09-03T11:32:26Z</time>
      </trkpt>
      <trkpt lat="9.001305" lon="-79.565797">
        <time>2026-09-03T11:32:30Z</time>
      </trkpt>
      <trkpt lat="9.001236" lon="-79.565811">
        <time>2026-09-03T11:32:39Z</time>
      </trkpt>
      <trkpt lat="9.001212" lon="-79.565828">
        <time>2026-09-03T11:32:43Z</time>
      </trkpt>
      <trkpt lat="9.001197" lon="-79.565840">
        <time>2026-09-03T11:32:45Z</time>
      </trkpt>
      <trkpt lat="9.001188" lon="-79.565849">
        <time>2026-09-03T11:32:48Z</time>
      </trkpt>
      <trkpt lat="9.001183" lon="-79.565838">
        <time>2026-09-03T11:32:51Z</time>
      </trkpt>
      <trkpt lat="9.001156" lon="-79.565813">
        <time>2026-09-03T11:32:56Z</time>
      </trkpt>
      <trkpt lat="9.001135" lon="-79.565805">
        <time>2026-09-03T11:32:59Z</time>
      </trkpt>
      <trkpt lat="9.001130" lon="-79.565802">
        <time>2026-09-03T11:33:07Z</time>
      </trkpt>
      <trkpt lat="9.001130" lon="-79.565802">
        <time>2026-09-03T11:33:10Z</time>
      </trkpt>
      <trkpt lat="9.001130" lon="-79.565802">
        <time>2026-09-03T11:33:12Z</time>
      </trkpt>
      <trkpt lat="9.001118" lon="-79.565812">
        <time>2026-09-03T11:33:27Z</time>
      </trkpt>
      <trkpt lat="9.001111" lon="-79.565830">
        <time>2026-09-03T11:33:31Z</time>
      </trkpt>
      <trkpt lat="9.001118" lon="-79.565849">
        <time>2026-09-03T11:33:33Z</time>
      </trkpt>
      <trkpt lat="9.001122" lon="-79.565855">
        <time>2026-09-03T11:33:34Z</time>
      </trkpt>
      <trkpt lat="9.001127" lon="-79.565861">
        <time>2026-09-03T11:33:35Z</time>
      </trkpt>
      <trkpt lat="9.001133" lon="-79.565868">
        <time>2026-09-03T11:33:36Z</time>
      </trkpt>
      <trkpt lat="9.001155" lon="-79.565897">
        <time>2026-09-03T11:33:42Z</time>
      </trkpt>
      <trkpt lat="9.001192" lon="-79.565928">
        <time>2026-09-03T11:33:50Z</time>
      </trkpt>
      <trkpt lat="9.001195" lon="-79.565929">
        <time>2026-09-03T11:33:55Z</time>
      </trkpt>
      <trkpt lat="9.001211" lon="-79.565926">
        <time>2026-09-03T11:33:59Z</time>
      </trkpt>
      <trkpt lat="9.001219" lon="-79.565911">
        <time>2026-09-03T11:34:13Z</time>
      </trkpt>
      <trkpt lat="9.001186" lon="-79.565887">
        <time>2026-09-03T11:34:21Z</time>
      </trkpt>
      <trkpt lat="9.001179" lon="-79.565884">
        <time>2026-09-03T11:34:22Z</time>
      </trkpt>
      <trkpt lat="9.001169" lon="-79.565872">
        <time>2026-09-03T11:34:25Z</time>
      </trkpt>
      <trkpt lat="9.001164" lon="-79.565860">
        <time>2026-09-03T11:34:28Z</time>
      </trkpt>
      <trkpt lat="9.001160" lon="-79.565861">
        <time>2026-09-03T11:34:35Z</time>
      </trkpt>
      <trkpt lat="9.001160" lon="-79.565861">
        <time>2026-09-03T11:34:36Z</time>
      </trkpt>
      <trkpt lat="9.001160" lon="-79.565861">
        <time>2026-09-03T11:34:50Z</time>
      </trkpt>
      <trkpt lat="9.001160" lon="-79.565861">
        <time>2026-09-03T11:34:56Z</time>
      </trkpt>
      <trkpt lat="9.001160" lon="-79.565861">
        <time>2026-09-03T11:35:01Z</time>
      </trkpt>
      <trkpt lat="9.001160" lon="-79.565861">
        <time>2026-09-03T11:35:02Z</time>
      </trkpt>
      <trkpt lat="9.001160" lon="-79.565861">
        <time>2026-09-03T11:35:08Z</time>
      </trkpt>
      <trkpt lat="9.001160" lon="-79.565861">
        <time>2026-09-03T11:35:15Z</time>
      </trkpt>
      <trkpt lat="9.001160" lon="-79.565861">
        <time>2026-09-03T11:35:18Z</time>
      </trkpt>
      <trkpt lat="9.001160" lon="-79.565861">
        <time>2026-09-03T11:35:22Z</time>
      </trkpt>
      <trkpt lat="9.001160" lon="-79.565861">
        <time>2026-09-03T11:35:30Z</time>
      </trkpt>
      <trkpt lat="9.001160" lon="-79.565861">
        <time>2026-09-03T11:35:42Z</time>
      </trkpt>
      <trkpt lat="9.001160" lon="-79.565861">
        <time>2026-09-03T11:35:48Z</time>
      </trkpt>
      <trkpt lat="9.001160" lon="-79.565861">
        <time>2026-09-03T11:35:59Z</time>
      </trkpt>
      <trkpt lat="9.001160" lon="-79.565861">
        <time>2026-09-03T11:36:09Z</time>
      </trkpt>
      <trkpt lat="9.001160" lon="-79.565861">
        <time>2026-09-03T11:36:26Z</time>
      </trkpt>
      <trkpt lat="9.001160" lon="-79.565861">
        <time>2026-09-03T11:36:32Z</time>
      </trkpt>
      <trkpt lat="9.001160" lon="-79.565861">
        <time>2026-09-03T11:36:40Z</time>
      </trkpt>
      <trkpt lat="9.001160" lon="-79.565861">
        <time>2026-09-03T11:36:46Z</time>
      </trkpt>
      <trkpt lat="9.001160" lon="-79.565861">
        <time>2026-09-03T11:37:06Z</time>
      </trkpt>
      <trkpt lat="9.001160" lon="-79.565861">
        <time>2026-09-03T11:37:19Z</time>
      </trkpt>
    </trkseg>
  </trk>
</gpx>
