<?xml version="1.0" encoding="UTF-8"?>
<gpx version="1.1" creator="FitFilter" xmlns="http://www.topografix.com/GPX/1/1" xmlns:xsi="http://www.w3.org/2001/XMLSchema-instance" xsi:schemaLocation="http://www.topografix.com/GPX/1/1 http://www.topografix.com/GPX/1/1/gpx.xsd">
  <metadata>
    <time>2026-09-08T11:09:17Z</time>
  </metadata>
  <trk>
    <name>Walking - 2026-09-08 11:09</name>
    <type>walking</type>
    <trkseg>
      <trkpt lat="9.004856" lon="-79.571574">
        <time>2026-09-08T11:09:17Z</time>
      </trkpt>
      <trkpt lat="9.004858" lon="-79.571559">
        <time>2026-09-08T11:09:20Z</time>
      </trkpt>
      <trkpt lat="9.004860" lon="-79.571544">
        <time>2026-09-08T11:09:22Z</time>
      </trkpt>
      <trkpt lat="9.004864" lon="-79.571501">
        <time>2026-09-08T11:09:25Z</time>
      </trkpt>
      <trkpt lat="9.004872" lon="-79.571462">
        <time>2026-09-08T11:09:28Z</time>
      </trkpt>
      <trkpt lat="9.004874" lon="-79.571446">
        <time>2026-09-08T11:09:30Z</time>
      </trkpt>
      <trkpt lat="9.004880" lon="-79.571421">
        <time>2026-09-08T11:09:32Z</time>
      </trkpt>
      <trkpt lat="9.004880" lon="-79.571356">
        <time>2026-09-08T11:09:38Z</time>
      </trkpt>
      <trkpt lat="9.004882" lon="-79.571344">
        <time>2026-09-08T11:09:39Z</time>
      </trkpt>
      <trkpt lat="9.004885" lon="-79.571334">
        <time>2026-09-08T11:09:40Z</time>
      </trkpt>
      <trkpt lat="9.004884" lon="-79.571290">
        <time>2026-09-08T11:09:43Z</time>
      </trkpt>
      <trkpt lat="9.004898" lon="-79.571221">
        <time>2026-09-08T11:09:49Z</time>
      </trkpt>
      <trkpt lat="9.004912" lon="-79.571121">
        <time>2026-09-08T11:09:57Z</time>
      </trkpt>
      <trkpt lat="9.004924" lon="-79.571032">
        <time>2026-09-08T11:10:04Z</time>
      </trkpt>
      <trkpt lat="9.004924" lon="-79.570984">
        <time>2026-09-08T11:10:08Z</time>
      </trkpt>
      <trkpt lat="9.004931" lon="-79.570949">
        <time>2026-09-08T11:10:11Z</time>
      </trkpt>
      <trkpt lat="9.004935" lon="-79.570925">
        <time>2026-09-08T11:10:13Z</time>
      </trkpt>
      <trkpt lat="9.004937" lon="-79.570898">
        <time>2026-09-08T11:10:15Z</time>
      </trkpt>
      <trkpt lat="9.004943" lon="-79.570808">
        <time>2026-09-08T11:10:23Z</time>
      </trkpt>
      <trkpt lat="9.004958" lon="-79.570756">
        <time>2026-09-08T11:10:28Z</time>
      </trkpt>
      <trkpt lat="9.004955" lon="-79.570702">
        <time>2026-09-08T11:10:32Z</time>
      </trkpt>
      <trkpt lat="9.004940" lon="-79.570682">
        <time>2026-09-08T11:10:34Z</time>
      </trkpt>
      <trkpt lat="9.004953" lon="-79.570606">
        <time>2026-09-08T11:10:40Z</time>
      </trkpt>
      <trkpt lat="9.004978" lon="-79.570522">
        <time>2026-09-08T11:10:47Z</time>
      </trkpt>
      <trkpt lat="9.004984" lon="-79.570507">
        <time>2026-09-08T11:10:49Z</time>
      </trkpt>
      <trkpt lat="9.004991" lon="-79.570453">
        <time>2026-09-08T11:10:54Z</time>
      </trkpt>
      <trkpt lat="9.005006" lon="-79.570435">
        <time>2026-09-08T11:10:59Z</time>
      </trkpt>
      <trkpt lat="9.005013" lon="-79.570425">
        <time>2026-09-08T11:11:00Z</time>
      </trkpt>
      <trkpt lat="9.005037" lon="-79.570378">
        <time>2026-09-08T11:11:05Z</time>
      </trkpt>
      <trkpt lat="9.005052" lon="-79.570316">
        <time>2026-09-08T11:11:11Z</time>
      </trkpt>
      <trkpt lat="9.005047" lon="-79.570311">
        <time>2026-09-08T11:11:12Z</time>
      </trkpt>
      <trkpt lat="9.005050" lon="-79.570292">
        <time>2026-09-08T11:11:14Z</time>
      </trkpt>
      <trkpt lat="9.005053" lon="-79.570268">
        <time>2026-09-08T11:11:16Z</time>
      </trkpt>
      <trkpt lat="9.005058" lon="-79.570254">
        <time>2026-09-08T11:11:17Z</time>
      </trkpt>
      <trkpt lat="9.005096" lon="-79.570162">
        <time>2026-09-08T11:11:26Z</time>
      </trkpt>
      <trkpt lat="9.005126" lon="-79.570069">
        <time>2026-09-08T11:11:34Z</time>
      </trkpt>
      <trkpt lat="9.005145" lon="-79.570000">
        <time>2026-09-08T11:11:42Z</time>
      </trkpt>
      <trkpt lat="9.005175" lon="-79.569927">
        <time>2026-09-08T11:11:49Z</time>
      </trkpt>
      <trkpt lat="9.005218" lon="-79.569842">
        <time>2026-09-08T11:11:58Z</time>
      </trkpt>
      <trkpt lat="9.005257" lon="-79.569752">
        <time>2026-09-08T11:12:06Z</time>
      </trkpt>
      <trkpt lat="9.005278" lon="-79.569687">
        <time>2026-09-08T11:12:12Z</time>
      </trkpt>
      <trkpt lat="9.005281" lon="-79.569678">
        <time>2026-09-08T11:12:13Z</time>
      </trkpt>
      <trkpt lat="9.005300" lon="-79.569620">
        <time>2026-09-08T11:12:18Z</time>
      </trkpt>
      <trkpt lat="9.005313" lon="-79.569593">
        <time>2026-09-08T11:12:21Z</time>
      </trkpt>
      <trkpt lat="9.005332" lon="-79.569534">
        <time>2026-09-08T11:12:27Z</time>
      </trkpt>
      <trkpt lat="9.005355" lon="-79.569466">
        <time>2026-09-08T11:12:34Z</time>
      </trkpt>
      <trkpt lat="9.005368" lon="-79.569417">
        <time>2026-09-08T11:12:39Z</time>
      </trkpt>
      <trkpt lat="9.005373" lon="-79.569378">
        <time>2026-09-08T11:12:43Z</time>
      </trkpt>
      <trkpt lat="9.005396" lon="-79.569288">
        <time>2026-09-08T11:12:52Z</time>
      </trkpt>
      <trkpt lat="9.005412" lon="-79.569211">
        <time>2026-09-08T11:12:59Z</time>
      </trkpt>
      <trkpt lat="9.005414" lon="-79.569159">
        <time>2026-09-08T11:13:04Z</time>
      </trkpt>
      <trkpt lat="9.005416" lon="-79.569147">
        <time>2026-09-08T11:13:05Z</time>
      </trkpt>
      <trkpt lat="9.005426" lon="-79.569091">
        <time>2026-09-08T11:13:10Z</time>
      </trkpt>
      <trkpt lat="9.005455" lon="-79.569024">
        <time>2026-09-08T11:13:16Z</time>
      </trkpt>
      <trkpt lat="9.005490" lon="-79.568934">
        <time>2026-09-08T11:13:25Z</time>
      </trkpt>
      <trkpt lat="9.005517" lon="-79.568841">
        <time>2026-09-08T11:13:33Z</time>
      </trkpt>
      <trkpt lat="9.005523" lon="-79.568821">
        <time>2026-09-08T11:13:35Z</time>
      </trkpt>
      <trkpt lat="9.005532" lon="-79.568778">
        <time>2026-09-08T11:13:39Z</time>
      </trkpt>
      <trkpt lat="9.005550" lon="-79.568691">
        <time>2026-09-08T11:13:47Z</time>
      </trkpt>
      <trkpt lat="9.005574" lon="-79.568622">
        <time>2026-09-08T11:13:54Z</time>
      </trkpt>
      <trkpt lat="9.005594" lon="-79.568524">
        <time>2026-09-08T11:14:03Z</time>
      </trkpt>
      <trkpt lat="9.005602" lon="-79.568433">
        <time>2026-09-08T11:14:11Z</time>
      </trkpt>
      <trkpt lat="9.005618" lon="-79.568399">
        <time>2026-09-08T11:14:14Z</time>
      </trkpt>
      <trkpt lat="9.005657" lon="-79.568339">
        <time>2026-09-08T11:14:20Z</time>
      </trkpt>
      <trkpt lat="9.005691" lon="-79.568276">
        <time>2026-09-08T11:14:26Z</time>
      </trkpt>
      <trkpt lat="9.005699" lon="-79.568261">
        <time>2026-09-08T11:14:28Z</time>
      </trkpt>
      <trkpt lat="9.005731" lon="-79.568208">
        <time>2026-09-08T11:14:34Z</time>
      </trkpt>
      <trkpt lat="9.005745" lon="-79.568185">
        <time>2026-09-08T11:14:36Z</time>
      </trkpt>
      <trkpt lat="9.005775" lon="-79.568137">
        <time>2026-09-08T11:14:41Z</time>
      </trkpt>
      <trkpt lat="9.005785" lon="-79.568116">
        <time>2026-09-08T11:14:43Z</time>
      </trkpt>
      <trkpt lat="9.005791" lon="-79.568107">
        <time>2026-09-08T11:14:44Z</time>
      </trkpt>
      <trkpt lat="9.005802" lon="-79.568086">
        <time>2026-09-08T11:14:46Z</time>
      </trkpt>
      <trkpt lat="9.005812" lon="-79.568038">
        <time>2026-09-08T11:14:50Z</time>
      </trkpt>
      <trkpt lat="9.005785" lon="-79.567940">
        <time>2026-09-08T11:14:59Z</time>
      </trkpt>
      <trkpt lat="9.005731" lon="-79.567862">
        <time>2026-09-08T11:15:07Z</time>
      </trkpt>
      <trkpt lat="9.005717" lon="-79.567844">
        <time>2026-09-08T11:15:09Z</time>
      </trkpt>
      <trkpt lat="9.005685" lon="-79.567811">
        <time>2026-09-08T11:15:13Z</time>
      </trkpt>
      <trkpt lat="9.005675" lon="-79.567805">
        <time>2026-09-08T11:15:14Z</time>
      </trkpt>
      <trkpt lat="9.005671" lon="-79.567803">
        <time>2026-09-08T11:15:15Z</time>
      </trkpt>
      <trkpt lat="9.005638" lon="-79.567766">
        <time>2026-09-08T11:15:20Z</time>
      </trkpt>
      <trkpt lat="9.005604" lon="-79.567722">
        <time>2026-09-08T11:15:25Z</time>
      </trkpt>
      <trkpt lat="9.005581" lon="-79.567687">
        <time>2026-09-08T11:15:29Z</time>
      </trkpt>
      <trkpt lat="9.005521" lon="-79.567609">
        <time>2026-09-08T11:15:37Z</time>
      </trkpt>
      <trkpt lat="9.005484" lon="-79.567554">
        <time>2026-09-08T11:15:43Z</time>
      </trkpt>
      <trkpt lat="9.005447" lon="-79.567489">
        <time>2026-09-08T11:15:49Z</time>
      </trkpt>
      <trkpt lat="9.005434" lon="-79.567468">
        <time>2026-09-08T11:15:51Z</time>
      </trkpt>
      <trkpt lat="9.005419" lon="-79.567440">
        <time>2026-09-08T11:15:54Z</time>
      </trkpt>
      <trkpt lat="9.005392" lon="-79.567408">
        <time>2026-09-08T11:15:58Z</time>
      </trkpt>
      <trkpt lat="9.005352" lon="-79.567330">
        <time>2026-09-08T11:16:05Z</time>
      </trkpt>
      <trkpt lat="9.005317" lon="-79.567254">
        <time>2026-09-08T11:16:12Z</time>
      </trkpt>
      <trkpt lat="9.005311" lon="-79.567242">
        <time>2026-09-08T11:16:13Z</time>
      </trkpt>
      <trkpt lat="9.005294" lon="-79.567203">
        <time>2026-09-08T11:16:17Z</time>
      </trkpt>
      <trkpt lat="9.005283" lon="-79.567178">
        <time>2026-09-08T11:16:20Z</time>
      </trkpt>
      <trkpt lat="9.005271" lon="-79.567155">
        <time>2026-09-08T11:16:22Z</time>
      </trkpt>
      <trkpt lat="9.005268" lon="-79.567144">
        <time>2026-09-08T11:16:23Z</time>
      </trkpt>
      <trkpt lat="9.005242" lon="-79.567096">
        <time>2026-09-08T11:16:28Z</time>
      </trkpt>
      <trkpt lat="9.005230" lon="-79.567073">
        <time>2026-09-08T11:16:30Z</time>
      </trkpt>
      <trkpt lat="9.005206" lon="-79.567025">
        <time>2026-09-08T11:16:35Z</time>
      </trkpt>
      <trkpt lat="9.005200" lon="-79.567016">
        <time>2026-09-08T11:16:36Z</time>
      </trkpt>
      <trkpt lat="9.005168" lon="-79.566956">
        <time>2026-09-08T11:16:42Z</time>
      </trkpt>
      <trkpt lat="9.005152" lon="-79.566911">
        <time>2026-09-08T11:16:46Z</time>
      </trkpt>
      <trkpt lat="9.005149" lon="-79.566861">
        <time>2026-09-08T11:16:50Z</time>
      </trkpt>
      <trkpt lat="9.005115" lon="-79.566774">
        <time>2026-09-08T11:16:58Z</time>
      </trkpt>
      <trkpt lat="9.005090" lon="-79.566694">
        <time>2026-09-08T11:17:06Z</time>
      </trkpt>
      <trkpt lat="9.005086" lon="-79.566644">
        <time>2026-09-08T11:17:11Z</time>
      </trkpt>
      <trkpt lat="9.005080" lon="-79.566610">
        <time>2026-09-08T11:17:14Z</time>
      </trkpt>
      <trkpt lat="9.005058" lon="-79.566560">
        <time>2026-09-08T11:17:19Z</time>
      </trkpt>
      <trkpt lat="9.005047" lon="-79.566544">
        <time>2026-09-08T11:17:21Z</time>
      </trkpt>
      <trkpt lat="9.005035" lon="-79.566507">
        <time>2026-09-08T11:17:25Z</time>
      </trkpt>
      <trkpt lat="9.005033" lon="-79.566495">
        <time>2026-09-08T11:17:26Z</time>
      </trkpt>
      <trkpt lat="9.005021" lon="-79.566467">
        <time>2026-09-08T11:17:28Z</time>
      </trkpt>
      <trkpt lat="9.005004" lon="-79.566429">
        <time>2026-09-08T11:17:32Z</time>
      </trkpt>
      <trkpt lat="9.004999" lon="-79.566422">
        <time>2026-09-08T11:17:33Z</time>
      </trkpt>
      <trkpt lat="9.004998" lon="-79.566416">
        <time>2026-09-08T11:17:34Z</time>
      </trkpt>
      <trkpt lat="9.004991" lon="-79.566404">
        <time>2026-09-08T11:17:35Z</time>
      </trkpt>
      <trkpt lat="9.004980" lon="-79.566388">
        <time>2026-09-08T11:17:37Z</time>
      </trkpt>
      <trkpt lat="9.004970" lon="-79.566368">
        <time>2026-09-08T11:17:39Z</time>
      </trkpt>
      <trkpt lat="9.004950" lon="-79.566338">
        <time>2026-09-08T11:17:42Z</time>
      </trkpt>
      <trkpt lat="9.004926" lon="-79.566290">
        <time>2026-09-08T11:17:47Z</time>
      </trkpt>
      <trkpt lat="9.004918" lon="-79.566280">
        <time>2026-09-08T11:17:48Z</time>
      </trkpt>
      <trkpt lat="9.004895" lon="-79.566247">
        <time>2026-09-08T11:17:51Z</time>
      </trkpt>
      <trkpt lat="9.004890" lon="-79.566239">
        <time>2026-09-08T11:17:52Z</time>
      </trkpt>
      <trkpt lat="9.004886" lon="-79.566233">
        <time>2026-09-08T11:17:53Z</time>
      </trkpt>
      <trkpt lat="9.004879" lon="-79.566214">
        <time>2026-09-08T11:17:55Z</time>
      </trkpt>
      <trkpt lat="9.004869" lon="-79.566191">
        <time>2026-09-08T11:17:57Z</time>
      </trkpt>
      <trkpt lat="9.004848" lon="-79.566152">
        <time>2026-09-08T11:18:01Z</time>
      </trkpt>
      <trkpt lat="9.004842" lon="-79.566136">
        <time>2026-09-08T11:18:03Z</time>
      </trkpt>
      <trkpt lat="9.004804" lon="-79.566065">
        <time>2026-09-08T11:18:10Z</time>
      </trkpt>
      <trkpt lat="9.004762" lon="-79.565978">
        <time>2026-09-08T11:18:18Z</time>
      </trkpt>
      <trkpt lat="9.004728" lon="-79.565960">
        <time>2026-09-08T11:18:21Z</time>
      </trkpt>
      <trkpt lat="9.004716" lon="-79.565956">
        <time>2026-09-08T11:18:22Z</time>
      </trkpt>
      <trkpt lat="9.004689" lon="-79.565954">
        <time>2026-09-08T11:18:24Z</time>
      </trkpt>
      <trkpt lat="9.004666" lon="-79.565948">
        <time>2026-09-08T11:18:26Z</time>
      </trkpt>
      <trkpt lat="9.004618" lon="-79.565942">
        <time>2026-09-08T11:18:30Z</time>
      </trkpt>
      <trkpt lat="9.004591" lon="-79.565948">
        <time>2026-09-08T11:18:32Z</time>
      </trkpt>
      <trkpt lat="9.004559" lon="-79.565955">
        <time>2026-09-08T11:18:34Z</time>
      </trkpt>
      <trkpt lat="9.004522" lon="-79.565962">
        <time>2026-09-08T11:18:37Z</time>
      </trkpt>
      <trkpt lat="9.004487" lon="-79.565971">
        <time>2026-09-08T11:18:40Z</time>
      </trkpt>
      <trkpt lat="9.004454" lon="-79.565982">
        <time>2026-09-08T11:18:43Z</time>
      </trkpt>
      <trkpt lat="9.004432" lon="-79.565990">
        <time>2026-09-08T11:18:45Z</time>
      </trkpt>
      <trkpt lat="9.004420" lon="-79.565990">
        <time>2026-09-08T11:18:46Z</time>
      </trkpt>
      <trkpt lat="9.004398" lon="-79.565990">
        <time>2026-09-08T11:18:48Z</time>
      </trkpt>
      <trkpt lat="9.004317" lon="-79.566000">
        <time>2026-09-08T11:18:55Z</time>
      </trkpt>
      <trkpt lat="9.004265" lon="-79.566011">
        <time>2026-09-08T11:19:00Z</time>
      </trkpt>
      <trkpt lat="9.004236" lon="-79.566020">
        <time>2026-09-08T11:19:03Z</time>
      </trkpt>
      <trkpt lat="9.004166" lon="-79.566018">
        <time>2026-09-08T11:19:09Z</time>
      </trkpt>
      <trkpt lat="9.004066" lon="-79.566021">
        <time>2026-09-08T11:19:18Z</time>
      </trkpt>
      <trkpt lat="9.003985" lon="-79.566027">
        <time>2026-09-08T11:19:25Z</time>
      </trkpt>
      <trkpt lat="9.003915" lon="-79.566021">
        <time>2026-09-08T11:19:31Z</time>
      </trkpt>
      <trkpt lat="9.003869" lon="-79.566007">
        <time>2026-09-08T11:19:36Z</time>
      </trkpt>
      <trkpt lat="9.003802" lon="-79.565996">
        <time>2026-09-08T11:19:42Z</time>
      </trkpt>
      <trkpt lat="9.003723" lon="-79.565997">
        <time>2026-09-08T11:19:49Z</time>
      </trkpt>
      <trkpt lat="9.003658" lon="-79.566000">
        <time>2026-09-08T11:19:55Z</time>
      </trkpt>
      <trkpt lat="9.003615" lon="-79.566003">
        <time>2026-09-08T11:19:59Z</time>
      </trkpt>
      <trkpt lat="9.003591" lon="-79.565997">
        <time>2026-09-08T11:20:01Z</time>
      </trkpt>
      <trkpt lat="9.003521" lon="-79.565975">
        <time>2026-09-08T11:20:07Z</time>
      </trkpt>
      <trkpt lat="9.003438" lon="-79.565956">
        <time>2026-09-08T11:20:14Z</time>
      </trkpt>
      <trkpt lat="9.003362" lon="-79.565942">
        <time>2026-09-08T11:20:21Z</time>
      </trkpt>
      <trkpt lat="9.003329" lon="-79.565938">
        <time>2026-09-08T11:20:24Z</time>
      </trkpt>
      <trkpt lat="9.003298" lon="-79.565927">
        <time>2026-09-08T11:20:27Z</time>
      </trkpt>
      <trkpt lat="9.003208" lon="-79.565909">
        <time>2026-09-08T11:20:35Z</time>
      </trkpt>
      <trkpt lat="9.003131" lon="-79.565892">
        <time>2026-09-08T11:20:43Z</time>
      </trkpt>
      <trkpt lat="9.003068" lon="-79.565865">
        <time>2026-09-08T11:20:49Z</time>
      </trkpt>
      <trkpt lat="9.003004" lon="-79.565836">
        <time>2026-09-08T11:20:55Z</time>
      </trkpt>
      <trkpt lat="9.002971" lon="-79.565820">
        <time>2026-09-08T11:20:59Z</time>
      </trkpt>
      <trkpt lat="9.002946" lon="-79.565812">
        <time>2026-09-08T11:21:02Z</time>
      </trkpt>
      <trkpt lat="9.002937" lon="-79.565812">
        <time>2026-09-08T11:21:03Z</time>
      </trkpt>
      <trkpt lat="9.002906" lon="-79.565797">
        <time>2026-09-08T11:21:10Z</time>
      </trkpt>
      <trkpt lat="9.002906" lon="-79.565797">
        <time>2026-09-08T11:21:15Z</time>
      </trkpt>
      <trkpt lat="9.002906" lon="-79.565797">
        <time>2026-09-08T11:21:18Z</time>
      </trkpt>
      <trkpt lat="9.002906" lon="-79.565797">
        <time>2026-09-08T11:21:25Z</time>
      </trkpt>
      <trkpt lat="9.002906" lon="-79.565797">
        <time>2026-09-08T11:21:27Z</time>
      </trkpt>
      <trkpt lat="9.002906" lon="-79.565797">
        <time>2026-09-08T11:21:29Z</time>
      </trkpt>
      <trkpt lat="9.002906" lon="-79.565797">
        <time>2026-09-08T11:21:31Z</time>
      </trkpt>
      <trkpt lat="9.002906" lon="-79.565797">
        <time>2026-09-08T11:21:32Z</time>
      </trkpt>
      <trkpt lat="9.002906" lon="-79.565797">
        <time>2026-09-08T11:21:36Z</time>
      </trkpt>
      <trkpt lat="9.002906" lon="-79.565797">
        <time>2026-09-08T11:21:38Z</time>
      </trkpt>
      <trkpt lat="9.002906" lon="-79.565797">
        <time>2026-09-08T11:21:43Z</time>
      </trkpt>
      <trkpt lat="9.002906" lon="-79.565797">
        <time>2026-09-08T11:21:46Z</time>
      </trkpt>
      <trkpt lat="9.002906" lon="-79.565797">
        <time>2026-09-08T11:21:47Z</time>
      </trkpt>
      <trkpt lat="9.002906" lon="-79.565797">
        <time>2026-09-08T11:21:52Z</time>
      </trkpt>
      <trkpt lat="9.002906" lon="-79.565797">
        <time>2026-09-08T11:21:55Z</time>
      </trkpt>
      <trkpt lat="9.002906" lon="-79.565797">
        <time>2026-09-08T11:22:02Z</time>
      </trkpt>
      <trkpt lat="9.002906" lon="-79.565797">
        <time>2026-09-08T11:22:09Z</time>
      </trkpt>
      <trkpt lat="9.002906" lon="-79.565797">
        <time>2026-09-08T11:22:15Z</time>
      </trkpt>
      <trkpt lat="9.002910" lon="-79.565797">
        <time>2026-09-08T11:22:18Z</time>
      </trkpt>
      <trkpt lat="9.002913" lon="-79.565806">
        <time>2026-09-08T11:22:23Z</time>
      </trkpt>
      <trkpt lat="9.002912" lon="-79.565798">
        <time>2026-09-08T11:22:25Z</time>
      </trkpt>
      <trkpt lat="9.002906" lon="-79.565797">
        <time>2026-09-08T11:22:28Z</time>
      </trkpt>
      <trkpt lat="9.002906" lon="-79.565797">
        <time>2026-09-08T11:22:32Z</time>
      </trkpt>
      <trkpt lat="9.002918" lon="-79.565799">
        <time>2026-09-08T11:22:38Z</time>
      </trkpt>
      <trkpt lat="9.002919" lon="-79.565803">
        <time>2026-09-08T11:22:44Z</time>
      </trkpt>
      <trkpt lat="9.002919" lon="-79.565803">
        <time>2026-09-08T11:22:50Z</time>
      </trkpt>
      <trkpt lat="9.002919" lon="-79.565803">
        <time>2026-09-08T11:22:56Z</time>
      </trkpt>
      <trkpt lat="9.002919" lon="-79.565803">
        <time>2026-09-08T11:23:00Z</time>
      </trkpt>
      <trkpt lat="9.002919" lon="-79.565803">
        <time>2026-09-08T11:23:03Z</time>
      </trkpt>
      <trkpt lat="9.002919" lon="-79.565809">
        <time>2026-09-08T11:23:10Z</time>
      </trkpt>
      <trkpt lat="9.002920" lon="-79.565809">
        <time>2026-09-08T11:23:11Z</time>
      </trkpt>
      <trkpt lat="9.002917" lon="-79.565789">
        <time>2026-09-08T11:23:13Z</time>
      </trkpt>
      <trkpt lat="9.002911" lon="-79.565786">
        <time>2026-09-08T11:23:20Z</time>
      </trkpt>
      <trkpt lat="9.002911" lon="-79.565786">
        <time>2026-09-08T11:23:21Z</time>
      </trkpt>
      <trkpt lat="9.002907" lon="-79.565789">
        <time>2026-09-08T11:23:24Z</time>
      </trkpt>
      <trkpt lat="9.002911" lon="-79.565786">
        <time>2026-09-08T11:23:26Z</time>
      </trkpt>
      <trkpt lat="9.002911" lon="-79.565786">
        <time>2026-09-08T11:23:28Z</time>
      </trkpt>
      <trkpt lat="9.002911" lon="-79.565786">
        <time>2026-09-08T11:23:38Z</time>
      </trkpt>
      <trkpt lat="9.002911" lon="-79.565786">
        <time>2026-09-08T11:23:41Z</time>
      </trkpt>
      <trkpt lat="9.002911" lon="-79.565786">
        <time>2026-09-08T11:23:43Z</time>
      </trkpt>
      <trkpt lat="9.002903" lon="-79.565776">
        <time>2026-09-08T11:23:45Z</time>
      </trkpt>
      <trkpt lat="9.002891" lon="-79.565776">
        <time>2026-09-08T11:23:47Z</time>
      </trkpt>
      <trkpt lat="9.002884" lon="-79.565776">
        <time>2026-09-08T11:23:48Z</time>
      </trkpt>
      <trkpt lat="9.002828" lon="-79.565779">
        <time>2026-09-08T11:23:56Z</time>
      </trkpt>
      <trkpt lat="9.002812" lon="-79.565788">
        <time>2026-09-08T11:24:03Z</time>
      </trkpt>
      <trkpt lat="9.002812" lon="-79.565788">
        <time>2026-09-08T11:24:05Z</time>
      </trkpt>
      <trkpt lat="9.002784" lon="-79.565780">
        <time>2026-09-08T11:24:15Z</time>
      </trkpt>
      <trkpt lat="9.002703" lon="-79.565757">
        <time>2026-09-08T11:24:24Z</time>
      </trkpt>
      <trkpt lat="9.002648" lon="-79.565743">
        <time>2026-09-08T11:24:30Z</time>
      </trkpt>
      <trkpt lat="9.002604" lon="-79.565736">
        <time>2026-09-08T11:24:35Z</time>
      </trkpt>
      <trkpt lat="9.002564" lon="-79.565731">
        <time>2026-09-08T11:24:41Z</time>
      </trkpt>
      <trkpt lat="9.002513" lon="-79.565722">
        <time>2026-09-08T11:24:47Z</time>
      </trkpt>
      <trkpt lat="9.002443" lon="-79.565709">
        <time>2026-09-08T11:24:56Z</time>
      </trkpt>
      <trkpt lat="9.002358" lon="-79.565694">
        <time>2026-09-08T11:25:05Z</time>
      </trkpt>
      <trkpt lat="9.002311" lon="-79.565694">
        <time>2026-09-08T11:25:10Z</time>
      </trkpt>
      <trkpt lat="9.002229" lon="-79.565689">
        <time>2026-09-08T11:25:19Z</time>
      </trkpt>
      <trkpt lat="9.002152" lon="-79.565687">
        <time>2026-09-08T11:25:28Z</time>
      </trkpt>
      <trkpt lat="9.002057" lon="-79.565683">
        <time>2026-09-08T11:25:38Z</time>
      </trkpt>
      <trkpt lat="9.001953" lon="-79.565686">
        <time>2026-09-08T11:25:49Z</time>
      </trkpt>
      <trkpt lat="9.001944" lon="-79.565687">
        <time>2026-09-08T11:25:50Z</time>
      </trkpt>
      <trkpt lat="9.001861" lon="-79.565695">
        <time>2026-09-08T11:25:59Z</time>
      </trkpt>
      <trkpt lat="9.001832" lon="-79.565696">
        <time>2026-09-08T11:26:02Z</time>
      </trkpt>
      <trkpt lat="9.001754" lon="-79.565705">
        <time>2026-09-08T11:26:10Z</time>
      </trkpt>
      <trkpt lat="9.001673" lon="-79.565720">
        <time>2026-09-08T11:26:19Z</time>
      </trkpt>
      <trkpt lat="9.001657" lon="-79.565725">
        <time>2026-09-08T11:26:21Z</time>
      </trkpt>
      <trkpt lat="9.001588" lon="-79.565734">
        <time>2026-09-08T11:26:29Z</time>
      </trkpt>
      <trkpt lat="9.001567" lon="-79.565736">
        <time>2026-09-08T11:26:31Z</time>
      </trkpt>
      <trkpt lat="9.001471" lon="-79.565765">
        <time>2026-09-08T11:26:41Z</time>
      </trkpt>
      <trkpt lat="9.001399" lon="-79.565776">
        <time>2026-09-08T11:26:50Z</time>
      </trkpt>
      <trkpt lat="9.001303" lon="-79.565785">
        <time>2026-09-08T11:27:00Z</time>
      </trkpt>
      <trkpt lat="9.001248" lon="-79.565806">
        <time>2026-09-08T11:27:07Z</time>
      </trkpt>
      <trkpt lat="9.001223" lon="-79.565813">
        <time>2026-09-08T11:27:10Z</time>
      </trkpt>
      <trkpt lat="9.001148" lon="-79.565862">
        <time>2026-09-08T11:27:22Z</time>
      </trkpt>
      <trkpt lat="9.001145" lon="-79.565843">
        <time>2026-09-08T11:27:25Z</time>
      </trkpt>
      <trkpt lat="9.001130" lon="-79.565823">
        <time>2026-09-08T11:27:28Z</time>
      </trkpt>
      <trkpt lat="9.001108" lon="-79.565808">
        <time>2026-09-08T11:27:35Z</time>
      </trkpt>
      <trkpt lat="9.001108" lon="-79.565808">
        <time>2026-09-08T11:27:36Z</time>
      </trkpt>
      <trkpt lat="9.001108" lon="-79.565808">
        <time>2026-09-08T11:27:44Z</time>
      </trkpt>
      <trkpt lat="9.001108" lon="-79.565808">
        <time>2026-09-08T11:27:54Z</time>
      </trkpt>
      <trkpt lat="9.001107" lon="-79.565828">
        <time>2026-09-08T11:28:04Z</time>
      </trkpt>
      <trkpt lat="9.001109" lon="-79.565854">
        <time>2026-09-08T11:28:10Z</time>
      </trkpt>
      <trkpt lat="9.001134" lon="-79.565888">
        <time>2026-09-08T11:28:16Z</time>
      </trkpt>
      <trkpt lat="9.001148" lon="-79.565883">
        <time>2026-09-08T11:28:22Z</time>
      </trkpt>
      <trkpt lat="9.001148" lon="-79.565883">
        <time>2026-09-08T11:28:27Z</time>
      </trkpt>
      <trkpt lat="9.001148" lon="-79.565883">
        <time>2026-09-08T11:28:30Z</time>
      </trkpt>
      <trkpt lat="9.001148" lon="-79.565883">
        <time>2026-09-08T11:28:32Z</time>
      </trkpt>
      <trkpt lat="9.001148" lon="-79.565883">
        <time>2026-09-08T11:28:34Z</time>
      </trkpt>
      <trkpt lat="9.001148" lon="-79.565883">
        <time>2026-09-08T11:28:43Z</time>
      </trkpt>
      <trkpt lat="9.001148" lon="-79.565883">
        <time>2026-09-08T11:28:45Z</time>
      </trkpt>
      <trkpt lat="9.001148" lon="-79.565883">
        <time>2026-09-08T11:28:52Z</time>
      </trkpt>
      <trkpt lat="9.001148" lon="-79.565883">
        <time>2026-09-08T11:29:03Z</time>
      </trkpt>
      <trkpt lat="9.001148" lon="-79.565883">
        <time>2026-09-08T11:29:05Z</time>
      </trkpt>
      <trkpt lat="9.001148" lon="-79.565883">
        <time>2026-09-08T11:29:08Z</time>
      </trkpt>
      <trkpt lat="9.001148" lon="-79.565883">
        <time>2026-09-08T11:29:13Z</time>
      </trkpt>
      <trkpt lat="9.001148" lon="-79.565883">
        <time>2026-09-08T11:29:27Z</time>
      </trkpt>
      <trkpt lat="9.001148" lon="-79.565883">
        <time>2026-09-08T11:29:43Z</time>
      </trkpt>
      <trkpt lat="9.001148" lon="-79.565883">
        <time>2026-09-08T11:29:51Z</time>
      </trkpt>
      <trkpt lat="9.001148" lon="-79.565883">
        <time>2026-09-08T11:29:58Z</time>
      </trkpt>
      <trkpt lat="9.001148" lon="-79.565883">
        <time>2026-09-08T11:29:59Z</time>
      </trkpt>
      <trkpt lat="9.001148" lon="-79.565883">
        <time>2026-09-08T11:30:11Z</time>
      </trkpt>
      <trkpt lat="9.001173" lon="-79.565878">
        <time>2026-09-08T11:30:17Z</time>
      </trkpt>
    </trkseg>
  </trk>
</gpx>
